,status,continent,continentCode,country,countryCode,region,regionName,city,district,zip,lat,lon,timezone,isp,org,as,asname,reverse,mobile,proxy,hosting,query,message
0,success,Europe,EU,France,FR,HDF,Hauts-de-France,Roubaix,,59100,50.6924,3.20113,Europe/Paris,OVH SAS,OVH,AS16276 OVH SAS,OVH,hydrogen297-ext2.ahrefs.net,False,False,True,54.36.149.41,
1,success,North America,NA,United States,US,VA,Virginia,Boydton,,23917,36.677696,-78.37471,America/New_York,Microsoft Corporation,Microsoft Azure Cloud (eastus2),AS8075 Microsoft Corporation,MICROSOFT-CORP-MSN-AS-BLOCK,msnbot-40-77-167-129.search.msn.com,False,False,True,40.77.167.129,
2,success,Europe,EU,Germany,DE,BY,Bavaria,Nuremberg,,90403,49.4527,11.0783,Europe/Berlin,Hetzner Online GmbH,Hetzner,AS24940 Hetzner Online GmbH,HETZNER-AS,static.15.72.99.91.clients.your-server.de,False,False,True,91.99.72.15,
3,success,North America,NA,United States,US,CA,California,Mountain View,,94043,37.4225,-122.085,America/Los_Angeles,Google LLC,Google LLC,AS15169 Google LLC,GOOGLE,crawl-66-249-66-194.googlebot.com,False,False,True,66.249.66.194,
4,success,North America,NA,United States,US,WA,Washington,Quincy,,98848,47.233,-119.852,America/Los_Angeles,Microsoft Corporation,Microsoft Azure Cloud (westus2),AS8075 Microsoft Corporation,MICROSOFT-CORP-MSN-AS-BLOCK,msnbot-207-46-13-136.search.msn.com,False,False,True,207.46.13.136,
5,success,North America,NA,United States,US,CA,California,Mountain View,,94043,37.4225,-122.085,America/Los_Angeles,Google LLC,Google LLC,AS15169 Google LLC,GOOGLE,crawl-66-249-66-91.googlebot.com,False,False,True,66.249.66.91,
6,success,Europe,EU,Ireland,IE,L,Leinster,Dublin,,D02,53.3498,-6.26031,Europe/Dublin,Amazon Technologies Inc.,AWS EC2 (eu-west-1),"AS16509 Amazon.com, Inc.",AMAZON-02,ec2-34-247-132-53.eu-west-1.compute.amazonaws.com,False,False,True,34.247.132.53,
7,success,Europe,EU,France,FR,HDF,Hauts-de-France,Roubaix,,59100,50.6924,3.20113,Europe/Paris,OVH SAS,OVH,AS16276 OVH SAS,OVH,hydrogen326-ext2.ahrefs.net,False,False,True,54.36.149.70,
8,success,Asia,AS,Iran,IR,23,Tehran,Tehran,,,35.6824,51.4158,Asia/Tehran,Mobile Communication Company,4G-service,AS197207 Mobile Communication Company of Iran PLC,MCCI-AS,,True,False,False,89.199.193.251,
9,success,North America,NA,United States,US,WA,Washington,Quincy,,98848,47.233,-119.852,America/Los_Angeles,Microsoft Corporation,Microsoft Azure Cloud (westus2),AS8075 Microsoft Corporation,MICROSOFT-CORP-MSN-AS-BLOCK,msnbot-207-46-13-115.search.msn.com,False,False,True,207.46.13.115,
10,success,Europe,EU,France,FR,GES,Grand Est,Lauterbourg,,67630,48.9742,8.1851,Europe/Paris,Contabo GmbH,Contabo GmbH,AS51167 Contabo GmbH,CONTABO,vmi2427209.contaboserver.net,False,False,True,173.249.54.67,
11,success,Asia,AS,Iran,IR,23,Tehran,Tehran,,,35.6824,51.4158,Asia/Tehran,Iran Cell Service and Communication Company,,AS44244 Iran Cell Service and Communication Company,IranCell-AS,,False,False,False,5.112.52.254,
12,success,Europe,EU,France,FR,HDF,Hauts-de-France,Roubaix,,59100,50.6924,3.20113,Europe/Paris,OVH SAS,OVH,AS16276 OVH SAS,OVH,hydrogen087-ext2.ahrefs.net,False,False,True,54.36.148.87,
13,success,North America,NA,United States,US,CA,California,Cupertino,,95014,37.3322,-122.011,America/Los_Angeles,Apple Inc.,Apple Inc,AS714 Apple Inc.,APPLE-ENGINEERING,17-58-102-43.applebot.apple.com,False,False,False,17.58.102.43,
14,success,Europe,EU,Netherlands,NL,NH,North Holland,Haarlem,,2011,52.3803,4.6422,Europe/Amsterdam,Online SAS NL,SCALEWAY,AS12876 SCALEWAY S.A.S.,AS12876,51-15-15-54.rev.poneytelecom.eu,False,False,True,51.15.15.54,
15,success,Europe,EU,France,FR,HDF,Hauts-de-France,Roubaix,,59100,50.6924,3.20113,Europe/Paris,OVH SAS,OVH,AS16276 OVH SAS,OVH,hydrogen273-ext2.ahrefs.net,False,False,True,54.36.149.17,
16,success,Asia,AS,Iran,IR,23,Tehran,Tehran,,,35.6824,51.4158,Asia/Tehran,Rightel Communication Service Company PJS,Rightel Communication Service Company PJS,"AS57218 ""Rightel Communication Service Company PJS""",RighTel,,False,False,False,5.62.206.249,
17,success,Europe,EU,France,FR,HDF,Hauts-de-France,Roubaix,,59100,50.6924,3.20113,Europe/Paris,OVH SAS,OVH,AS16276 OVH SAS,OVH,hydrogen018-ext2.a.ahrefs.com,False,False,True,54.36.148.18,
18,success,Europe,EU,France,FR,HDF,Hauts-de-France,Roubaix,,59100,50.6924,3.20113,Europe/Paris,OVH SAS,OVH,AS16276 OVH SAS,OVH,hydrogen017-ext2.ahrefs.net,False,False,True,54.36.148.17,
19,success,Asia,AS,Iran,IR,15,Lorestan Province,Khorramabad,,,33.5339,48.328,Asia/Tehran,Iran Telecommunication Company PJS,TCL DSL,AS58224 Iran Telecommunication Company PJS,TCI,,False,False,False,2.185.221.79,
20,success,North America,NA,United States,US,WA,Washington,Quincy,,98848,47.233,-119.852,America/Los_Angeles,Microsoft Corporation,Microsoft Azure Cloud (westus2),AS8075 Microsoft Corporation,MICROSOFT-CORP-MSN-AS-BLOCK,msnbot-207-46-13-104.search.msn.com,False,False,True,207.46.13.104,
21,success,North America,NA,United States,US,CA,California,San Jose,,95131,37.3881,-121.8756,America/Los_Angeles,Gordon Food Service,Total server solutions,AS19936 Gordon Food Service,GORDONFOODS,,False,True,False,66.111.54.249,
22,success,Europe,EU,France,FR,HDF,Hauts-de-France,Roubaix,,59100,50.6924,3.20113,Europe/Paris,OVH SAS,OVH,AS16276 OVH SAS,OVH,hydrogen032-ext2.ahrefs.net,False,False,True,54.36.148.32,
23,success,Europe,EU,France,FR,HDF,Hauts-de-France,Roubaix,,59100,50.6924,3.20113,Europe/Paris,OVH SAS,OVH,AS16276 OVH SAS,OVH,hydrogen291-ext2.ahrefs.net,False,False,True,54.36.149.35,
24,fail,,,,,,,,,,,,,,,,,,,,,172.20.2.174,private range
25,success,Asia,AS,Iran,IR,23,Tehran,Tehran,,,35.7219,51.3347,Asia/Tehran,Respina Networks & Beyond PJSC,Pishgaman Pouya Investment Ltd,AS42337 Respina Networks & Beyond PJSC,RESPINA-AS,,False,False,False,5.160.157.20,
26,success,Europe,EU,France,FR,HDF,Hauts-de-France,Roubaix,,59100,50.6924,3.20113,Europe/Paris,OVH SAS,OVH,AS16276 OVH SAS,OVH,hydrogen161-ext2.ahrefs.net,False,False,True,54.36.148.161,
27,success,North America,NA,United States,US,WA,Washington,Quincy,,98848,47.233,-119.852,America/Los_Angeles,Microsoft Corporation,Microsoft Azure Cloud (westus2),AS8075 Microsoft Corporation,MICROSOFT-CORP-MSN-AS-BLOCK,msnbot-157-55-39-245.search.msn.com,False,False,True,157.55.39.245,
28,success,Europe,EU,France,FR,HDF,Hauts-de-France,Roubaix,,59100,50.6924,3.20113,Europe/Paris,OVH SAS,OVH,AS16276 OVH SAS,OVH,hydrogen319-ext2.ahrefs.net,False,False,True,54.36.149.63,
29,success,Europe,EU,France,FR,HDF,Hauts-de-France,Roubaix,,59100,50.6924,3.20113,Europe/Paris,OVH SAS,OVH,AS16276 OVH SAS,OVH,hydrogen010-ext2.ahrefs.net,False,False,True,54.36.148.10,
30,success,North America,NA,United States,US,CA,California,Mountain View,,94043,37.4225,-122.085,America/Los_Angeles,Google LLC,Google LLC,AS15169 Google LLC,GOOGLE,crawl-66-249-64-66.googlebot.com,False,False,True,66.249.64.66,
31,success,North America,NA,United States,US,OR,Oregon,Hillsboro,,97129,45.526,-122.9874,America/Los_Angeles,Hetzner Online GmbH,Hetzner Online GmbH,AS212317 Hetzner Online GmbH,HETZNER-CLOUD3-AS,static.75.180.78.5.clients.your-server.de,False,False,False,5.78.180.75,
32,success,Europe,EU,France,FR,HDF,Hauts-de-France,Roubaix,,59100,50.6924,3.20113,Europe/Paris,OVH SAS,OVH,AS16276 OVH SAS,OVH,hydrogen117-ext2.ahrefs.net,False,False,True,54.36.148.117,
33,success,Europe,EU,France,FR,HDF,Hauts-de-France,Roubaix,,59100,50.6924,3.20113,Europe/Paris,OVH SAS,OVH,AS16276 OVH SAS,OVH,hydrogen232-ext2.ahrefs.net,False,False,True,54.36.148.232,
34,success,Europe,EU,Germany,DE,SN,Saxony,Falkenstein,,08223,50.4777,12.3649,Europe/Berlin,Hetzner Online GmbH,Hetzner,AS24940 Hetzner Online GmbH,HETZNER-AS,static.32.77.224.46.clients.your-server.de,False,False,True,46.224.77.32,
35,success,Europe,EU,France,FR,HDF,Hauts-de-France,Roubaix,,59100,50.6924,3.20113,Europe/Paris,OVH SAS,OVH,AS16276 OVH SAS,OVH,hydrogen348-ext2.ahrefs.net,False,False,True,54.36.149.92,
36,success,Europe,EU,France,FR,HDF,Hauts-de-France,Roubaix,,59100,50.6924,3.20113,Europe/Paris,OVH SAS,OVH,AS16276 OVH SAS,OVH,hydrogen314-ext2.ahrefs.net,False,False,True,54.36.149.58,
37,success,Europe,EU,France,FR,HDF,Hauts-de-France,Roubaix,,59100,50.6924,3.20113,Europe/Paris,OVH SAS,OVH,AS16276 OVH SAS,OVH,hydrogen339-ext2.ahrefs.net,False,False,True,54.36.149.83,
38,success,North America,NA,United States,US,CA,California,Mountain View,,94043,37.4225,-122.085,America/Los_Angeles,Google LLC,Google LLC,AS15169 Google LLC,GOOGLE,crawl-66-249-66-197.googlebot.com,False,False,True,66.249.66.197,
39,success,Europe,EU,France,FR,HDF,Hauts-de-France,Roubaix,,59100,50.6924,3.20113,Europe/Paris,OVH SAS,OVH,AS16276 OVH SAS,OVH,hydrogen340-ext2.ahrefs.net,False,False,True,54.36.149.84,
40,success,North America,NA,United States,US,WA,Washington,Tukwila,,98168,47.4902,-122.3004,America/Los_Angeles,Wowrack.com,Wowrack.com,AS23033 Wowrack.com,WOW,,False,True,True,216.244.66.248,
41,success,Europe,EU,France,FR,HDF,Hauts-de-France,Roubaix,,59100,50.6924,3.20113,Europe/Paris,OVH SAS,OVH,AS16276 OVH SAS,OVH,hydrogen039-ext2.ahrefs.net,False,False,True,54.36.149.105,
42,success,Europe,EU,France,FR,HDF,Hauts-de-France,Roubaix,,59100,50.6924,3.20113,Europe/Paris,OVH SAS,OVH,AS16276 OVH SAS,OVH,hydrogen272-ext2.ahrefs.net,False,False,True,54.36.149.16,
43,success,Europe,EU,France,FR,HDF,Hauts-de-France,Roubaix,,59100,50.6924,3.20113,Europe/Paris,OVH SAS,OVH,AS16276 OVH SAS,OVH,hydrogen263-ext2.ahrefs.net,False,False,True,54.36.149.7,
44,success,Europe,EU,France,FR,HDF,Hauts-de-France,Roubaix,,59100,50.6924,3.20113,Europe/Paris,OVH SAS,OVH,AS16276 OVH SAS,OVH,hydrogen333-ext2.ahrefs.net,False,False,True,54.36.149.77,
45,success,Europe,EU,France,FR,HDF,Hauts-de-France,Roubaix,,59100,50.6924,3.20113,Europe/Paris,OVH SAS,OVH,AS16276 OVH SAS,OVH,hydrogen358-ext2.ahrefs.net,False,False,True,54.36.149.102,
46,success,Asia,AS,Iran,IR,06,Khuzestan,Behbahān,,,30.5959,50.2417,Asia/Tehran,IRANCELL,,AS44244 Iran Cell Service and Communication Company,IranCell-AS,,True,False,False,5.127.80.240,
47,success,Asia,AS,Iran,IR,23,Tehran,Tehran,,,35.7219,51.3347,Asia/Tehran,Esfahan,,AS44244 Iran Cell Service and Communication Company,IranCell-AS,,False,False,False,5.123.89.112,
48,success,Asia,AS,Iran,IR,23,Tehran,Tehran,District 2,,35.7863,51.3811,Asia/Tehran,Pars Parva System Ltd,,AS60631 Vandad Vira Hooman LLC,PARVASYSTEM,mail.garda.ir,False,False,True,130.185.74.243,
49,success,Europe,EU,France,FR,HDF,Hauts-de-France,Roubaix,,59100,50.6924,3.20113,Europe/Paris,OVH SAS,OVH,AS16276 OVH SAS,OVH,hydrogen014-ext2.ahrefs.net,False,False,True,54.36.148.14,
50,success,Europe,EU,France,FR,HDF,Hauts-de-France,Roubaix,,59100,50.6924,3.20113,Europe/Paris,OVH SAS,OVH,AS16276 OVH SAS,OVH,hydrogen197-ext2.ahrefs.net,False,False,True,54.36.148.197,
51,success,Europe,EU,France,FR,HDF,Hauts-de-France,Roubaix,,59100,50.6924,3.20113,Europe/Paris,OVH SAS,OVH,AS16276 OVH SAS,OVH,hydrogen310-ext2.ahrefs.net,False,False,True,54.36.149.54,
52,success,Europe,EU,France,FR,HDF,Hauts-de-France,Roubaix,,59100,50.6924,3.20113,Europe/Paris,OVH SAS,OVH,AS16276 OVH SAS,OVH,hydrogen070-ext2.ahrefs.net,False,False,True,54.36.148.70,
53,success,Asia,AS,Iran,IR,23,Tehran,Tehran,,,35.6824,51.4158,Asia/Tehran,Mobile Communication Company of Iran,Mobile Communication Company,AS197207 Mobile Communication Company of Iran PLC,MCCI-AS,,True,False,False,5.217.191.165,
54,success,North America,NA,United States,US,WA,Washington,Quincy,,98848,47.233,-119.852,America/Los_Angeles,Microsoft Corporation,Microsoft Azure Cloud (westus2),AS8075 Microsoft Corporation,MICROSOFT-CORP-MSN-AS-BLOCK,msnbot-157-55-39-175.search.msn.com,False,False,True,157.55.39.175,
55,success,Asia,AS,Iran,IR,23,Tehran,Tehran,,,35.7607,51.4043,Asia/Tehran,Mobile Communication Company of Iran,Mobile Communication Company,AS197207 Mobile Communication Company of Iran PLC,MCCI-AS,,True,False,False,5.209.127.187,
56,success,Europe,EU,France,FR,HDF,Hauts-de-France,Roubaix,,59100,50.6924,3.20113,Europe/Paris,OVH SAS,OVH,AS16276 OVH SAS,OVH,hydrogen135-ext2.ahrefs.net,False,False,True,54.36.148.135,
57,success,Asia,AS,Iran,IR,23,Tehran,Tehran,,,35.7219,51.3347,Asia/Tehran,Esfahan,,AS44244 Iran Cell Service and Communication Company,IranCell-AS,,True,False,False,5.123.209.223,
58,success,Europe,EU,France,FR,HDF,Hauts-de-France,Roubaix,,59100,50.6924,3.20113,Europe/Paris,OVH SAS,OVH,AS16276 OVH SAS,OVH,hydrogen057-ext2.ahrefs.net,False,False,True,54.36.148.57,
59,success,Europe,EU,France,FR,HDF,Hauts-de-France,Roubaix,,59100,50.6924,3.20113,Europe/Paris,OVH SAS,OVH,AS16276 OVH SAS,OVH,hydrogen028-ext2.a.ahrefs.com,False,False,True,54.36.148.28,
60,success,Europe,EU,France,FR,HDF,Hauts-de-France,Roubaix,,59100,50.6924,3.20113,Europe/Paris,OVH SAS,OVH,AS16276 OVH SAS,OVH,hydrogen185-ext2.ahrefs.net,False,False,True,54.36.148.185,
61,success,Europe,EU,France,FR,HDF,Hauts-de-France,Roubaix,,59100,50.6924,3.20113,Europe/Paris,OVH SAS,OVH,AS16276 OVH SAS,OVH,hydrogen176-ext2.ahrefs.net,False,False,True,54.36.148.176,
62,success,Europe,EU,France,FR,HDF,Hauts-de-France,Roubaix,,59100,50.6924,3.20113,Europe/Paris,OVH SAS,OVH,AS16276 OVH SAS,OVH,hydrogen072-ext2.ahrefs.net,False,False,True,54.36.148.72,
63,success,North America,NA,United States,US,CA,California,Mountain View,,94043,37.4225,-122.085,America/Los_Angeles,Google LLC,Google LLC,AS15169 Google LLC,GOOGLE,google-proxy-66-249-83-1.google.com,False,False,True,66.249.83.1,
64,success,Europe,EU,France,FR,HDF,Hauts-de-France,Roubaix,,59100,50.6924,3.20113,Europe/Paris,OVH SAS,OVH,AS16276 OVH SAS,OVH,hydrogen342-ext2.ahrefs.net,False,False,True,54.36.149.86,
65,success,North America,NA,United States,US,CA,California,Mountain View,,94043,37.4225,-122.085,America/Los_Angeles,Google LLC,Google LLC,AS15169 Google LLC,GOOGLE,google-proxy-66-249-83-5.google.com,False,False,True,66.249.83.5,
66,success,Europe,EU,France,FR,HDF,Hauts-de-France,Roubaix,,59100,50.6924,3.20113,Europe/Paris,OVH SAS,OVH,AS16276 OVH SAS,OVH,hydrogen143-ext2.ahrefs.net,False,False,True,54.36.148.143,
67,success,Europe,EU,France,FR,HDF,Hauts-de-France,Roubaix,,59100,50.6924,3.20113,Europe/Paris,OVH SAS,OVH,AS16276 OVH SAS,OVH,hydrogen118-ext2.ahrefs.net,False,False,True,54.36.148.118,
68,success,Europe,EU,France,FR,HDF,Hauts-de-France,Roubaix,,59100,50.6924,3.20113,Europe/Paris,OVH SAS,OVH,AS16276 OVH SAS,OVH,hydrogen065-ext2.ahrefs.net,False,False,True,54.36.148.65,
69,success,Europe,EU,France,FR,HDF,Hauts-de-France,Roubaix,,59100,50.6924,3.20113,Europe/Paris,OVH SAS,OVH,AS16276 OVH SAS,OVH,hydrogen022-ext2.ahrefs.net,False,False,True,54.36.148.22,
70,success,Europe,EU,France,FR,HDF,Hauts-de-France,Roubaix,,59100,50.6924,3.20113,Europe/Paris,OVH SAS,OVH,AS16276 OVH SAS,OVH,hydrogen324-ext2.ahrefs.net,False,False,True,54.36.149.68,
71,success,Europe,EU,France,FR,HDF,Hauts-de-France,Roubaix,,59100,50.6924,3.20113,Europe/Paris,OVH SAS,OVH,AS16276 OVH SAS,OVH,hydrogen023-ext2.ahrefs.net,False,False,True,54.36.148.23,
72,success,Europe,EU,France,FR,HDF,Hauts-de-France,Roubaix,,59100,50.6924,3.20113,Europe/Paris,OVH SAS,OVH,AS16276 OVH SAS,OVH,hydrogen211-ext2.ahrefs.net,False,False,True,54.36.148.211,
73,success,Europe,EU,France,FR,HDF,Hauts-de-France,Roubaix,,59100,50.6924,3.20113,Europe/Paris,OVH SAS,OVH,AS16276 OVH SAS,OVH,hydrogen267-ext2.ahrefs.net,False,False,True,54.36.149.11,
74,success,Europe,EU,France,FR,HDF,Hauts-de-France,Roubaix,,59100,50.6924,3.20113,Europe/Paris,OVH SAS,OVH,AS16276 OVH SAS,OVH,hydrogen137-ext2.ahrefs.net,False,False,True,54.36.148.137,
75,success,Asia,AS,Iran,IR,23,Tehran,Tehran,,,35.7219,51.3347,Asia/Tehran,Iran Cell Service and Communication Company,IRANCELL,AS44244 Iran Cell Service and Communication Company,IranCell-AS,,False,False,False,5.115.150.169,
76,success,Asia,AS,Iran,IR,15,Lorestan Province,Aznā,,,33.6095,48.9307,Asia/Tehran,Iran Cell Service and Communication Company,IRANCELL,AS44244 Iran Cell Service and Communication Company,IranCell-AS,,False,False,False,5.123.232.17,
77,success,North America,NA,United States,US,CA,California,Cupertino,,95014,37.3322,-122.011,America/Los_Angeles,Apple Inc.,Apple Inc,AS714 Apple Inc.,APPLE-ENGINEERING,17-58-97-4.applebot.apple.com,False,False,False,17.58.97.4,
78,success,Europe,EU,France,FR,HDF,Hauts-de-France,Roubaix,,59100,50.6924,3.20113,Europe/Paris,OVH SAS,OVH,AS16276 OVH SAS,OVH,hydrogen237-ext2.ahrefs.net,False,False,True,54.36.148.237,
79,success,North America,NA,United States,US,CA,California,Mountain View,,94043,37.4225,-122.085,America/Los_Angeles,Google LLC,Google LLC,AS15169 Google LLC,GOOGLE,crawl-66-249-66-195.googlebot.com,False,False,True,66.249.66.195,
80,success,Asia,AS,Iran,IR,23,Tehran,Tehran,,,35.7219,51.3347,Asia/Tehran,Iran Cell Service and Communication Company,,AS44244 Iran Cell Service and Communication Company,IranCell-AS,,True,False,False,5.115.54.117,
81,success,Europe,EU,France,FR,HDF,Hauts-de-France,Roubaix,,59100,50.6924,3.20113,Europe/Paris,OVH SAS,OVH,AS16276 OVH SAS,OVH,hydrogen315-ext2.ahrefs.net,False,False,True,54.36.149.59,
82,success,Europe,EU,France,FR,HDF,Hauts-de-France,Roubaix,,59100,50.6924,3.20113,Europe/Paris,OVH SAS,OVH,AS16276 OVH SAS,OVH,hydrogen100-ext2.ahrefs.net,False,False,True,54.36.148.100,
83,success,Asia,AS,Hong Kong,HK,HCW,Central and Western District,Hong Kong,,00000,22.267,114.188,Asia/Hong_Kong,Microsoft Corporation,Microsoft Azure Cloud (eastasia),AS8075 Microsoft Corporation,MICROSOFT-CORP-MSN-AS-BLOCK,msnbot-40-77-193-190.search.msn.com,False,False,True,40.77.193.190,
84,success,Europe,EU,Romania,RO,B,București,Bucharest,,010021,44.4946,26.0578,Europe/Bucharest,RCS & RDS,RCS & RDS Residential,AS8708 RCS & RDS,RCS-RDS,188-25-76-139.rdsnet.ro,False,False,False,188.25.76.139,
85,success,Asia,AS,Hong Kong,HK,HCW,Central and Western District,Hong Kong,,00000,22.267,114.188,Asia/Hong_Kong,Microsoft Corporation,Microsoft Azure Cloud (eastasia),AS8075 Microsoft Corporation,MICROSOFT-CORP-MSN-AS-BLOCK,msnbot-40-77-193-47.search.msn.com,False,False,True,40.77.193.47,
86,success,Asia,AS,Hong Kong,HK,HCW,Central and Western District,Hong Kong,,00000,22.267,114.188,Asia/Hong_Kong,Microsoft Corporation,Microsoft Azure Cloud (eastasia),AS8075 Microsoft Corporation,MICROSOFT-CORP-MSN-AS-BLOCK,msnbot-40-77-195-42.search.msn.com,False,False,True,40.77.195.42,
87,success,Asia,AS,Hong Kong,HK,HCW,Central and Western District,Hong Kong,,00000,22.267,114.188,Asia/Hong_Kong,Microsoft Corporation,Microsoft Azure Cloud (eastasia),AS8075 Microsoft Corporation,MICROSOFT-CORP-MSN-AS-BLOCK,msnbot-40-77-253-31.search.msn.com,False,False,True,40.77.253.31,
88,success,Asia,AS,Iran,IR,23,Tehran,Tehran,District 3,,35.7808,51.4361,Asia/Tehran,SHATEL Network,Aria Shatel PJSC,AS34369 Aria Shatel PJSC,AS-SHATELMOBILE,37-202-154-8.shatel.ir,True,False,False,37.202.154.8,
89,success,Europe,EU,France,FR,HDF,Hauts-de-France,Roubaix,,59100,50.6924,3.20113,Europe/Paris,OVH SAS,OVH,AS16276 OVH SAS,OVH,hydrogen029-ext2.ahrefs.net,False,False,True,54.36.148.29,
90,success,North America,NA,United States,US,NJ,New Jersey,Piscataway,,08854,40.5511,-74.4606,America/New_York,24 SHELLS,B2 Net Solutions Inc,AS55081 24 SHELLS,24SHELLS,,False,True,True,192.119.14.199,
91,success,Europe,EU,France,FR,HDF,Hauts-de-France,Roubaix,,59100,50.6924,3.20113,Europe/Paris,OVH SAS,OVH,AS16276 OVH SAS,OVH,hydrogen262-ext2.ahrefs.net,False,False,True,54.36.149.6,
92,success,Asia,AS,Iran,IR,06,Khuzestan,Ahvaz,,,31.319,48.6842,Asia/Tehran,IRANCELL,,AS44244 Iran Cell Service and Communication Company,IranCell-AS,,True,False,False,5.127.227.69,
93,success,Europe,EU,France,FR,HDF,Hauts-de-France,Roubaix,,59100,50.6924,3.20113,Europe/Paris,OVH SAS,OVH,AS16276 OVH SAS,OVH,hydrogen088-ext2.ahrefs.net,False,False,True,54.36.148.88,
94,success,Asia,AS,Iran,IR,23,Tehran,Tehran,,,35.6824,51.4158,Asia/Tehran,Iran Cell Service and Communication Company,,AS44244 Iran Cell Service and Communication Company,IranCell-AS,,False,False,False,5.112.80.163,
95,success,Asia,AS,Iran,IR,23,Tehran,Tehran,,,35.7607,51.4043,Asia/Tehran,Mobile Communication Company of Iran,Mobile Communication Company,AS197207 Mobile Communication Company of Iran PLC,MCCI-AS,,True,False,False,89.198.116.98,
96,success,Africa,AF,South Africa,ZA,GP,Gauteng,Centurion,,0172,-25.8555,28.188,Africa/Johannesburg,HostRoyale Technologies Pvt Ltd,HostRoyale Technologies,AS203020 HostRoyale Technologies Pvt Ltd,HostRoyale,,False,True,False,93.113.124.199,
97,success,North America,NA,United States,US,DC,District of Columbia,Washington,,20068,38.9072,-77.0369,America/New_York,Hosting segment,Advanced Hosters B.V.,AS39572 DataWeb Global Group B.V.,ADVANCEDHOSTERS-AS,mx.semrush.com,False,False,True,46.229.161.131,
98,success,Europe,EU,France,FR,HDF,Hauts-de-France,Roubaix,,59100,50.6924,3.20113,Europe/Paris,OVH SAS,OVH,AS16276 OVH SAS,OVH,hydrogen125-ext2.ahrefs.net,False,False,True,54.36.148.125,
99,success,Asia,AS,Iran,IR,09,Razavi Khorasan,Mashhad,,,36.3006,59.5904,Asia/Tehran,IRANCELL,,AS44244 Iran Cell Service and Communication Company,IranCell-AS,,True,False,False,5.126.60.10,
100,success,Europe,EU,France,FR,HDF,Hauts-de-France,Roubaix,,59100,50.6924,3.20113,Europe/Paris,OVH SAS,OVH,AS16276 OVH SAS,OVH,hydrogen113-ext2.ahrefs.net,False,False,True,54.36.148.113,
101,success,Asia,AS,Iran,IR,23,Tehran,Tehran,,,35.7607,51.4043,Asia/Tehran,Mobile Communication Company of Iran,Mobile Communication Company,AS197207 Mobile Communication Company of Iran PLC,MCCI-AS,,True,False,False,89.198.193.18,
102,success,Asia,AS,Iran,IR,07,Fars,Shiraz,,,29.6495,52.4745,Asia/Tehran,Iran Telecommunication Company PJS,Telecommunication Company,AS58224 Iran Telecommunication Company PJS,TCI,,False,False,False,151.235.137.158,
103,success,Europe,EU,France,FR,HDF,Hauts-de-France,Roubaix,,59100,50.6924,3.20113,Europe/Paris,OVH SAS,OVH,AS16276 OVH SAS,OVH,hydrogen159-ext2.ahrefs.net,False,False,True,54.36.148.159,
104,success,North America,NA,Canada,CA,ON,Ontario,Toronto,,,43.6532,-79.3832,America/Toronto,Amazon Technologies Inc.,AWS EC2 (ca-central-1),"AS16509 Amazon.com, Inc.",AMAZON-02,ec2-35-182-176-64.ca-central-1.compute.amazonaws.com,False,True,True,35.182.176.64,
105,success,Europe,EU,France,FR,HDF,Hauts-de-France,Roubaix,,59100,50.6924,3.20113,Europe/Paris,OVH SAS,OVH,AS16276 OVH SAS,OVH,hydrogen248-ext2.ahrefs.net,False,False,True,54.36.148.248,
106,success,Asia,AS,Iran,IR,06,Khuzestan,Ahvaz,,,31.319,48.6842,Asia/Tehran,IRANCELL,,AS44244 Iran Cell Service and Communication Company,IranCell-AS,,True,False,False,5.127.189.90,
107,success,Europe,EU,France,FR,HDF,Hauts-de-France,Roubaix,,59100,50.6924,3.20113,Europe/Paris,OVH SAS,OVH,AS16276 OVH SAS,OVH,hydrogen217-ext2.ahrefs.net,False,False,True,54.36.148.217,
108,success,Europe,EU,France,FR,HDF,Hauts-de-France,Roubaix,,59100,50.6924,3.20113,Europe/Paris,OVH SAS,OVH,AS16276 OVH SAS,OVH,hydrogen021-ext2.ahrefs.net,False,False,True,54.36.149.106,
109,success,Asia,AS,Iran,IR,10,Isfahan,Rehnān,,,32.6833,51.6016,Asia/Tehran,Iran Cell Service and Communication Company,IRANCELL,AS44244 Iran Cell Service and Communication Company,IranCell-AS,,True,False,False,5.123.174.57,
110,success,Europe,EU,France,FR,HDF,Hauts-de-France,Roubaix,,59100,50.6924,3.20113,Europe/Paris,OVH SAS,OVH,AS16276 OVH SAS,OVH,hydrogen258-ext2.ahrefs.net,False,False,True,54.36.149.2,
111,success,Europe,EU,France,FR,HDF,Hauts-de-France,Roubaix,,59100,50.6924,3.20113,Europe/Paris,OVH SAS,OVH,AS16276 OVH SAS,OVH,hydrogen353-ext2.ahrefs.net,False,False,True,54.36.149.97,
112,success,Europe,EU,France,FR,HDF,Hauts-de-France,Roubaix,,59100,50.6924,3.20113,Europe/Paris,OVH SAS,OVH,AS16276 OVH SAS,OVH,hydrogen114-ext2.ahrefs.net,False,False,True,54.36.148.114,
113,success,Asia,AS,Iran,IR,23,Tehran,Tehran,,,35.7607,51.4043,Asia/Tehran,MCI,,AS197207 Mobile Communication Company of Iran PLC,MCCI-AS,,True,False,False,192.15.21.99,
114,success,Europe,EU,France,FR,HDF,Hauts-de-France,Roubaix,,59100,50.6924,3.20113,Europe/Paris,OVH SAS,OVH,AS16276 OVH SAS,OVH,hydrogen254-ext2.ahrefs.net,False,False,True,54.36.148.254,
115,success,Asia,AS,Iran,IR,08,Kerman,Kerman,,,30.2832,57.0788,Asia/Tehran,Esfahan,,AS44244 Iran Cell Service and Communication Company,IranCell-AS,,True,False,False,5.123.213.242,
116,success,Europe,EU,France,FR,HDF,Hauts-de-France,Roubaix,,59100,50.6924,3.20113,Europe/Paris,OVH SAS,OVH,AS16276 OVH SAS,OVH,hydrogen055-ext2.ahrefs.net,False,False,True,54.36.148.55,
117,success,Europe,EU,France,FR,HDF,Hauts-de-France,Roubaix,,59100,50.6924,3.20113,Europe/Paris,OVH SAS,OVH,AS16276 OVH SAS,OVH,hydrogen329-ext2.ahrefs.net,False,False,True,54.36.149.73,
118,success,Europe,EU,France,FR,HDF,Hauts-de-France,Roubaix,,59100,50.6924,3.20113,Europe/Paris,OVH SAS,OVH,AS16276 OVH SAS,OVH,hydrogen180-ext2.ahrefs.net,False,False,True,54.36.148.180,
119,success,Europe,EU,France,FR,HDF,Hauts-de-France,Roubaix,,59100,50.6924,3.20113,Europe/Paris,OVH SAS,OVH,AS16276 OVH SAS,OVH,hydrogen260-ext2.ahrefs.net,False,False,True,54.36.149.4,
120,success,Asia,AS,Iran,IR,29,South Khorasan Province,Birjand,,,32.8663,59.2211,Asia/Tehran,Iran Telecommunication Company PJS,Southkh ADSL,AS58224 Iran Telecommunication Company PJS,TCI,,False,False,False,2.181.245.181,
121,success,Asia,AS,Iran,IR,09,Razavi Khorasan,Mashhad,,,36.3006,59.5904,Asia/Tehran,Mashhad,,AS44244 Iran Cell Service and Communication Company,IranCell-AS,,True,False,False,5.126.170.223,
122,success,North America,NA,United States,US,FL,Florida,Boca Raton,,33499,26.3594,-80.0771,America/New_York,CLOUDSIGMA AG,Cloud Sigma,AS50837 CLOUDSIGMA AG,CLOUDSIGMA-AS,host-231-19-36-104.cloudsigma.net,False,False,True,104.36.19.231,
123,success,Europe,EU,France,FR,HDF,Hauts-de-France,Roubaix,,59100,50.6924,3.20113,Europe/Paris,OVH SAS,OVH,AS16276 OVH SAS,OVH,hydrogen230-ext2.ahrefs.net,False,False,True,54.36.148.230,
124,success,Europe,EU,France,FR,HDF,Hauts-de-France,Roubaix,,59100,50.6924,3.20113,Europe/Paris,OVH SAS,OVH,AS16276 OVH SAS,OVH,hydrogen224-ext2.ahrefs.net,False,False,True,54.36.148.224,
125,success,Europe,EU,France,FR,HDF,Hauts-de-France,Roubaix,,59100,50.6924,3.20113,Europe/Paris,OVH SAS,OVH,AS16276 OVH SAS,OVH,hydrogen266-ext2.ahrefs.net,False,False,True,54.36.149.10,
126,success,Asia,AS,Iran,IR,20,Semnan,Sorkheh,,,35.4641,53.2088,Asia/Tehran,PTS-Network,,AS49100 Pishgaman Toseeh Ertebatat Company (Private Joint Stock),IR-THR-PTE,,False,False,False,109.125.150.157,
127,success,Europe,EU,France,FR,HDF,Hauts-de-France,Roubaix,,59100,50.6924,3.20113,Europe/Paris,OVH SAS,OVH,AS16276 OVH SAS,OVH,hydrogen021-ext2.a.ahrefs.com,False,False,True,54.36.148.21,
128,success,Europe,EU,France,FR,HDF,Hauts-de-France,Roubaix,,59100,50.6924,3.20113,Europe/Paris,OVH SAS,OVH,AS16276 OVH SAS,OVH,hydrogen090-ext2.ahrefs.net,False,False,True,54.36.148.90,
129,success,Europe,EU,France,FR,HDF,Hauts-de-France,Roubaix,,59100,50.6924,3.20113,Europe/Paris,OVH SAS,OVH,AS16276 OVH SAS,OVH,hydrogen270-ext2.ahrefs.net,False,False,True,54.36.149.14,
130,success,North America,NA,United States,US,WA,Washington,Quincy,,98848,47.233,-119.852,America/Los_Angeles,Microsoft Corporation,Microsoft Azure Cloud (westus2),AS8075 Microsoft Corporation,MICROSOFT-CORP-MSN-AS-BLOCK,msnbot-13-66-139-0.search.msn.com,False,False,True,13.66.139.0,
131,success,Europe,EU,France,FR,HDF,Hauts-de-France,Roubaix,,59100,50.6924,3.20113,Europe/Paris,OVH SAS,OVH,AS16276 OVH SAS,OVH,hydrogen149-ext2.ahrefs.net,False,False,True,54.36.148.149,
132,success,Europe,EU,France,FR,HDF,Hauts-de-France,Roubaix,,59100,50.6924,3.20113,Europe/Paris,OVH SAS,OVH,AS16276 OVH SAS,OVH,hydrogen011-ext2.ahrefs.net,False,False,True,54.36.148.11,
133,success,Europe,EU,France,FR,HDF,Hauts-de-France,Roubaix,,59100,50.6924,3.20113,Europe/Paris,OVH SAS,OVH,AS16276 OVH SAS,OVH,hydrogen305-ext2.ahrefs.net,False,False,True,54.36.149.49,
134,success,Europe,EU,France,FR,HDF,Hauts-de-France,Roubaix,,59100,50.6924,3.20113,Europe/Paris,OVH SAS,OVH,AS16276 OVH SAS,OVH,hydrogen154-ext2.ahrefs.net,False,False,True,54.36.148.154,
135,success,Europe,EU,France,FR,HDF,Hauts-de-France,Roubaix,,59100,50.6924,3.20113,Europe/Paris,OVH SAS,OVH,AS16276 OVH SAS,OVH,hydrogen200-ext2.ahrefs.net,False,False,True,54.36.148.200,
136,success,Europe,EU,France,FR,HDF,Hauts-de-France,Roubaix,,59100,50.6924,3.20113,Europe/Paris,OVH SAS,OVH,AS16276 OVH SAS,OVH,hydrogen173-ext2.ahrefs.net,False,False,True,54.36.148.173,
137,success,Asia,AS,Iran,IR,23,Tehran,Tehran,,,35.7607,51.4043,Asia/Tehran,Mobile Communication Company of Iran,Mobile Communication Company,AS197207 Mobile Communication Company of Iran PLC,MCCI-AS,,True,False,False,89.198.184.125,
138,success,Europe,EU,Germany,DE,HE,Hesse,Frankfurt am Main,,60313,50.1169,8.6837,Europe/Berlin,"DigitalOcean, LLC","DigitalOcean, LLC","AS14061 DigitalOcean, LLC",DIGITALOCEAN-ASN,status.ipway.com,False,False,True,104.248.18.164,
139,success,Asia,AS,Iran,IR,23,Tehran,Tehran,,,35.7219,51.3347,Asia/Tehran,Iran Cell Service and Communication Company,IRANCELL,AS44244 Iran Cell Service and Communication Company,IranCell-AS,,False,False,False,5.123.139.174,
140,success,Europe,EU,France,FR,HDF,Hauts-de-France,Roubaix,,59100,50.6924,3.20113,Europe/Paris,OVH SAS,OVH,AS16276 OVH SAS,OVH,hydrogen048-ext2.ahrefs.net,False,False,True,54.36.148.48,
141,success,Europe,EU,Germany,DE,HE,Hesse,Limburg an der Lahn,,65550,50.3847,8.0475,Europe/Berlin,OVH SAS,OVH GmbH,AS16276 OVH SAS,OVH,vps-70443104.vps.ovh.net,False,False,True,51.38.125.215,
142,success,Europe,EU,France,FR,HDF,Hauts-de-France,Roubaix,,59100,50.6924,3.20113,Europe/Paris,OVH SAS,OVH,AS16276 OVH SAS,OVH,hydrogen171-ext2.ahrefs.net,False,False,True,54.36.148.171,
143,success,Asia,AS,Iran,IR,23,Tehran,Tehran,,,35.7219,51.3347,Asia/Tehran,Iran Cell Service and Communication Company,IRANCELL,AS44244 Iran Cell Service and Communication Company,IranCell-AS,,False,False,False,5.115.82.113,
144,success,Europe,EU,France,FR,HDF,Hauts-de-France,Roubaix,,59100,50.6924,3.20113,Europe/Paris,OVH SAS,OVH,AS16276 OVH SAS,OVH,hydrogen294-ext2.ahrefs.net,False,False,True,54.36.149.38,
145,success,Europe,EU,France,FR,HDF,Hauts-de-France,Roubaix,,59100,50.6924,3.20113,Europe/Paris,OVH SAS,OVH,AS16276 OVH SAS,OVH,hydrogen164-ext2.ahrefs.net,False,False,True,54.36.148.164,
146,success,Europe,EU,France,FR,HDF,Hauts-de-France,Roubaix,,59100,50.6924,3.20113,Europe/Paris,OVH SAS,OVH,AS16276 OVH SAS,OVH,hydrogen147-ext2.ahrefs.net,False,False,True,54.36.148.147,
147,success,Europe,EU,France,FR,HDF,Hauts-de-France,Roubaix,,59100,50.6924,3.20113,Europe/Paris,OVH SAS,OVH SAS,AS16276 OVH SAS,OVH,vectropc.com,False,False,True,5.135.131.149,
148,success,Europe,EU,France,FR,HDF,Hauts-de-France,Roubaix,,59100,50.6924,3.20113,Europe/Paris,OVH SAS,OVH,AS16276 OVH SAS,OVH,hydrogen095-ext2.ahrefs.net,False,False,True,54.36.148.95,
149,success,Europe,EU,France,FR,HDF,Hauts-de-France,Roubaix,,59100,50.6924,3.20113,Europe/Paris,OVH SAS,OVH,AS16276 OVH SAS,OVH,hydrogen033-ext2.ahrefs.net,False,False,True,54.36.148.33,
150,success,Europe,EU,France,FR,HDF,Hauts-de-France,Roubaix,,59100,50.6924,3.20113,Europe/Paris,OVH SAS,OVH,AS16276 OVH SAS,OVH,hydrogen191-ext2.ahrefs.net,False,False,True,54.36.148.191,
151,success,Europe,EU,France,FR,HDF,Hauts-de-France,Roubaix,,59100,50.6924,3.20113,Europe/Paris,OVH SAS,OVH,AS16276 OVH SAS,OVH,hydrogen226-ext2.ahrefs.net,False,False,True,54.36.148.226,
152,success,Europe,EU,France,FR,HDF,Hauts-de-France,Roubaix,,59100,50.6924,3.20113,Europe/Paris,OVH SAS,OVH,AS16276 OVH SAS,OVH,hydrogen076-ext2.a.ahrefs.com,False,False,True,54.36.148.76,
153,success,Asia,AS,Iran,IR,23,Tehran,Tehran,,,35.6824,51.4158,Asia/Tehran,Iran Cell Service and Communication Company,IRANCELL,AS44244 Iran Cell Service and Communication Company,IranCell-AS,,False,False,False,5.116.188.167,
154,success,Europe,EU,France,FR,HDF,Hauts-de-France,Roubaix,,59100,50.6924,3.20113,Europe/Paris,OVH SAS,OVH,AS16276 OVH SAS,OVH,hydrogen336-ext2.ahrefs.net,False,False,True,54.36.149.80,
155,success,Asia,AS,Iran,IR,23,Tehran,Tehran,,,35.7607,51.4043,Asia/Tehran,Mobile Communication Company of Iran,Mobile Communication Company,AS197207 Mobile Communication Company of Iran PLC,MCCI-AS,,True,False,False,5.211.32.40,
156,success,Europe,EU,France,FR,HDF,Hauts-de-France,Roubaix,,59100,50.6924,3.20113,Europe/Paris,OVH SAS,OVH,AS16276 OVH SAS,OVH,hydrogen216-ext2.ahrefs.net,False,False,True,54.36.148.216,
157,success,Asia,AS,Iran,IR,23,Tehran,Tehran,,,35.6824,51.4158,Asia/Tehran,Mobile Communication Company of Iran,Mobile Communication Company,AS197207 Mobile Communication Company of Iran PLC,MCCI-AS,,True,False,False,5.212.96.243,
158,success,Europe,EU,France,FR,HDF,Hauts-de-France,Roubaix,,59100,50.6924,3.20113,Europe/Paris,OVH SAS,OVH,AS16276 OVH SAS,OVH,hydrogen293-ext2.ahrefs.net,False,False,True,54.36.149.37,
159,success,Asia,AS,Iran,IR,23,Tehran,Tehran,,,35.7423,51.447,Asia/Tehran,Telecommunication Company of Iran,Iran Information Technology Company PJSC,AS58224 Iran Telecommunication Company PJS,TCI,,False,False,False,2.179.21.254,
160,success,Europe,EU,France,FR,HDF,Hauts-de-France,Roubaix,,59100,50.6924,3.20113,Europe/Paris,OVH SAS,OVH,AS16276 OVH SAS,OVH,hydrogen239-ext2.ahrefs.net,False,False,True,54.36.148.239,
161,success,Asia,AS,Iran,IR,09,Razavi Khorasan,Mashhad,,,36.2981,59.6057,Asia/Tehran,Rightel Communication Service Company PJS,Rightel Communication Service Company PJS,"AS57218 ""Rightel Communication Service Company PJS""",RighTel,,True,False,False,89.32.98.244,
162,success,Europe,EU,France,FR,HDF,Hauts-de-France,Roubaix,,59100,50.6924,3.20113,Europe/Paris,OVH SAS,OVH,AS16276 OVH SAS,OVH,hydrogen317-ext2.ahrefs.net,False,False,True,54.36.149.61,
163,success,Asia,AS,Iran,IR,23,Tehran,Tehran,,,35.6824,51.4158,Asia/Tehran,Iran Cell Service and Communication Company,IRANCELL,AS44244 Iran Cell Service and Communication Company,IranCell-AS,,False,False,False,5.117.226.85,
164,success,Europe,EU,France,FR,HDF,Hauts-de-France,Roubaix,,59100,50.6924,3.20113,Europe/Paris,OVH SAS,OVH,AS16276 OVH SAS,OVH,hydrogen331-ext2.ahrefs.net,False,False,True,54.36.149.75,
165,success,Europe,EU,France,FR,HDF,Hauts-de-France,Roubaix,,59100,50.6924,3.20113,Europe/Paris,OVH SAS,OVH,AS16276 OVH SAS,OVH,hydrogen060-ext2.ahrefs.net,False,False,True,54.36.148.60,
166,success,North America,NA,United States,US,WA,Washington,Quincy,,98848,47.233,-119.852,America/Los_Angeles,Microsoft Corporation,Microsoft Azure Cloud (westus2),AS8075 Microsoft Corporation,MICROSOFT-CORP-MSN-AS-BLOCK,msnbot-157-55-39-164.search.msn.com,False,False,True,157.55.39.164,
167,success,Europe,EU,France,FR,HDF,Hauts-de-France,Roubaix,,59100,50.6924,3.20113,Europe/Paris,OVH SAS,OVH,AS16276 OVH SAS,OVH,hydrogen219-ext2.ahrefs.net,False,False,True,54.36.148.219,
168,success,Asia,AS,Iran,IR,23,Tehran,Tehran,,,35.7607,51.4043,Asia/Tehran,Mobile Communication Company of Iran,Mobile Communication Company,AS197207 Mobile Communication Company of Iran PLC,MCCI-AS,,True,False,False,5.208.102.126,
169,success,Europe,EU,France,FR,HDF,Hauts-de-France,Roubaix,,59100,50.6924,3.20113,Europe/Paris,OVH SAS,OVH,AS16276 OVH SAS,OVH,hydrogen198-ext2.ahrefs.net,False,False,True,54.36.148.198,
170,success,Asia,AS,Iran,IR,07,Ostān-e Tehrān,Tehran,,,35.6194,51.4776,Asia/Tehran,Mobile Communication Company of Iran PLC,,AS197207 Mobile Communication Company of Iran PLC,MCCI-AS,,False,False,False,204.18.27.179,
171,success,Europe,EU,France,FR,HDF,Hauts-de-France,Roubaix,,59100,50.6924,3.20113,Europe/Paris,OVH SAS,OVH,AS16276 OVH SAS,OVH,hydrogen040-ext2.ahrefs.net,False,False,True,54.36.148.40,
172,success,Europe,EU,France,FR,HDF,Hauts-de-France,Roubaix,,59100,50.6924,3.20113,Europe/Paris,OVH SAS,OVH,AS16276 OVH SAS,OVH,hydrogen038-ext2.ahrefs.net,False,False,True,54.36.148.38,
173,success,Europe,EU,France,FR,HDF,Hauts-de-France,Roubaix,,59100,50.6924,3.20113,Europe/Paris,OVH SAS,OVH,AS16276 OVH SAS,OVH,hydrogen276-ext2.ahrefs.net,False,False,True,54.36.149.20,
174,success,Europe,EU,Germany,DE,SN,Saxony,Falkenstein,,08223,50.4777,12.3649,Europe/Berlin,Hetzner Online GmbH,Hetzner Online GmbH,AS24940 Hetzner Online GmbH,HETZNER-AS,static.114.29.202.116.clients.your-server.de,False,False,True,116.202.29.114,
175,success,Europe,EU,France,FR,HDF,Hauts-de-France,Roubaix,,59100,50.6924,3.20113,Europe/Paris,OVH SAS,OVH,AS16276 OVH SAS,OVH,hydrogen144-ext2.ahrefs.net,False,False,True,54.36.148.144,
176,success,Europe,EU,France,FR,HDF,Hauts-de-France,Roubaix,,59100,50.6924,3.20113,Europe/Paris,OVH SAS,OVH,AS16276 OVH SAS,OVH,hydrogen322-ext2.ahrefs.net,False,False,True,54.36.149.66,
177,success,Europe,EU,France,FR,HDF,Hauts-de-France,Roubaix,,59100,50.6924,3.20113,Europe/Paris,OVH SAS,OVH,AS16276 OVH SAS,OVH,hydrogen068-ext2.ahrefs.net,False,False,True,54.36.148.68,
178,success,Asia,AS,Iran,IR,07,Ostān-e Tehrān,Tehran,,,35.6194,51.4776,Asia/Tehran,Mobile Communication Company of Iran PLC,,AS197207 Mobile Communication Company of Iran PLC,MCCI-AS,,False,False,False,204.18.72.194,
179,success,Europe,EU,France,FR,HDF,Hauts-de-France,Roubaix,,59100,50.6924,3.20113,Europe/Paris,OVH SAS,OVH,AS16276 OVH SAS,OVH,hydrogen163-ext2.ahrefs.net,False,False,True,54.36.148.163,
180,success,Europe,EU,France,FR,HDF,Hauts-de-France,Roubaix,,59100,50.6924,3.20113,Europe/Paris,OVH SAS,OVH,AS16276 OVH SAS,OVH,hydrogen351-ext2.ahrefs.net,False,False,True,54.36.149.95,
181,success,Europe,EU,France,FR,HDF,Hauts-de-France,Roubaix,,59100,50.6924,3.20113,Europe/Paris,OVH SAS,OVH,AS16276 OVH SAS,OVH,hydrogen241-ext2.ahrefs.net,False,False,True,54.36.148.241,
182,success,Europe,EU,France,FR,HDF,Hauts-de-France,Roubaix,,59100,50.6924,3.20113,Europe/Paris,OVH SAS,OVH,AS16276 OVH SAS,OVH,hydrogen086-ext2.ahrefs.net,False,False,True,54.36.148.86,
183,success,Europe,EU,France,FR,HDF,Hauts-de-France,Roubaix,,59100,50.6924,3.20113,Europe/Paris,OVH SAS,OVH,AS16276 OVH SAS,OVH,hydrogen303-ext2.ahrefs.net,False,False,True,54.36.149.47,
184,success,Europe,EU,France,FR,HDF,Hauts-de-France,Roubaix,,59100,50.6924,3.20113,Europe/Paris,OVH SAS,OVH,AS16276 OVH SAS,OVH,hydrogen150-ext2.ahrefs.net,False,False,True,54.36.148.150,
185,success,North America,NA,Mexico,MX,CMX,Mexico City,Benito Juarez,,03300,19.3692,-99.1616,America/Mexico_City,Uninet S.A. de C.V.,UNINET,AS8151 UNINET,UNINET,dsl-248-117-207-187-dynamic.prod-infinitum.com.mx,False,False,False,187.207.117.248,
186,success,North America,NA,United States,US,MI,Michigan,Grand Rapids,Medical Mile,49501,42.9712,-85.6733,America/Detroit,Gordon Food Service,Gordon Food Service,AS19936 Gordon Food Service,GORDONFOODS,,False,False,False,104.194.25.207,
187,success,Europe,EU,France,FR,HDF,Hauts-de-France,Roubaix,,59100,50.6924,3.20113,Europe/Paris,OVH SAS,OVH,AS16276 OVH SAS,OVH,hydrogen071-ext2.ahrefs.net,False,False,True,54.36.148.71,
188,success,Europe,EU,France,FR,HDF,Hauts-de-France,Roubaix,,59100,50.6924,3.20113,Europe/Paris,OVH SAS,OVH,AS16276 OVH SAS,OVH,hydrogen296-ext2.ahrefs.net,False,False,True,54.36.149.40,
189,success,Europe,EU,France,FR,HDF,Hauts-de-France,Roubaix,,59100,50.6924,3.20113,Europe/Paris,OVH SAS,OVH,AS16276 OVH SAS,OVH,hydrogen061-ext2.ahrefs.net,False,False,True,54.36.148.61,
190,success,Europe,EU,France,FR,HDF,Hauts-de-France,Roubaix,,59100,50.6924,3.20113,Europe/Paris,OVH SAS,OVH,AS16276 OVH SAS,OVH,hydrogen189-ext2.a.ahrefs.com,False,False,True,54.36.148.189,
191,success,Asia,AS,Hong Kong,HK,HCW,Central and Western District,Hong Kong,,00000,22.267,114.188,Asia/Hong_Kong,Microsoft Corporation,Microsoft Azure Cloud (eastasia),AS8075 Microsoft Corporation,MICROSOFT-CORP-MSN-AS-BLOCK,msnbot-40-77-192-141.search.msn.com,False,False,True,40.77.192.141,
192,success,Europe,EU,France,FR,HDF,Hauts-de-France,Roubaix,,59100,50.6924,3.20113,Europe/Paris,OVH SAS,OVH,AS16276 OVH SAS,OVH,hydrogen079-ext2.ahrefs.net,False,False,True,54.36.148.79,
193,success,Europe,EU,France,FR,HDF,Hauts-de-France,Roubaix,,59100,50.6924,3.20113,Europe/Paris,OVH SAS,OVH,AS16276 OVH SAS,OVH,hydrogen214-ext2.ahrefs.net,False,False,True,54.36.148.214,
194,success,Europe,EU,France,FR,HDF,Hauts-de-France,Roubaix,,59100,50.6924,3.20113,Europe/Paris,OVH SAS,OVH,AS16276 OVH SAS,OVH,hydrogen177-ext2.ahrefs.net,False,False,True,54.36.148.177,
195,success,Europe,EU,France,FR,HDF,Hauts-de-France,Roubaix,,59100,50.6924,3.20113,Europe/Paris,OVH SAS,OVH,AS16276 OVH SAS,OVH,hydrogen063-ext2.ahrefs.net,False,False,True,54.36.148.63,
196,success,Europe,EU,France,FR,HDF,Hauts-de-France,Roubaix,,59100,50.6924,3.20113,Europe/Paris,OVH SAS,OVH,AS16276 OVH SAS,OVH,hydrogen085-ext2.ahrefs.net,False,False,True,54.36.148.85,
197,success,Asia,AS,Iran,IR,23,Tehran,Tehran,,,35.7219,51.3347,Asia/Tehran,Iran Cell Service and Communication Company,,AS44244 Iran Cell Service and Communication Company,IranCell-AS,,False,False,False,5.113.178.253,
198,success,Europe,EU,France,FR,HDF,Hauts-de-France,Roubaix,,59100,50.6924,3.20113,Europe/Paris,OVH SAS,OVH,AS16276 OVH SAS,OVH,hydrogen202-ext2.ahrefs.net,False,False,True,54.36.148.202,
199,success,Asia,AS,Hong Kong,HK,HCW,Central and Western District,Hong Kong,,00000,22.267,114.188,Asia/Hong_Kong,Microsoft Corporation,Microsoft Azure Cloud (eastasia),AS8075 Microsoft Corporation,MICROSOFT-CORP-MSN-AS-BLOCK,msnbot-40-77-195-79.search.msn.com,False,False,True,40.77.195.79,
200,success,Asia,AS,Iran,IR,23,Tehran,Tehran,,,35.7219,51.3347,Asia/Tehran,Respina Networks & Beyond PJSC,IP Master Group LLC FZ,AS42337 Respina Networks & Beyond PJSC,RESPINA-AS,mail.pajal.ir,False,False,False,5.160.209.36,
201,success,Asia,AS,Iran,IR,23,Tehran,Tehran,,,35.7219,51.3347,Asia/Tehran,Shiraz,,AS44244 Iran Cell Service and Communication Company,IranCell-AS,,False,False,False,5.120.158.86,
202,success,Europe,EU,France,FR,HDF,Hauts-de-France,Roubaix,,59100,50.6924,3.20113,Europe/Paris,OVH SAS,OVH,AS16276 OVH SAS,OVH,hydrogen323-ext2.ahrefs.net,False,False,True,54.36.149.67,
203,success,Asia,AS,Iran,IR,23,Tehran,Tehran,,,35.6824,51.4158,Asia/Tehran,Iran Telecommunication Company PJS,Iran Telecommunication Company PJS,AS58224 Iran Telecommunication Company PJS,TCI,,False,False,False,176.65.185.206,
204,success,Asia,AS,Iran,IR,23,Tehran,Tehran,,,35.7607,51.4043,Asia/Tehran,MCI,,AS197207 Mobile Communication Company of Iran PLC,MCCI-AS,,True,False,False,172.80.228.99,
205,success,Europe,EU,France,FR,HDF,Hauts-de-France,Roubaix,,59100,50.6924,3.20113,Europe/Paris,OVH SAS,OVH,AS16276 OVH SAS,OVH,hydrogen140-ext2.ahrefs.net,False,False,True,54.36.148.140,
206,success,Europe,EU,France,FR,HDF,Hauts-de-France,Roubaix,,59100,50.6924,3.20113,Europe/Paris,OVH SAS,OVH,AS16276 OVH SAS,OVH,hydrogen183-ext2.ahrefs.net,False,False,True,54.36.148.183,
207,success,Europe,EU,France,FR,HDF,Hauts-de-France,Roubaix,,59100,50.6924,3.20113,Europe/Paris,OVH SAS,OVH,AS16276 OVH SAS,OVH,hydrogen152-ext2.ahrefs.net,False,False,True,54.36.148.152,
208,success,Europe,EU,France,FR,HDF,Hauts-de-France,Roubaix,,59100,50.6924,3.20113,Europe/Paris,OVH SAS,OVH,AS16276 OVH SAS,OVH,hydrogen131-ext2.a.ahrefs.com,False,False,True,54.36.148.131,
209,success,Europe,EU,France,FR,HDF,Hauts-de-France,Roubaix,,59100,50.6924,3.20113,Europe/Paris,OVH SAS,OVH,AS16276 OVH SAS,OVH,hydrogen081-ext2.ahrefs.net,False,False,True,54.36.148.81,
210,success,Asia,AS,Iran,IR,10,Isfahan,Zarrīn Shahr,,,32.3798,51.3111,Asia/Tehran,mashhad,Telecommunication Company,AS58224 Iran Telecommunication Company PJS,TCI,,False,False,False,2.180.42.74,
211,success,Europe,EU,France,FR,HDF,Hauts-de-France,Roubaix,,59100,50.6924,3.20113,Europe/Paris,OVH SAS,OVH,AS16276 OVH SAS,OVH,hydrogen192-ext2.ahrefs.net,False,False,True,54.36.148.192,
212,success,Europe,EU,France,FR,HDF,Hauts-de-France,Roubaix,,59100,50.6924,3.20113,Europe/Paris,OVH SAS,OVH,AS16276 OVH SAS,OVH,hydrogen110-ext2.ahrefs.net,False,False,True,54.36.148.110,
213,success,Europe,EU,France,FR,HDF,Hauts-de-France,Roubaix,,59100,50.6924,3.20113,Europe/Paris,OVH SAS,OVH,AS16276 OVH SAS,OVH,hydrogen138-ext2.ahrefs.net,False,False,True,54.36.148.138,
214,success,Europe,EU,France,FR,HDF,Hauts-de-France,Roubaix,,59100,50.6924,3.20113,Europe/Paris,OVH SAS,OVH,AS16276 OVH SAS,OVH,hydrogen145-ext2.ahrefs.net,False,False,True,54.36.148.145,
215,success,Europe,EU,France,FR,HDF,Hauts-de-France,Roubaix,,59100,50.6924,3.20113,Europe/Paris,OVH SAS,OVH,AS16276 OVH SAS,OVH,hydrogen209-ext2.ahrefs.net,False,False,True,54.36.148.209,
216,success,Europe,EU,France,FR,HDF,Hauts-de-France,Roubaix,,59100,50.6924,3.20113,Europe/Paris,OVH SAS,OVH,AS16276 OVH SAS,OVH,hydrogen103-ext2.ahrefs.net,False,False,True,54.36.148.103,
217,success,Europe,EU,France,FR,HDF,Hauts-de-France,Roubaix,,59100,50.6924,3.20113,Europe/Paris,OVH SAS,OVH,AS16276 OVH SAS,OVH,hydrogen109-ext2.ahrefs.net,False,False,True,54.36.148.109,
218,success,Europe,EU,France,FR,HDF,Hauts-de-France,Roubaix,,59100,50.6924,3.20113,Europe/Paris,OVH SAS,OVH,AS16276 OVH SAS,OVH,hydrogen105-ext2.ahrefs.net,False,False,True,54.36.148.105,
219,success,Asia,AS,Iran,IR,23,Tehran,Sūleqān,,,35.8221,51.2648,Asia/Tehran,Rightel Communication Service Company PJS,Rightel Communication Service Company PJS,"AS57218 ""Rightel Communication Service Company PJS""",RighTel,,True,False,False,5.200.112.161,
220,success,Europe,EU,France,FR,HDF,Hauts-de-France,Roubaix,,59100,50.6924,3.20113,Europe/Paris,OVH SAS,OVH,AS16276 OVH SAS,OVH,hydrogen091-ext2.ahrefs.net,False,False,True,54.36.148.91,
221,success,Asia,AS,Iran,IR,23,Tehran,Sūleqān,,,35.8221,51.2648,Asia/Tehran,Iran Cell Service and Communication Company,,AS44244 Iran Cell Service and Communication Company,IranCell-AS,,True,False,False,5.115.235.34,
222,success,Asia,AS,Iran,IR,23,Tehran,Tehran,,,35.7219,51.3347,Asia/Tehran,tic,Telecommunication Company of Tehran,,,,False,False,False,89.35.183.130,
223,success,Asia,AS,Iran,IR,23,Tehran,Tehran,,,35.6824,51.4158,Asia/Tehran,Iran Cell Service and Communication Company,,AS44244 Iran Cell Service and Communication Company,IranCell-AS,,True,False,False,5.112.28.217,
224,success,Europe,EU,France,FR,HDF,Hauts-de-France,Roubaix,,59100,50.6924,3.20113,Europe/Paris,OVH SAS,OVH,AS16276 OVH SAS,OVH,hydrogen261-ext2.ahrefs.net,False,False,True,54.36.149.5,
225,success,Europe,EU,France,FR,HDF,Hauts-de-France,Roubaix,,59100,50.6924,3.20113,Europe/Paris,OVH SAS,OVH,AS16276 OVH SAS,OVH,hydrogen024-ext2.ahrefs.net,False,False,True,54.36.148.24,
226,success,Asia,AS,Iran,IR,23,Tehran,Tehran,,,35.7607,51.4043,Asia/Tehran,Mobile Communication Company,VAS,AS197207 Mobile Communication Company of Iran PLC,MCCI-AS,,True,False,False,5.210.25.26,
227,success,Asia,AS,Iran,IR,23,Tehran,Tehran,District 6,,35.7239,51.3888,Asia/Tehran,Communications and IT Research Institute,Mabna,"AS57292 ICT Research Institute (Iran Telecommunications Research Center ""ITRC"")",ITRC,,False,False,False,31.184.130.52,
228,success,Europe,EU,Germany,DE,HE,Hesse,Frankfurt am Main,,60313,50.1169,8.6837,Europe/Berlin,Zscaler Switzerland GmbH,"Zscaler, Inc.",AS62044 Zscaler Switzerland GmbH,ZSCALER-EMEA,,False,False,False,165.225.72.155,
229,success,Europe,EU,France,FR,HDF,Hauts-de-France,Roubaix,,59100,50.6924,3.20113,Europe/Paris,OVH SAS,OVH,AS16276 OVH SAS,OVH,hydrogen253-ext2.ahrefs.net,False,False,True,54.36.148.253,
230,success,Asia,AS,Iran,IR,23,Tehran,Tehran,,,35.6824,51.4158,Asia/Tehran,Iran Cell Service and Communication Company,IRANCELL,AS44244 Iran Cell Service and Communication Company,IranCell-AS,,True,False,False,5.116.202.186,
231,success,Asia,AS,Iran,IR,23,Tehran,Shahrīār,,,35.6588,51.0578,Asia/Tehran,Iran Cell Service and Communication Company,IRANCELL,AS44244 Iran Cell Service and Communication Company,IranCell-AS,,True,False,False,5.115.47.37,
232,success,Asia,AS,Iran,IR,10,Isfahan,Isfahan,,,32.6525,51.6746,Asia/Tehran,Asiatech Data Transmission company,Fanava Group,AS43754 Asiatech Data Transmission company,ASIATECH,,False,False,False,164.215.218.89,
233,success,Europe,EU,France,FR,HDF,Hauts-de-France,Roubaix,,59100,50.6924,3.20113,Europe/Paris,OVH SAS,OVH,AS16276 OVH SAS,OVH,hydrogen037-ext2.ahrefs.net,False,False,True,54.36.148.37,
234,success,Europe,EU,France,FR,HDF,Hauts-de-France,Roubaix,,59100,50.6924,3.20113,Europe/Paris,OVH SAS,OVH,AS16276 OVH SAS,OVH,hydrogen162-ext2.ahrefs.net,False,False,True,54.36.148.162,
235,success,Europe,EU,France,FR,HDF,Hauts-de-France,Roubaix,,59100,50.6924,3.20113,Europe/Paris,OVH SAS,OVH,AS16276 OVH SAS,OVH,hydrogen133-ext2.ahrefs.net,False,False,True,54.36.148.133,
236,success,Europe,EU,France,FR,HDF,Hauts-de-France,Roubaix,,59100,50.6924,3.20113,Europe/Paris,OVH SAS,OVH,AS16276 OVH SAS,OVH,hydrogen025-ext2.ahrefs.net,False,False,True,54.36.148.25,
237,success,North America,NA,United States,US,CA,California,Mountain View,,94043,37.4225,-122.085,America/Los_Angeles,Google LLC,Google LLC,AS15169 Google LLC,GOOGLE,crawl-66-249-69-226.googlebot.com,False,False,True,66.249.69.226,
238,success,Europe,EU,France,FR,HDF,Hauts-de-France,Roubaix,,59100,50.6924,3.20113,Europe/Paris,OVH SAS,OVH,AS16276 OVH SAS,OVH,hydrogen160-ext2.ahrefs.net,False,False,True,54.36.148.160,
239,success,Asia,AS,Iran,IR,10,Isfahan,Isfahan,,,32.6546,51.668,Asia/Tehran,TCE.IR-sale94-fromMAB-part3of4,Esfahan Telecommunication Company (P.J.S.),AS58224 Iran Telecommunication Company PJS,TCI,,False,False,False,5.219.188.95,
240,success,Asia,AS,Iran,IR,02,Māzandarān,Nowshahr,,,36.6562,51.5068,Asia/Tehran,Mobile Communication Company,New Service 4G,AS197207 Mobile Communication Company of Iran PLC,MCCI-AS,,True,False,False,86.55.121.253,
241,success,Europe,EU,France,FR,HDF,Hauts-de-France,Roubaix,,59100,50.6924,3.20113,Europe/Paris,OVH SAS,OVH,AS16276 OVH SAS,OVH,hydrogen309-ext2.ahrefs.net,False,False,True,54.36.149.53,
242,success,Europe,EU,France,FR,HDF,Hauts-de-France,Roubaix,,59100,50.6924,3.20113,Europe/Paris,OVH SAS,OVH,AS16276 OVH SAS,OVH,hydrogen269-ext2.ahrefs.net,False,False,True,54.36.149.13,
243,success,Europe,EU,France,FR,HDF,Hauts-de-France,Roubaix,,59100,50.6924,3.20113,Europe/Paris,OVH SAS,OVH,AS16276 OVH SAS,OVH,hydrogen243-ext2.ahrefs.net,False,False,True,54.36.148.243,
244,success,Europe,EU,France,FR,HDF,Hauts-de-France,Roubaix,,59100,50.6924,3.20113,Europe/Paris,OVH SAS,OVH,AS16276 OVH SAS,OVH,hydrogen043-ext2.ahrefs.net,False,False,True,54.36.148.43,
245,success,Europe,EU,France,FR,HDF,Hauts-de-France,Roubaix,,59100,50.6924,3.20113,Europe/Paris,OVH SAS,OVH,AS16276 OVH SAS,OVH,hydrogen151-ext2.ahrefs.net,False,False,True,54.36.148.151,
246,success,Asia,AS,Iran,IR,07,Ostān-e Tehrān,Tehran,,,35.6194,51.4776,Asia/Tehran,Mobile Communication Company of Iran PLC,,AS197207 Mobile Communication Company of Iran PLC,MCCI-AS,,False,False,False,204.18.150.161,
247,success,Asia,AS,Iran,IR,23,Tehran,Tehran,,,35.6824,51.4158,Asia/Tehran,Iran Cell Service and Communication Company,,AS44244 Iran Cell Service and Communication Company,IranCell-AS,,False,False,False,5.112.202.108,
248,success,Asia,AS,Iran,IR,23,Tehran,Tehran,,,35.6824,51.4158,Asia/Tehran,Iran Cell Service and Communication Company,,AS44244 Iran Cell Service and Communication Company,IranCell-AS,,False,False,False,5.112.199.105,
249,success,Asia,AS,Iran,IR,23,Tehran,Tehran,,,35.6824,51.4158,Asia/Tehran,Iran Cell Service and Communication Company,,AS44244 Iran Cell Service and Communication Company,IranCell-AS,,True,False,False,5.114.170.38,
250,success,Europe,EU,France,FR,HDF,Hauts-de-France,Roubaix,,59100,50.6924,3.20113,Europe/Paris,OVH SAS,OVH,AS16276 OVH SAS,OVH,hydrogen194-ext2.ahrefs.net,False,False,True,54.36.148.194,
251,success,Europe,EU,France,FR,HDF,Hauts-de-France,Roubaix,,59100,50.6924,3.20113,Europe/Paris,OVH SAS,OVH,AS16276 OVH SAS,OVH,hydrogen039-ext2.a.ahrefs.com,False,False,True,54.36.148.39,
252,success,Europe,EU,France,FR,HDF,Hauts-de-France,Roubaix,,59100,50.6924,3.20113,Europe/Paris,OVH SAS,OVH,AS16276 OVH SAS,OVH,hydrogen089-ext2.ahrefs.net,False,False,True,54.36.148.89,
253,success,Europe,EU,France,FR,HDF,Hauts-de-France,Roubaix,,59100,50.6924,3.20113,Europe/Paris,OVH SAS,OVH,AS16276 OVH SAS,OVH,hydrogen169-ext2.ahrefs.net,False,False,True,54.36.148.169,
254,success,Europe,EU,France,FR,HDF,Hauts-de-France,Roubaix,,59100,50.6924,3.20113,Europe/Paris,OVH SAS,OVH,AS16276 OVH SAS,OVH,hydrogen069-ext2.ahrefs.net,False,False,True,54.36.148.69,
255,success,North America,NA,United States,US,TX,Texas,Austin,,78745,30.2095,-97.7972,America/Chicago,LightEdge Solutions,LightEdge Solutions,AS11320 LightEdge Solutions,LIGHTEDGE-AS-02,onr.com,False,False,False,207.200.8.182,
256,success,Europe,EU,France,FR,HDF,Hauts-de-France,Roubaix,,59100,50.6924,3.20113,Europe/Paris,OVH SAS,OVH,AS16276 OVH SAS,OVH,hydrogen108-ext2.ahrefs.net,False,False,True,54.36.148.108,
257,success,Europe,EU,France,FR,HDF,Hauts-de-France,Roubaix,,59100,50.6924,3.20113,Europe/Paris,OVH SAS,OVH,AS16276 OVH SAS,OVH,hydrogen280-ext2.ahrefs.net,False,False,True,54.36.149.24,
258,success,Europe,EU,France,FR,HDF,Hauts-de-France,Roubaix,,59100,50.6924,3.20113,Europe/Paris,OVH SAS,OVH,AS16276 OVH SAS,OVH,hydrogen259-ext2.ahrefs.net,False,False,True,54.36.149.3,
259,success,Europe,EU,Germany,DE,NW,North Rhine-Westphalia,Duisburg,,47119,51.4622,6.7232,Europe/Berlin,Verein zur Foerderung eines Deutschen Forschungsnetzes e.V.,"Fachhochschule Gelsenkirchen, DE",AS680 Verein zur Foerderung eines Deutschen Forschungsnetzes e.V.,DFN,,False,False,False,194.94.127.7,
260,success,Asia,AS,Iran,IR,23,Tehran,Tehran,,,35.6824,51.4158,Asia/Tehran,Iran Cell Service and Communication Company,,AS44244 Iran Cell Service and Communication Company,IranCell-AS,,True,False,False,5.114.74.54,
261,success,Asia,AS,Iran,IR,23,Tehran,Tehran,,,35.7607,51.4043,Asia/Tehran,Mobile Communication Company of Iran,Mobile Communication Company,AS197207 Mobile Communication Company of Iran PLC,MCCI-AS,,True,False,False,37.129.110.227,
262,success,Europe,EU,France,FR,HDF,Hauts-de-France,Roubaix,,59100,50.6924,3.20113,Europe/Paris,OVH SAS,OVH,AS16276 OVH SAS,OVH,hydrogen300-ext2.ahrefs.net,False,False,True,54.36.149.44,
263,success,Asia,AS,Iran,IR,23,Tehran,Tehran,,,35.6944,51.4215,Asia/Tehran,Iran Cell Service and Communication Company,,AS44244 Iran Cell Service and Communication Company,IranCell-AS,,True,False,False,5.113.181.161,
264,success,Europe,EU,France,FR,HDF,Hauts-de-France,Roubaix,,59100,50.6924,3.20113,Europe/Paris,OVH SAS,OVH,AS16276 OVH SAS,OVH,hydrogen104-ext2.ahrefs.net,False,False,True,54.36.148.104,
265,success,Europe,EU,France,FR,HDF,Hauts-de-France,Roubaix,,59100,50.6924,3.20113,Europe/Paris,OVH SAS,OVH,AS16276 OVH SAS,OVH,hydrogen116-ext2.ahrefs.net,False,False,True,54.36.148.116,
266,success,Europe,EU,France,FR,HDF,Hauts-de-France,Roubaix,,59100,50.6924,3.20113,Europe/Paris,OVH SAS,OVH,AS16276 OVH SAS,OVH,hydrogen244-ext2.ahrefs.net,False,False,True,54.36.148.244,
267,success,Europe,EU,France,FR,HDF,Hauts-de-France,Roubaix,,59100,50.6924,3.20113,Europe/Paris,OVH SAS,OVH,AS16276 OVH SAS,OVH,hydrogen274-ext2.ahrefs.net,False,False,True,54.36.149.18,
268,success,Asia,AS,Iran,IR,07,Ostān-e Tehrān,Tehran,,,35.6194,51.4776,Asia/Tehran,Mobile Communication Company of Iran PLC,,AS197207 Mobile Communication Company of Iran PLC,MCCI-AS,,False,False,False,204.18.36.198,
269,success,Europe,EU,France,FR,HDF,Hauts-de-France,Roubaix,,59100,50.6924,3.20113,Europe/Paris,OVH SAS,OVH,AS16276 OVH SAS,OVH,hydrogen046-ext2.ahrefs.net,False,False,True,54.36.148.46,
270,success,Asia,AS,Taiwan,TW,NWT,New Taipei City,Sanchong District,,,25.0705,121.4904,Asia/Taipei,"Chunghwa Telecom Co., Ltd.",Chunghwa Telecom Co. Ltd.,AS3462 Data Communication Business Group,HINET,61-219-11-151.hinet-ip.hinet.net,False,False,False,61.219.11.151,
271,success,North America,NA,United States,US,TX,Texas,Austin,Stonelake Office Park,78759,30.4019,-97.7363,America/Chicago,Forcepoint,"Forcepoint, LLC",,,,False,False,False,208.80.194.31,
272,success,Asia,AS,Iran,IR,23,Tehran,Robāţ Karīm,,,35.4846,51.0829,Asia/Tehran,Iran Cell Service and Communication Company,,AS44244 Iran Cell Service and Communication Company,IranCell-AS,,True,False,False,5.113.130.133,
273,success,North America,NA,United States,US,TX,Texas,Nederland,,77627,29.9744,-93.9924,America/Chicago,Hosting segment,Advanced Hosters B.V.,AS39572 DataWeb Global Group B.V.,ADVANCEDHOSTERS-AS,,False,False,True,213.174.147.83,
274,success,North America,NA,United States,US,CA,California,Mountain View,,94043,37.4225,-122.085,America/Los_Angeles,Google LLC,Google LLC,AS15169 Google LLC,GOOGLE,crawl-66-249-66-93.googlebot.com,False,False,True,66.249.66.93,
275,success,Asia,AS,United Arab Emirates,AE,AZ,Abu Dhabi,Abu Dhabi,,,24.4539,54.3773,Asia/Dubai,GoldIPv,GoldIPv4,,,,False,False,False,217.60.197.246,
276,success,Asia,AS,Iran,IR,23,Tehran,Tehran,,,35.7746,51.4136,Asia/Tehran,Rightel Communication Service Company PJS,Rightel Communication Service Company PJS,,,,True,False,False,92.114.72.115,
277,success,Europe,EU,France,FR,HDF,Hauts-de-France,Roubaix,,59100,50.6924,3.20113,Europe/Paris,OVH SAS,OVH,AS16276 OVH SAS,OVH,hydrogen255-ext2.ahrefs.net,False,False,True,54.36.148.255,
278,success,Asia,AS,Iran,IR,02,Māzandarān,Nowshahr,,,36.6562,51.5068,Asia/Tehran,Mobile Communication Company,New Service 4G,AS197207 Mobile Communication Company of Iran PLC,MCCI-AS,,True,False,False,86.55.46.218,
279,success,North America,NA,United States,US,CA,California,Mountain View,,94043,37.4225,-122.085,America/Los_Angeles,Google LLC,Google LLC,AS15169 Google LLC,GOOGLE,crawl-66-249-66-199.googlebot.com,False,False,True,66.249.66.199,
280,success,Europe,EU,France,FR,HDF,Hauts-de-France,Roubaix,,59100,50.6924,3.20113,Europe/Paris,OVH SAS,OVH,AS16276 OVH SAS,OVH,hydrogen058-ext2.ahrefs.net,False,False,True,54.36.148.58,
281,success,Asia,AS,Iran,IR,23,Tehran,Tehran,,,35.7607,51.4043,Asia/Tehran,Mobile Communication Company of Iran,Mobile Communication Company,AS197207 Mobile Communication Company of Iran PLC,MCCI-AS,,True,False,False,83.122.180.216,
282,success,Asia,AS,Iran,IR,09,Razavi Khorasan,Mashhad,,,36.3006,59.5904,Asia/Tehran,Mashhad,,AS44244 Iran Cell Service and Communication Company,IranCell-AS,,False,False,False,5.126.80.184,
283,success,Europe,EU,France,FR,HDF,Hauts-de-France,Roubaix,,59100,50.6924,3.20113,Europe/Paris,OVH SAS,OVH,AS16276 OVH SAS,OVH,,False,False,True,54.36.149.218,
284,success,Europe,EU,France,FR,HDF,Hauts-de-France,Roubaix,,59100,50.6924,3.20113,Europe/Paris,OVH SAS,OVH,AS16276 OVH SAS,OVH,hydrogen077-ext2.ahrefs.net,False,False,True,54.36.148.77,
285,success,Europe,EU,France,FR,HDF,Hauts-de-France,Roubaix,,59100,50.6924,3.20113,Europe/Paris,OVH SAS,OVH,AS16276 OVH SAS,OVH,hydrogen278-ext2.ahrefs.net,False,False,True,54.36.149.22,
286,success,Europe,EU,France,FR,HDF,Hauts-de-France,Roubaix,,59100,50.6924,3.20113,Europe/Paris,OVH SAS,OVH,AS16276 OVH SAS,OVH,hydrogen307-ext2.ahrefs.net,False,False,True,54.36.149.51,
287,success,Asia,AS,Iran,IR,23,Tehran,Tehran,,,35.7607,51.4043,Asia/Tehran,Mobile Communication Company,LTE expansion,AS197207 Mobile Communication Company of Iran PLC,MCCI-AS,,True,False,False,5.218.183.113,
288,success,Europe,EU,France,FR,HDF,Hauts-de-France,Roubaix,,59100,50.6924,3.20113,Europe/Paris,OVH SAS,OVH,AS16276 OVH SAS,OVH,hydrogen186-ext2.ahrefs.net,False,False,True,54.36.148.186,
289,success,Asia,AS,Iran,IR,23,Tehran,Tehran,,,35.7607,51.4043,Asia/Tehran,Mobile Communication Company of Iran,Mobile Communication Company,AS197207 Mobile Communication Company of Iran PLC,MCCI-AS,,True,False,False,83.121.152.4,
290,success,Asia,AS,Iran,IR,10,Isfahan,Shāhīn Shahr,,,32.8579,51.5529,Asia/Tehran,MCI,,AS197207 Mobile Communication Company of Iran PLC,MCCI-AS,,True,False,False,93.110.206.139,
291,success,Asia,AS,Iran,IR,20,Semnan,Sorkheh,,,35.4641,53.2088,Asia/Tehran,PTS Network,,AS49100 Pishgaman Toseeh Ertebatat Company (Private Joint Stock),IR-THR-PTE,,False,False,False,109.125.156.244,
292,success,Europe,EU,France,FR,HDF,Hauts-de-France,Roubaix,,59100,50.6924,3.20113,Europe/Paris,OVH SAS,OVH,AS16276 OVH SAS,OVH,hydrogen141-ext2.ahrefs.net,False,False,True,54.36.148.141,
293,success,Europe,EU,France,FR,HDF,Hauts-de-France,Roubaix,,59100,50.6924,3.20113,Europe/Paris,OVH SAS,OVH,AS16276 OVH SAS,OVH,hydrogen174-ext2.a.ahrefs.com,False,False,True,54.36.148.174,
294,success,North America,NA,United States,US,NJ,New Jersey,Clifton,,07014,40.8364,-74.1403,America/New_York,"DigitalOcean, LLC",Digital Ocean,"AS14061 DigitalOcean, LLC",DIGITALOCEAN-ASN,,False,False,True,159.65.45.244,
295,success,Europe,EU,France,FR,HDF,Hauts-de-France,Roubaix,,59100,50.6924,3.20113,Europe/Paris,OVH SAS,OVH,AS16276 OVH SAS,OVH,hydrogen268-ext2.ahrefs.net,False,False,True,54.36.149.12,
296,success,Europe,EU,France,FR,HDF,Hauts-de-France,Roubaix,,59100,50.6924,3.20113,Europe/Paris,OVH SAS,OVH,AS16276 OVH SAS,OVH,hydrogen101-ext2.ahrefs.net,False,False,True,54.36.148.101,
297,success,Europe,EU,France,FR,HDF,Hauts-de-France,Roubaix,,59100,50.6924,3.20113,Europe/Paris,OVH SAS,OVH,AS16276 OVH SAS,OVH,hydrogen349-ext2.ahrefs.net,False,False,True,54.36.149.93,
298,success,Europe,EU,Germany,DE,HE,Hesse,Frankfurt am Main,,60313,50.1169,8.6837,Europe/Berlin,"DigitalOcean, LLC","DigitalOcean, LLC","AS14061 DigitalOcean, LLC",DIGITALOCEAN-ASN,,False,False,True,104.248.16.204,
299,success,Asia,AS,Iran,IR,02,Māzandarān,Nashtārūd,,,36.7509,51.0236,Asia/Tehran,MCI,,AS197207 Mobile Communication Company of Iran PLC,MCCI-AS,,True,False,False,37.98.57.201,
300,success,Europe,EU,France,FR,HDF,Hauts-de-France,Roubaix,,59100,50.6924,3.20113,Europe/Paris,OVH SAS,OVH,AS16276 OVH SAS,OVH,hydrogen153-ext2.ahrefs.net,False,False,True,54.36.148.153,
301,success,Asia,AS,Iran,IR,23,Tehran,Tehran,,,35.7219,51.3347,Asia/Tehran,Information Technology Company,Telecommunication Company of Tehran,AS58224 Iran Telecommunication Company PJS,TCI,,False,False,False,86.106.194.57,
302,success,Europe,EU,France,FR,HDF,Hauts-de-France,Roubaix,,59100,50.6924,3.20113,Europe/Paris,OVH SAS,OVH,AS16276 OVH SAS,OVH,hydrogen093-ext2.ahrefs.net,False,False,True,54.36.148.93,
303,success,Asia,AS,Iran,IR,19,Zanjan,Gāvāzang,,,36.7095,48.5166,Asia/Tehran,Iran Telecommunication Company PJS,Telecommunication Company of Zanjan,AS58224 Iran Telecommunication Company PJS,TCI,,False,False,False,5.234.213.72,
304,success,Europe,EU,France,FR,HDF,Hauts-de-France,Roubaix,,59100,50.6924,3.20113,Europe/Paris,OVH SAS,OVH,AS16276 OVH SAS,OVH,hydrogen012-ext2.ahrefs.net,False,False,True,54.36.148.12,
305,success,Europe,EU,France,FR,HDF,Hauts-de-France,Roubaix,,59100,50.6924,3.20113,Europe/Paris,OVH SAS,OVH,AS16276 OVH SAS,OVH,hydrogen078-ext2.ahrefs.net,False,False,True,54.36.148.78,
306,success,Europe,EU,France,FR,HDF,Hauts-de-France,Roubaix,,59100,50.6924,3.20113,Europe/Paris,OVH SAS,OVH,AS16276 OVH SAS,OVH,hydrogen357-ext2.ahrefs.net,False,False,True,54.36.149.101,
307,success,Europe,EU,France,FR,HDF,Hauts-de-France,Roubaix,,59100,50.6924,3.20113,Europe/Paris,OVH SAS,OVH,AS16276 OVH SAS,OVH,hydrogen233-ext2.ahrefs.net,False,False,True,54.36.148.233,
308,success,North America,NA,United States,US,MO,Missouri,Kansas City,,64116,39.1374,-94.5786,America/Chicago,"WholeSale Internet, Inc.","WholeSale Internet, Inc.","AS32097 WholeSale Internet, Inc.",WII,,False,False,True,69.30.218.194,
309,success,Europe,EU,France,FR,HDF,Hauts-de-France,Roubaix,,59100,50.6924,3.20113,Europe/Paris,OVH SAS,OVH,AS16276 OVH SAS,OVH,hydrogen107-ext2.ahrefs.net,False,False,True,54.36.148.107,
310,success,Europe,EU,France,FR,HDF,Hauts-de-France,Roubaix,,59100,50.6924,3.20113,Europe/Paris,OVH SAS,OVH,AS16276 OVH SAS,OVH,hydrogen129-ext2.ahrefs.net,False,False,True,54.36.148.129,
311,success,Europe,EU,France,FR,HDF,Hauts-de-France,Roubaix,,59100,50.6924,3.20113,Europe/Paris,OVH SAS,OVH,AS16276 OVH SAS,OVH,hydrogen311-ext2.ahrefs.net,False,False,True,54.36.149.55,
312,success,Asia,AS,Iran,IR,23,Tehran,Tehran,,,35.7607,51.4043,Asia/Tehran,Mobile Communication Company of Iran PLC,Mcci,AS197207 Mobile Communication Company of Iran PLC,MCCI-AS,,True,False,False,95.64.55.171,
313,success,Europe,EU,France,FR,HDF,Hauts-de-France,Roubaix,,59100,50.6924,3.20113,Europe/Paris,OVH SAS,OVH,AS16276 OVH SAS,OVH,hydrogen102-ext2.ahrefs.net,False,False,True,54.36.148.102,
314,success,North America,NA,United States,US,CA,California,Mountain View,,94043,37.4225,-122.085,America/Los_Angeles,Google LLC,Google LLC,AS15169 Google LLC,GOOGLE,crawl-66-249-79-194.googlebot.com,False,False,True,66.249.79.194,
315,success,Europe,EU,France,FR,HDF,Hauts-de-France,Roubaix,,59100,50.6924,3.20113,Europe/Paris,OVH SAS,OVH,AS16276 OVH SAS,OVH,hydrogen271-ext2.ahrefs.net,False,False,True,54.36.149.15,
316,success,Europe,EU,France,FR,HDF,Hauts-de-France,Roubaix,,59100,50.6924,3.20113,Europe/Paris,OVH SAS,OVH,AS16276 OVH SAS,OVH,ns3026482.ip-51-255-65.eu,False,False,True,51.255.65.46,
317,success,North America,NA,United States,US,MN,Minnesota,Apple Valley,,55124,44.7518,-93.2407,America/Chicago,Madgenius.com,Madgenius.com,AS55154 Madgenius.com,MADGEN-01,,False,False,False,192.119.167.2,
318,success,Europe,EU,France,FR,HDF,Hauts-de-France,Roubaix,,59100,50.6924,3.20113,Europe/Paris,OVH SAS,OVH,AS16276 OVH SAS,OVH,hydrogen257-ext2.ahrefs.net,False,False,True,54.36.149.1,
319,success,North America,NA,United States,US,CA,California,Mountain View,,94043,37.4225,-122.085,America/Los_Angeles,Google LLC,Google LLC,AS15169 Google LLC,GOOGLE,crawl-66-249-66-92.googlebot.com,False,False,True,66.249.66.92,
320,success,Asia,AS,Iran,IR,23,Tehran,Tehran,,,35.7607,51.4043,Asia/Tehran,Mobile Communication Company of Iran,Mobile Communication Company,AS197207 Mobile Communication Company of Iran PLC,MCCI-AS,,True,False,False,91.251.220.58,
321,success,Asia,AS,Iran,IR,23,Tehran,Tehran,,,35.7219,51.3347,Asia/Tehran,Shiraz,,AS44244 Iran Cell Service and Communication Company,IranCell-AS,,True,False,False,5.120.116.189,
322,success,Asia,AS,Iran,IR,23,Tehran,Tehran,,,35.7607,51.4043,Asia/Tehran,Mobile Communication Company of Iran,Mobile Communication Company,AS197207 Mobile Communication Company of Iran PLC,MCCI-AS,,True,False,False,83.121.138.131,
323,success,Europe,EU,France,FR,HDF,Hauts-de-France,Roubaix,,59100,50.6924,3.20113,Europe/Paris,OVH SAS,OVH,AS16276 OVH SAS,OVH,hydrogen059-ext2.ahrefs.net,False,False,True,54.36.148.59,
324,success,North America,NA,United States,US,CA,California,Mountain View,,94043,37.4225,-122.085,America/Los_Angeles,Google LLC,Google LLC,AS15169 Google LLC,GOOGLE,google-proxy-66-249-93-35.google.com,False,False,True,66.249.93.35,
325,success,Europe,EU,Germany,DE,HE,Hesse,Limburg an der Lahn,,65550,50.3986,8.07958,Europe/Berlin,OVH SAS,OVH GmbH,AS16276 OVH SAS,OVH,ip-51-75-93.eu,False,False,True,51.75.93.31,
326,success,Europe,EU,France,FR,HDF,Hauts-de-France,Roubaix,,59100,50.6924,3.20113,Europe/Paris,OVH SAS,OVH,AS16276 OVH SAS,OVH,hydrogen119-ext2.ahrefs.net,False,False,True,54.36.148.119,
327,success,Asia,AS,Iran,IR,07,Ostān-e Tehrān,Tehran,,,35.6194,51.4776,Asia/Tehran,Mobile Communication Company of Iran PLC,,AS197207 Mobile Communication Company of Iran PLC,MCCI-AS,,False,False,False,204.18.139.145,
328,success,Europe,EU,Finland,FI,18,Uusimaa,Helsinki,,00201,60.1719,24.9347,Europe/Helsinki,Hetzner Online GmbH,Hetzner Online GmbH,AS24940 Hetzner Online GmbH,HETZNER-AS,static.253.2.216.95.clients.your-server.de,False,False,True,95.216.2.253,
329,success,Europe,EU,France,FR,HDF,Hauts-de-France,Roubaix,,59100,50.6924,3.20113,Europe/Paris,OVH SAS,OVH,AS16276 OVH SAS,OVH,hydrogen097-ext2.ahrefs.net,False,False,True,54.36.148.97,
330,success,Europe,EU,France,FR,HDF,Hauts-de-France,Roubaix,,59100,50.6924,3.20113,Europe/Paris,OVH SAS,OVH,AS16276 OVH SAS,OVH,hydrogen106-ext2.ahrefs.net,False,False,True,54.36.148.106,
331,success,Europe,EU,France,FR,HDF,Hauts-de-France,Roubaix,,59100,50.6924,3.20113,Europe/Paris,OVH SAS,OVH,AS16276 OVH SAS,OVH,hydrogen341-ext2.ahrefs.net,False,False,True,54.36.149.85,
332,success,Asia,AS,Iran,IR,23,Tehran,Tehran,,,35.6824,51.4158,Asia/Tehran,Iran Cell Service and Communication Company,,AS44244 Iran Cell Service and Communication Company,IranCell-AS,,False,False,False,5.114.224.196,
333,success,North America,NA,United States,US,NY,New York,New York,,10013,40.7201,-74.0047,America/New_York,Micfo,New York CIty Cloud,,,,False,False,False,104.156.210.196,
334,success,Europe,EU,France,FR,HDF,Hauts-de-France,Roubaix,,59100,50.6924,3.20113,Europe/Paris,OVH SAS,OVH,AS16276 OVH SAS,OVH,hydrogen312-ext2.ahrefs.net,False,False,True,54.36.149.56,
335,success,Europe,EU,France,FR,HDF,Hauts-de-France,Roubaix,,59100,50.6924,3.20113,Europe/Paris,OVH SAS,OVH,AS16276 OVH SAS,OVH,hydrogen204-ext2.ahrefs.net,False,False,True,54.36.148.204,
336,success,Europe,EU,France,FR,HDF,Hauts-de-France,Roubaix,,59100,50.6924,3.20113,Europe/Paris,OVH SAS,OVH,AS16276 OVH SAS,OVH,hydrogen074-ext2.ahrefs.net,False,False,True,54.36.148.74,
337,success,Europe,EU,France,FR,HDF,Hauts-de-France,Roubaix,,59100,50.6924,3.20113,Europe/Paris,OVH SAS,OVH,AS16276 OVH SAS,OVH,hydrogen344-ext2.ahrefs.net,False,False,True,54.36.149.88,
338,success,Asia,AS,Iran,IR,23,Tehran,Tehran,,,35.6824,51.4158,Asia/Tehran,Iran Telecommunication Company PJS,Iran Telecommunication Company PJS,AS58224 Iran Telecommunication Company PJS,TCI,,False,False,False,176.65.189.250,
339,success,Asia,AS,Iran,IR,23,Tehran,Tehran,,,35.7607,51.4043,Asia/Tehran,Mobile Communication Company of Iran,Mobile Communication Company,AS197207 Mobile Communication Company of Iran PLC,MCCI-AS,,True,False,False,83.121.252.103,
340,success,Europe,EU,France,FR,HDF,Hauts-de-France,Roubaix,,59100,50.6924,3.20113,Europe/Paris,OVH SAS,OVH,AS16276 OVH SAS,OVH,hydrogen343-ext2.ahrefs.net,False,False,True,54.36.149.87,
341,success,Asia,AS,Iran,IR,23,Tehran,Tehran,,,35.6824,51.4158,Asia/Tehran,Iran Cell Service and Communication Company,,AS44244 Iran Cell Service and Communication Company,IranCell-AS,,False,False,False,5.112.126.81,
342,success,Europe,EU,France,FR,HDF,Hauts-de-France,Roubaix,,59100,50.6924,3.20113,Europe/Paris,OVH SAS,OVH,AS16276 OVH SAS,OVH,hydrogen196-ext2.ahrefs.net,False,False,True,54.36.148.196,
343,success,Asia,AS,China,CN,SH,Shanghai,Shanghai,,200000,31.2304,121.474,Asia/Shanghai,China Telecom (Group),Chinanet SH,AS4811 China Telecom (Group),CHINANET-SHANGHAI-MAN,,False,False,False,180.163.220.3,
344,success,Europe,EU,France,FR,HDF,Hauts-de-France,Roubaix,,59100,50.6924,3.20113,Europe/Paris,OVH SAS,OVH,AS16276 OVH SAS,OVH,hydrogen213-ext2.ahrefs.net,False,False,True,54.36.148.213,
345,success,Asia,AS,Iran,IR,03,East Azerbaijan Province,Tabriz,Amir Khiz,,38.1065,46.283,Asia/Tehran,Information Technology Company,East Azarbayjan Telecommunication company,AS58224 Iran Telecommunication Company PJS,TCI,,False,False,False,2.186.65.58,
346,success,Europe,EU,France,FR,HDF,Hauts-de-France,Roubaix,,59100,50.6924,3.20113,Europe/Paris,OVH SAS,OVH,AS16276 OVH SAS,OVH,hydrogen306-ext2.ahrefs.net,False,False,True,54.36.149.50,
347,success,Asia,AS,Iran,IR,23,Tehran,Tehran,,,35.7607,51.4043,Asia/Tehran,Mobile Communication Company of Iran,Mobile Communication Company,AS197207 Mobile Communication Company of Iran PLC,MCCI-AS,,True,False,False,83.120.223.38,
348,success,Asia,AS,Iran,IR,13,Hamadan Province,Hamadan,,,34.7989,48.515,Asia/Tehran,Telecommunication Company of Iran,Telecommunication Company of Hamedan,AS58224 Iran Telecommunication Company PJS,TCI,,False,False,False,5.236.128.80,
349,success,Asia,AS,Iran,IR,23,Tehran,Tehran,,,35.7607,51.4043,Asia/Tehran,Mobile Communication Company of Iran,Mobile Communication Company,AS197207 Mobile Communication Company of Iran PLC,MCCI-AS,,True,False,False,158.58.96.143,
350,success,Asia,AS,Iran,IR,23,Tehran,Tehran,,,35.6824,51.4158,Asia/Tehran,Iran Cell Service and Communication Company,,AS44244 Iran Cell Service and Communication Company,IranCell-AS,,False,False,False,5.114.34.49,
351,success,Europe,EU,France,FR,HDF,Hauts-de-France,Roubaix,,59100,50.6924,3.20113,Europe/Paris,OVH SAS,OVH,AS16276 OVH SAS,OVH,hydrogen184-ext2.ahrefs.net,False,False,True,54.36.148.184,
352,success,Europe,EU,France,FR,HDF,Hauts-de-France,Roubaix,,59100,50.6924,3.20113,Europe/Paris,OVH SAS,OVH,AS16276 OVH SAS,OVH,hydrogen290-ext2.ahrefs.net,False,False,True,54.36.149.34,
353,success,Asia,AS,Iran,IR,23,Tehran,Tehran,,,35.6824,51.4158,Asia/Tehran,Iran Cell Service and Communication Company,IRANCELL,AS44244 Iran Cell Service and Communication Company,IranCell-AS,,True,False,False,5.117.189.130,
354,success,Asia,AS,Iran,IR,23,Tehran,Sūleqān,,,35.8221,51.2648,Asia/Tehran,Rightel Communication Service Company PJS,Rightel Communication Service Company PJS,"AS57218 ""Rightel Communication Service Company PJS""",RighTel,,True,False,False,89.32.103.182,
355,success,Europe,EU,France,FR,HDF,Hauts-de-France,Roubaix,,59100,50.6924,3.20113,Europe/Paris,OVH SAS,OVH,AS16276 OVH SAS,OVH,hydrogen251-ext2.ahrefs.net,False,False,True,54.36.148.251,
356,success,Europe,EU,France,FR,HDF,Hauts-de-France,Roubaix,,59100,50.6924,3.20113,Europe/Paris,OVH SAS,OVH,AS16276 OVH SAS,OVH,hydrogen179-ext2.ahrefs.net,False,False,True,54.36.148.179,
357,success,Europe,EU,France,FR,HDF,Hauts-de-France,Roubaix,,59100,50.6924,3.20113,Europe/Paris,OVH SAS,OVH,AS16276 OVH SAS,OVH,hydrogen334-ext2.ahrefs.net,False,False,True,54.36.149.78,
358,success,Asia,AS,China,CN,BJ,Beijing,Beijing,,100000,39.9042,116.407,Asia/Shanghai,"IDC, China Telecommunications Corporation",,"AS23724 IDC, China Telecommunications Corporation",CHINANET-IDC-BJ-AP,baiduspider-220-181-108-186.crawl.baidu.com,False,False,False,220.181.108.186,
359,success,Europe,EU,France,FR,HDF,Hauts-de-France,Roubaix,,59100,50.6924,3.20113,Europe/Paris,OVH SAS,OVH,AS16276 OVH SAS,OVH,hydrogen084-ext2.ahrefs.net,False,False,True,54.36.148.84,
360,success,North America,NA,United States,US,VA,Virginia,Boydton,,23917,36.677696,-78.37471,America/New_York,Microsoft Corporation,Microsoft Azure Cloud (eastus2),AS8075 Microsoft Corporation,MICROSOFT-CORP-MSN-AS-BLOCK,msnbot-40-77-167-170.search.msn.com,False,False,True,40.77.167.170,
361,success,Europe,EU,France,FR,HDF,Hauts-de-France,Roubaix,,59100,50.6924,3.20113,Europe/Paris,OVH SAS,OVH,AS16276 OVH SAS,OVH,hydrogen288-ext2.ahrefs.net,False,False,True,54.36.149.32,
362,success,Europe,EU,France,FR,HDF,Hauts-de-France,Roubaix,,59100,50.6924,3.20113,Europe/Paris,OVH SAS,OVH,AS16276 OVH SAS,OVH,hydrogen134-ext2.ahrefs.net,False,False,True,54.36.148.134,
363,success,Europe,EU,France,FR,HDF,Hauts-de-France,Roubaix,,59100,50.6924,3.20113,Europe/Paris,OVH SAS,OVH,AS16276 OVH SAS,OVH,hydrogen051-ext2.ahrefs.net,False,False,True,54.36.148.51,
364,success,Europe,EU,France,FR,HDF,Hauts-de-France,Roubaix,,59100,50.6924,3.20113,Europe/Paris,OVH SAS,OVH,AS16276 OVH SAS,OVH,hydrogen245-ext2.ahrefs.net,False,False,True,54.36.148.245,
365,success,Europe,EU,France,FR,HDF,Hauts-de-France,Roubaix,,59100,50.6924,3.20113,Europe/Paris,OVH SAS,OVH,AS16276 OVH SAS,OVH,hydrogen347-ext2.ahrefs.net,False,False,True,54.36.149.91,
366,success,Europe,EU,France,FR,HDF,Hauts-de-France,Roubaix,,59100,50.6924,3.20113,Europe/Paris,OVH SAS,OVH,AS16276 OVH SAS,OVH,hydrogen036-ext2.ahrefs.net,False,False,True,54.36.148.36,
367,success,Europe,EU,France,FR,HDF,Hauts-de-France,Roubaix,,59100,50.6924,3.20113,Europe/Paris,OVH SAS,OVH,AS16276 OVH SAS,OVH,hydrogen218-ext2.ahrefs.net,False,False,True,54.36.148.218,
368,success,Asia,AS,Japan,JP,13,Tokyo,Tokyo,,102-0082,35.6893,139.6899,Asia/Tokyo,Internet Utilities Europe and Asia Limited,Internet Utilities Europe and Asia Limited,,,37-128-244-97.dynamic.customer.lanta-me.ru,False,False,False,37.128.244.97,
369,success,North America,NA,United States,US,CA,California,Mountain View,,94043,37.4225,-122.085,America/Los_Angeles,Google LLC,Google LLC,AS15169 Google LLC,GOOGLE,crawl-66-249-65-222.googlebot.com,False,False,True,66.249.65.222,
370,success,Asia,AS,Iran,IR,23,Tehran,Tehran,,,35.7746,51.4136,Asia/Tehran,Rightel Communication Service Company PJS,Rightel Communication Service Company,"AS57218 ""Rightel Communication Service Company PJS""",RighTel,,False,False,False,5.134.128.102,
371,success,North America,NA,United States,US,IL,Illinois,Chicago,,60602,41.8819,-87.6278,America/Chicago,Microsoft Corporation,Microsoft Azure Cloud (northcentralus),AS8075 Microsoft Corporation,MICROSOFT-CORP-MSN-AS-BLOCK,,False,False,True,23.101.169.3,
372,success,Asia,AS,Iran,IR,23,Tehran,Tehran,,,35.6824,51.4158,Asia/Tehran,Iran Cell Service and Communication Company,IRANCELL,AS44244 Iran Cell Service and Communication Company,IranCell-AS,,True,False,False,5.117.150.159,
373,success,North America,NA,United States,US,IL,Illinois,Chicago,,60666,41.8781,-87.6298,America/Chicago,Gordon Food Service,Gordon Food Service,AS19936 Gordon Food Service,GORDONFOODS,,False,False,False,104.194.24.54,
374,success,Europe,EU,France,FR,HDF,Hauts-de-France,Roubaix,,59100,50.6924,3.20113,Europe/Paris,OVH SAS,OVH,AS16276 OVH SAS,OVH,hydrogen228-ext2.ahrefs.net,False,False,True,54.36.148.228,
375,success,Asia,AS,Iran,IR,30,Alborz Province,Karaj,,,35.8439,50.9715,Asia/Tehran,NGS-ADSL users TEHRAN,,AS39501 NGSAS NedaGostarSaba,NGSAS-NedaGostarSaba,,False,False,False,188.158.38.30,
376,success,Europe,EU,United Kingdom,GB,ENG,England,London,,EC4V,51.5081,-0.1278,Europe/London,OVH SAS,OVH Ltd,AS16276 OVH SAS,OVH,vps-b6104a1a.vps.ovh.net,False,False,True,51.38.65.189,
377,success,Europe,EU,Netherlands,NL,NH,North Holland,Amsterdam,,1098,52.352,4.9392,Europe/Amsterdam,"DigitalOcean, LLC",Digital Ocean,"AS14061 DigitalOcean, LLC",DIGITALOCEAN-ASN,,False,False,True,146.185.138.203,
378,success,Europe,EU,France,FR,HDF,Hauts-de-France,Roubaix,,59100,50.6924,3.20113,Europe/Paris,OVH SAS,OVH,AS16276 OVH SAS,OVH,hydrogen123-ext2.ahrefs.net,False,False,True,54.36.148.123,
379,success,Europe,EU,France,FR,HDF,Hauts-de-France,Roubaix,,59100,50.6924,3.20113,Europe/Paris,OVH SAS,OVH,AS16276 OVH SAS,OVH,hydrogen325-ext2.ahrefs.net,False,False,True,54.36.149.69,
380,success,Europe,EU,France,FR,HDF,Hauts-de-France,Roubaix,,59100,50.6924,3.20113,Europe/Paris,OVH SAS,OVH,AS16276 OVH SAS,OVH,hydrogen289-ext2.ahrefs.net,False,False,True,54.36.149.33,
381,success,North America,NA,United States,US,CA,California,San Francisco,Inner Richmond,94118,37.7823,-122.472,America/Los_Angeles,Internet Archive,Internet Archive,AS7941 Internet Archive,INTERNET-ARCHIVE,,False,False,False,207.241.231.165,
382,success,Asia,AS,Iran,IR,23,Tehran,Tehran,,,35.7219,51.3347,Asia/Tehran,Esfahan,,AS44244 Iran Cell Service and Communication Company,IranCell-AS,,False,False,False,5.123.88.42,
383,success,Asia,AS,Iran,IR,23,Tehran,Tehran,,,35.7746,51.4136,Asia/Tehran,Rightel Communication Service Company PJS,Rightel Communication Service Company PJS,,,,True,False,False,92.114.78.201,
384,success,Europe,EU,France,FR,HDF,Hauts-de-France,Roubaix,,59100,50.6924,3.20113,Europe/Paris,OVH SAS,OVH,AS16276 OVH SAS,OVH,hydrogen066-ext2.ahrefs.net,False,False,True,54.36.148.66,
385,success,Europe,EU,France,FR,HDF,Hauts-de-France,Roubaix,,59100,50.6924,3.20113,Europe/Paris,OVH SAS,OVH,AS16276 OVH SAS,OVH,hydrogen172-ext2.ahrefs.net,False,False,True,54.36.148.172,
386,success,Asia,AS,Iran,IR,02,Māzandarān,Nowshahr,,,36.6562,51.5068,Asia/Tehran,Mobile Communication Company,New Service 4G,AS197207 Mobile Communication Company of Iran PLC,MCCI-AS,,True,False,False,86.55.216.175,
387,success,Europe,EU,France,FR,HDF,Hauts-de-France,Roubaix,,59100,50.6924,3.20113,Europe/Paris,OVH SAS,OVH,AS16276 OVH SAS,OVH,hydrogen206-ext2.ahrefs.net,False,False,True,54.36.148.206,
388,success,Europe,EU,France,FR,HDF,Hauts-de-France,Roubaix,,59100,50.6924,3.20113,Europe/Paris,OVH SAS,OVH,AS16276 OVH SAS,OVH,hydrogen019-ext2.ahrefs.net,False,False,True,54.36.148.19,
389,success,Europe,EU,France,FR,HDF,Hauts-de-France,Roubaix,,59100,50.6924,3.20113,Europe/Paris,OVH SAS,OVH,AS16276 OVH SAS,OVH,hydrogen056-ext2.ahrefs.net,False,False,True,54.36.148.56,
390,success,Asia,AS,Iran,IR,23,Tehran,Tehran,,,35.7219,51.3347,Asia/Tehran,Tabriz,,AS44244 Iran Cell Service and Communication Company,IranCell-AS,,False,False,False,5.122.115.238,
391,success,Asia,AS,Iran,IR,23,Tehran,Tehran,,,35.7607,51.4043,Asia/Tehran,Mobile Communication Company of Iran,Mobile Communication Company,AS197207 Mobile Communication Company of Iran PLC,MCCI-AS,,True,False,False,5.209.40.38,
392,success,Europe,EU,France,FR,HDF,Hauts-de-France,Roubaix,,59100,50.6924,3.20113,Europe/Paris,OVH SAS,OVH,AS16276 OVH SAS,OVH,hydrogen127-ext2.ahrefs.net,False,False,True,54.36.148.127,
393,success,Europe,EU,Germany,DE,HE,Hesse,Frankfurt am Main,,60313,50.1169,8.6837,Europe/Berlin,OVH SAS,OVH GmbH,AS16276 OVH SAS,OVH,mail.apadaria.com.ua,False,False,True,54.36.111.160,
394,success,Europe,EU,France,FR,HDF,Hauts-de-France,Roubaix,,59100,50.6924,3.20113,Europe/Paris,OVH SAS,OVH,AS16276 OVH SAS,OVH,hydrogen354-ext2.ahrefs.net,False,False,True,54.36.149.98,
395,success,Europe,EU,France,FR,HDF,Hauts-de-France,Roubaix,,59100,50.6924,3.20113,Europe/Paris,OVH SAS,OVH,AS16276 OVH SAS,OVH,hydrogen286-ext2.ahrefs.net,False,False,True,54.36.149.30,
396,success,Europe,EU,France,FR,HDF,Hauts-de-France,Roubaix,,59100,50.6924,3.20113,Europe/Paris,OVH SAS,OVH,AS16276 OVH SAS,OVH,hydrogen182-ext2.ahrefs.net,False,False,True,54.36.148.182,
397,success,Europe,EU,France,FR,HDF,Hauts-de-France,Roubaix,,59100,50.6924,3.20113,Europe/Paris,OVH SAS,OVH,AS16276 OVH SAS,OVH,hydrogen227-ext2.ahrefs.net,False,False,True,54.36.148.227,
398,success,Asia,AS,Iran,IR,23,Tehran,Tehran,,,35.7607,51.4043,Asia/Tehran,MCI,,AS197207 Mobile Communication Company of Iran PLC,MCCI-AS,,True,False,False,192.15.6.66,
399,success,Asia,AS,Iran,IR,23,Tehran,Tehran,,,35.7219,51.3347,Asia/Tehran,DCI,Telecommunication Company of Tehran,AS58224 Iran Telecommunication Company PJS,TCI,,False,False,False,195.181.3.169,
400,success,Europe,EU,France,FR,HDF,Hauts-de-France,Roubaix,,59100,50.6924,3.20113,Europe/Paris,OVH SAS,OVH,AS16276 OVH SAS,OVH,hydrogen207-ext2.ahrefs.net,False,False,True,54.36.148.207,
401,success,Europe,EU,France,FR,HDF,Hauts-de-France,Roubaix,,59100,50.6924,3.20113,Europe/Paris,OVH SAS,OVH,AS16276 OVH SAS,OVH,hydrogen220-ext2.ahrefs.net,False,False,True,54.36.148.220,
402,success,Asia,AS,Iran,IR,23,Tehran,Tehran,,,35.6824,51.4158,Asia/Tehran,Iran Cell Service and Communication Company,IRANCELL,AS44244 Iran Cell Service and Communication Company,IranCell-AS,,False,False,False,5.114.49.207,
403,success,Europe,EU,France,FR,HDF,Hauts-de-France,Roubaix,,59100,50.6924,3.20113,Europe/Paris,OVH SAS,OVH,AS16276 OVH SAS,OVH,hydrogen181-ext2.ahrefs.net,False,False,True,54.36.148.181,
404,success,Europe,EU,Netherlands,NL,NH,North Holland,Amsterdam,,1098,52.352,4.9392,Europe/Amsterdam,"DigitalOcean, LLC",Digital Ocean,"AS14061 DigitalOcean, LLC",DIGITALOCEAN-ASN,,False,False,True,188.226.164.216,
405,success,Asia,AS,Iran,IR,23,Tehran,Tehran,,,35.7246,51.4126,Asia/Tehran,Sabanet-Adsl,,AS39501 NGSAS NedaGostarSaba,NGSAS-NedaGostarSaba,,False,False,False,188.159.74.40,
406,success,Europe,EU,France,FR,HDF,Hauts-de-France,Roubaix,,59100,50.6924,3.20113,Europe/Paris,OVH SAS,OVH,AS16276 OVH SAS,OVH,hydrogen188-ext2.ahrefs.net,False,False,True,54.36.148.188,
407,success,Asia,AS,Iran,IR,09,Razavi Khorasan,Mashhad,,,36.3006,59.5904,Asia/Tehran,IRANCELL,,AS44244 Iran Cell Service and Communication Company,IranCell-AS,,True,False,False,5.126.29.183,
408,success,Europe,EU,France,FR,HDF,Hauts-de-France,Roubaix,,59100,50.6924,3.20113,Europe/Paris,OVH SAS,OVH,AS16276 OVH SAS,OVH,,False,False,True,149.202.184.84,
409,success,Asia,AS,Iran,IR,07,Ostān-e Tehrān,Tehran,,,35.6194,51.4776,Asia/Tehran,Mobile Communication Company of Iran PLC,,AS197207 Mobile Communication Company of Iran PLC,MCCI-AS,,False,False,False,204.18.175.72,
410,success,Europe,EU,France,FR,HDF,Hauts-de-France,Roubaix,,59100,50.6924,3.20113,Europe/Paris,OVH SAS,OVH,AS16276 OVH SAS,OVH,hydrogen080-ext2.ahrefs.net,False,False,True,54.36.148.80,
411,success,Asia,AS,Iran,IR,23,Tehran,Tehran,,,35.6824,51.4158,Asia/Tehran,Rightel Communication Service Company PJS,Rightel Communication Service Company PJS,,,,True,False,False,5.72.172.59,
412,success,Asia,AS,Iran,IR,23,Tehran,Tehran,,,35.6824,51.4158,Asia/Tehran,Iran Cell Service and Communication Company,IRANCELL,AS44244 Iran Cell Service and Communication Company,IranCell-AS,,False,False,False,5.116.227.150,
413,success,Asia,AS,Iran,IR,23,Tehran,Tehran,,,35.7607,51.4043,Asia/Tehran,Mobile Communication Company of Iran,Mobile Communication Company,AS197207 Mobile Communication Company of Iran PLC,MCCI-AS,,True,False,False,83.122.106.8,
414,success,Europe,EU,France,FR,HDF,Hauts-de-France,Roubaix,,59100,50.6924,3.20113,Europe/Paris,OVH SAS,OVH,AS16276 OVH SAS,OVH,hydrogen299-ext2.ahrefs.net,False,False,True,54.36.149.43,
415,success,Europe,EU,France,FR,HDF,Hauts-de-France,Roubaix,,59100,50.6924,3.20113,Europe/Paris,OVH SAS,OVH,AS16276 OVH SAS,OVH,hydrogen247-ext2.ahrefs.net,False,False,True,54.36.148.247,
416,success,Europe,EU,France,FR,HDF,Hauts-de-France,Roubaix,,59100,50.6924,3.20113,Europe/Paris,OVH SAS,OVH,AS16276 OVH SAS,OVH,hydrogen287-ext2.ahrefs.net,False,False,True,54.36.149.31,
417,success,Europe,EU,France,FR,HDF,Hauts-de-France,Roubaix,,59100,50.6924,3.20113,Europe/Paris,OVH SAS,OVH,AS16276 OVH SAS,OVH,hydrogen050-ext2.ahrefs.net,False,False,True,54.36.148.50,
418,success,Europe,EU,France,FR,HDF,Hauts-de-France,Roubaix,,59100,50.6924,3.20113,Europe/Paris,OVH SAS,OVH,AS16276 OVH SAS,OVH,hydrogen073-ext2.ahrefs.net,False,False,True,54.36.148.73,
419,success,Asia,AS,Iran,IR,23,Tehran,Tehran,,,35.7607,51.4043,Asia/Tehran,Mobile Communication Company of Iran,Mobile Communication Company,AS197207 Mobile Communication Company of Iran PLC,MCCI-AS,,True,False,False,83.121.159.152,
420,success,Europe,EU,France,FR,HDF,Hauts-de-France,Roubaix,,59100,50.6924,3.20113,Europe/Paris,OVH SAS,OVH,AS16276 OVH SAS,OVH,hydrogen082-ext2.ahrefs.net,False,False,True,54.36.148.82,
421,success,Asia,AS,Iran,IR,03,East Azerbaijan Province,Malekān,,,37.1453,46.1076,Asia/Tehran,MCI,,AS197207 Mobile Communication Company of Iran PLC,MCCI-AS,,True,False,False,192.15.81.106,
422,success,Europe,EU,France,FR,HDF,Hauts-de-France,Roubaix,,59100,50.6924,3.20113,Europe/Paris,OVH SAS,OVH,AS16276 OVH SAS,OVH,hydrogen235-ext2.ahrefs.net,False,False,True,54.36.148.235,
423,success,Europe,EU,France,FR,HDF,Hauts-de-France,Roubaix,,59100,50.6924,3.20113,Europe/Paris,OVH SAS,OVH,AS16276 OVH SAS,OVH,hydrogen099-ext2.ahrefs.net,False,False,True,54.36.148.99,
424,success,Europe,EU,France,FR,HDF,Hauts-de-France,Roubaix,,59100,50.6924,3.20113,Europe/Paris,OVH SAS,OVH,AS16276 OVH SAS,OVH,hydrogen222-ext2.ahrefs.net,False,False,True,54.36.148.222,
425,success,Europe,EU,France,FR,HDF,Hauts-de-France,Roubaix,,59100,50.6924,3.20113,Europe/Paris,OVH SAS,OVH,AS16276 OVH SAS,OVH,hydrogen126-ext2.ahrefs.net,False,False,True,54.36.148.126,
426,success,Europe,EU,France,FR,HDF,Hauts-de-France,Roubaix,,59100,50.6924,3.20113,Europe/Paris,OVH SAS,OVH,AS16276 OVH SAS,OVH,hydrogen298-ext2.ahrefs.net,False,False,True,54.36.149.42,
427,success,Europe,EU,France,FR,HDF,Hauts-de-France,Roubaix,,59100,50.6924,3.20113,Europe/Paris,OVH SAS,OVH,AS16276 OVH SAS,OVH,hydrogen249-ext2.ahrefs.net,False,False,True,54.36.148.249,
428,success,Asia,AS,Iran,IR,23,Tehran,Tehran,,,35.7219,51.3347,Asia/Tehran,Esfahan,,AS44244 Iran Cell Service and Communication Company,IranCell-AS,,False,False,False,5.123.158.147,
429,success,Asia,AS,Iran,IR,23,Tehran,Tehran,,,35.6944,51.4215,Asia/Tehran,Iran Cell Service and Communication Company,IRANCELL,AS44244 Iran Cell Service and Communication Company,IranCell-AS,,False,False,False,5.113.251.33,
430,success,Europe,EU,United Kingdom,GB,ENG,England,London,,EC4V,51.5081,-0.1278,Europe/London,Linode,"Linode, LLC",AS63949 Akamai Connected Cloud,AKAMAI-LINODE-AP,,False,False,True,176.58.102.207,
431,success,North America,NA,United States,US,TX,Texas,Dallas,,75270,32.7797,-96.8022,America/Chicago,Limestone Networks,,"AS46475 Limestone Networks, Inc.",LIMESTONENETWORKS,engine-243-42-143-63.uptimerobot.com,False,False,True,63.143.42.243,
432,success,Europe,EU,Germany,DE,BY,Bavaria,Nuremberg,,90403,49.4543,11.0746,Europe/Berlin,Hetzner Online GmbH,Hetzner,AS24940 Hetzner Online GmbH,HETZNER-AS,static.218.135.225.46.clients.your-server.de,False,False,True,46.225.135.218,
433,success,Asia,AS,Iran,IR,23,Tehran,Tehran,,,35.6824,51.4158,Asia/Tehran,Mobile Communication Company of Iran,Mobile Communication Company,AS197207 Mobile Communication Company of Iran PLC,MCCI-AS,,True,False,False,5.215.2.31,
434,success,Europe,EU,United Kingdom,GB,ENG,England,Gosport,,PO13 0GW,50.8251,-1.1629,Europe/London,Redstation Limited,Redstation Limited,AS20860 IOMART CLOUD SERVICES LIMITED,IOMART-AS,h82-102-13-137.host.redstation.co.uk,False,False,True,82.102.13.137,
435,success,North America,NA,United States,US,WA,Washington,Quincy,,98848,47.233,-119.852,America/Los_Angeles,Microsoft Corporation,Microsoft Azure Cloud (westus2),AS8075 Microsoft Corporation,MICROSOFT-CORP-MSN-AS-BLOCK,msnbot-157-55-13-64.search.msn.com,False,False,True,157.55.13.64,
436,success,Europe,EU,France,FR,HDF,Hauts-de-France,Roubaix,,59100,50.6924,3.20113,Europe/Paris,OVH SAS,OVH,AS16276 OVH SAS,OVH,hydrogen277-ext2.ahrefs.net,False,False,True,54.36.149.21,
437,success,Europe,EU,France,FR,HDF,Hauts-de-France,Roubaix,,59100,50.6924,3.20113,Europe/Paris,OVH SAS,OVH,AS16276 OVH SAS,OVH,hydrogen187-ext2.a.ahrefs.com,False,False,True,54.36.148.187,
438,success,Europe,EU,France,FR,HDF,Hauts-de-France,Roubaix,,59100,50.6924,3.20113,Europe/Paris,OVH SAS,OVH,AS16276 OVH SAS,OVH,hydrogen156-ext2.ahrefs.net,False,False,True,54.36.148.156,
439,success,Europe,EU,France,FR,HDF,Hauts-de-France,Roubaix,,59100,50.6924,3.20113,Europe/Paris,OVH SAS,OVH,AS16276 OVH SAS,OVH,hydrogen229-ext2.ahrefs.net,False,False,True,54.36.148.229,
440,success,Asia,AS,Iran,IR,23,Tehran,Tehran,,,35.7607,51.4043,Asia/Tehran,Mobile Communication Company of Iran,Mobile Communication Company,AS197207 Mobile Communication Company of Iran PLC,MCCI-AS,,True,False,False,83.121.232.38,
441,success,Europe,EU,France,FR,HDF,Hauts-de-France,Roubaix,,59100,50.6924,3.20113,Europe/Paris,OVH SAS,OVH,AS16276 OVH SAS,OVH,hydrogen042-ext2.ahrefs.net,False,False,True,54.36.148.42,
442,success,Europe,EU,France,FR,HDF,Hauts-de-France,Roubaix,,59100,50.6924,3.20113,Europe/Paris,OVH SAS,OVH,AS16276 OVH SAS,OVH,hydrogen035-ext2.ahrefs.net,False,False,True,54.36.148.35,
443,success,Europe,EU,France,FR,HDF,Hauts-de-France,Roubaix,,59100,50.6924,3.20113,Europe/Paris,OVH SAS,OVH,AS16276 OVH SAS,OVH,hydrogen047-ext2.ahrefs.net,False,False,True,54.36.148.47,
444,success,Asia,AS,Iran,IR,23,Tehran,Tehran,,,35.7607,51.4043,Asia/Tehran,Mobile Communication Company of Iran,Mobile Communication Company,AS197207 Mobile Communication Company of Iran PLC,MCCI-AS,,True,False,False,158.58.95.21,
445,success,Europe,EU,France,FR,HDF,Hauts-de-France,Roubaix,,59100,50.6924,3.20113,Europe/Paris,OVH SAS,OVH,AS16276 OVH SAS,OVH,,False,False,True,213.32.47.229,
446,success,Asia,AS,Iran,IR,23,Tehran,Tehran,,,35.6824,51.4158,Asia/Tehran,Mobile Communication Company of Iran,Mobile Communication Company,AS197207 Mobile Communication Company of Iran PLC,MCCI-AS,,True,False,False,5.212.29.195,
447,success,Europe,EU,France,FR,HDF,Hauts-de-France,Roubaix,,59100,50.6924,3.20113,Europe/Paris,OVH SAS,OVH,AS16276 OVH SAS,OVH,hydrogen345-ext2.ahrefs.net,False,False,True,54.36.149.89,
448,success,Asia,AS,Iran,IR,23,Tehran,Tehran,,,35.7219,51.3347,Asia/Tehran,IRANCELL,,AS44244 Iran Cell Service and Communication Company,IranCell-AS,,True,False,False,5.127.84.90,
449,success,Europe,EU,France,FR,HDF,Hauts-de-France,Roubaix,,59100,50.6924,3.20113,Europe/Paris,OVH SAS,OVH,AS16276 OVH SAS,OVH,hydrogen016-ext2.ahrefs.net,False,False,True,54.36.148.16,
450,success,Asia,AS,Hong Kong,HK,HCW,Central and Western District,Hong Kong,,00000,22.267,114.188,Asia/Hong_Kong,Microsoft Corporation,Microsoft Azure Cloud (eastasia),AS8075 Microsoft Corporation,MICROSOFT-CORP-MSN-AS-BLOCK,msnbot-40-77-193-13.search.msn.com,False,False,True,40.77.193.13,
451,success,North America,NA,United States,US,CA,California,Mountain View,,94043,37.4225,-122.085,America/Los_Angeles,Google LLC,Google LLC,AS15169 Google LLC,GOOGLE,crawl-66-249-66-198.googlebot.com,False,False,True,66.249.66.198,
452,success,Europe,EU,France,FR,IDF,Île-de-France,Paris,,75001,48.8558,2.3494,Europe/Paris,Online S.A.S.,ONLINE,AS12876 SCALEWAY S.A.S.,AS12876,,False,False,True,195.154.122.226,
453,success,Asia,AS,China,CN,BJ,Beijing,Beijing,,100000,39.9042,116.407,Asia/Shanghai,China Unicom Beijing Province Network,,AS4808 China Unicom Beijing Province Network,CHINA169-BJ,baiduspider-123-125-71-43.crawl.baidu.com,False,False,False,123.125.71.43,
454,success,Asia,AS,China,CN,BJ,Beijing,Beijing,,100000,39.9042,116.407,Asia/Shanghai,China Unicom Beijing Province Network,,AS4808 China Unicom Beijing Province Network,CHINA169-BJ,baiduspider-123-125-71-31.crawl.baidu.com,False,False,False,123.125.71.31,
455,success,Europe,EU,France,FR,HDF,Hauts-de-France,Roubaix,,59100,50.6924,3.20113,Europe/Paris,OVH SAS,OVH,AS16276 OVH SAS,OVH,hydrogen148-ext2.ahrefs.net,False,False,True,54.36.148.148,
456,success,Asia,AS,Iran,IR,23,Tehran,Tehran,,,35.6824,51.4158,Asia/Tehran,Iran Cell Service and Communication Company,,AS44244 Iran Cell Service and Communication Company,IranCell-AS,,False,False,False,5.117.167.217,
457,success,Europe,EU,France,FR,HDF,Hauts-de-France,Roubaix,,59100,50.6924,3.20113,Europe/Paris,OVH SAS,OVH,AS16276 OVH SAS,OVH,hydrogen062-ext2.ahrefs.net,False,False,True,54.36.148.62,
458,success,Europe,EU,France,FR,IDF,Île-de-France,Paris,,75001,48.8558,2.3494,Europe/Paris,Online S.A.S.,ONLINE,AS12876 SCALEWAY S.A.S.,AS12876,,False,False,True,195.154.123.43,
459,success,Europe,EU,France,FR,HDF,Hauts-de-France,Roubaix,,59100,50.6924,3.20113,Europe/Paris,OVH SAS,OVH,AS16276 OVH SAS,OVH,hydrogen168-ext2.ahrefs.net,False,False,True,54.36.148.168,
460,success,Asia,AS,Iran,IR,23,Tehran,Tehran,,,35.7219,51.3347,Asia/Tehran,Information Technology Company,Telecommunication Company of Tehran,AS58224 Iran Telecommunication Company PJS,TCI,,False,False,False,5.62.160.31,
461,success,Asia,AS,Iran,IR,23,Tehran,Tehran,,,35.7607,51.4043,Asia/Tehran,Mobile Communication Company of Iran,Mobile Communication Company,AS197207 Mobile Communication Company of Iran PLC,MCCI-AS,,True,False,False,5.214.213.183,
462,success,Asia,AS,Iran,IR,23,Tehran,Tehran,,,35.7219,51.3347,Asia/Tehran,Iran Cell Service and Communication Company,IRANCELL,AS44244 Iran Cell Service and Communication Company,IranCell-AS,,True,False,False,5.113.18.169,
463,success,Asia,AS,Iran,IR,23,Tehran,Tehran,,,35.6824,51.4158,Asia/Tehran,Iran Cell Service and Communication Company,IRANCELL,AS44244 Iran Cell Service and Communication Company,IranCell-AS,,True,False,False,5.117.202.46,
464,success,Europe,EU,France,FR,HDF,Hauts-de-France,Roubaix,,59100,50.6924,3.20113,Europe/Paris,OVH SAS,OVH,AS16276 OVH SAS,OVH,hydrogen167-ext2.ahrefs.net,False,False,True,54.36.148.167,
465,success,Asia,AS,Iran,IR,23,Tehran,Tehran,,,35.6824,51.4158,Asia/Tehran,Iran Cell Service and Communication Company,IRANCELL,AS44244 Iran Cell Service and Communication Company,IranCell-AS,,False,False,False,5.117.222.245,
466,success,Asia,AS,Iran,IR,23,Tehran,Tehran,,,35.6824,51.4158,Asia/Tehran,Mobile Communication Company of Iran,Mobile Communication Company,AS197207 Mobile Communication Company of Iran PLC,MCCI-AS,,True,False,False,5.212.57.77,
467,success,Asia,AS,Iran,IR,06,Khuzestan,Ahvaz,,,31.319,48.6842,Asia/Tehran,IRANCELL,,AS44244 Iran Cell Service and Communication Company,IranCell-AS,,True,False,False,5.127.223.190,
468,success,Europe,EU,Netherlands,NL,NH,North Holland,Amsterdam,,1098,52.352,4.9392,Europe/Amsterdam,"DigitalOcean, LLC",Digital Ocean,"AS14061 DigitalOcean, LLC",DIGITALOCEAN-ASN,,False,False,True,146.185.154.135,
469,success,Europe,EU,France,FR,HDF,Hauts-de-France,Roubaix,,59100,50.6924,3.20113,Europe/Paris,OVH SAS,OVH,AS16276 OVH SAS,OVH,hydrogen338-ext2.ahrefs.net,False,False,True,54.36.149.82,
470,success,Europe,EU,France,FR,HDF,Hauts-de-France,Roubaix,,59100,50.6924,3.20113,Europe/Paris,OVH SAS,OVH,AS16276 OVH SAS,OVH,hydrogen284-ext2.ahrefs.net,False,False,True,54.36.149.28,
471,success,Europe,EU,France,FR,HDF,Hauts-de-France,Roubaix,,59100,50.6924,3.20113,Europe/Paris,OVH SAS,OVH,AS16276 OVH SAS,OVH,hydrogen155-ext2.ahrefs.net,False,False,True,54.36.148.155,
472,success,Europe,EU,France,FR,HDF,Hauts-de-France,Roubaix,,59100,50.6924,3.20113,Europe/Paris,OVH SAS,OVH,AS16276 OVH SAS,OVH,hydrogen139-ext2.ahrefs.net,False,False,True,54.36.149.104,
473,success,Asia,AS,Iran,IR,23,Tehran,Tehran,,,35.7219,51.3347,Asia/Tehran,Iran Cell Service and Communication Company,IRANCELL,AS44244 Iran Cell Service and Communication Company,IranCell-AS,,False,False,False,5.120.214.83,
474,success,Europe,EU,France,FR,HDF,Hauts-de-France,Roubaix,,59100,50.6924,3.20113,Europe/Paris,OVH SAS,OVH,AS16276 OVH SAS,OVH,hydrogen015-ext2.ahrefs.net,False,False,True,54.36.148.15,
475,success,Asia,AS,Iran,IR,23,Tehran,Tehran,,,35.7607,51.4043,Asia/Tehran,MCI,,AS197207 Mobile Communication Company of Iran PLC,MCCI-AS,,True,False,False,85.239.198.13,
476,success,Europe,EU,Russia,RU,MOW,Moscow,Moscow,Tsentralnyy administrativnyy okrug,101194,55.7342,37.5859,Europe/Moscow,Yandex LLC,Yandex LLC,AS13238 YANDEX LLC,YANDEX,5-45-207-88.spider.yandex.com,False,False,False,5.45.207.88,
477,success,Asia,AS,Iran,IR,23,Tehran,Tehran,,,35.7607,51.4043,Asia/Tehran,Mobile Communication Company,LTE expansion,AS197207 Mobile Communication Company of Iran PLC,MCCI-AS,,True,False,False,5.218.170.136,
478,success,Asia,AS,Iran,IR,03,East Azerbaijan Province,Tabriz,,,38.08,46.2919,Asia/Tehran,Mobile Communication Company of Iran,Mobile Communication Company,AS197207 Mobile Communication Company of Iran PLC,MCCI-AS,,True,False,False,83.121.127.147,
479,success,North America,NA,United States,US,WA,Washington,Quincy,,98848,47.233,-119.852,America/Los_Angeles,Microsoft Corporation,Microsoft Azure Cloud (westus2),AS8075 Microsoft Corporation,MICROSOFT-CORP-MSN-AS-BLOCK,msnbot-157-55-39-236.search.msn.com,False,False,True,157.55.39.236,
480,success,Asia,AS,Iran,IR,23,Tehran,Tehran,,,35.7607,51.4043,Asia/Tehran,Mobile Communication Company of Iran,Mobile Communication Company,AS197207 Mobile Communication Company of Iran PLC,MCCI-AS,,True,False,False,83.121.79.80,
481,success,Europe,EU,France,FR,HDF,Hauts-de-France,Roubaix,,59100,50.6924,3.20113,Europe/Paris,OVH SAS,OVH,AS16276 OVH SAS,OVH,hydrogen327-ext2.ahrefs.net,False,False,True,54.36.149.71,
482,success,Europe,EU,France,FR,HDF,Hauts-de-France,Roubaix,,59100,50.6924,3.20113,Europe/Paris,OVH SAS,OVH,AS16276 OVH SAS,OVH,hydrogen205-ext2.ahrefs.net,False,False,True,54.36.148.205,
483,success,Europe,EU,Germany,DE,HE,Hesse,Limburg an der Lahn,,65550,50.3847,8.0475,Europe/Berlin,OVH SAS,OVH GmbH,AS16276 OVH SAS,OVH,vps-56dafaea.vps.ovh.net,False,False,True,51.38.127.230,
484,success,Europe,EU,France,FR,HDF,Hauts-de-France,Roubaix,,59100,50.6924,3.20113,Europe/Paris,OVH SAS,OVH,AS16276 OVH SAS,OVH,hydrogen308-ext2.ahrefs.net,False,False,True,54.36.149.52,
485,success,Asia,AS,Iran,IR,23,Tehran,Tehran,,,35.7219,51.3347,Asia/Tehran,Iran Cell Service and Communication Company,IRANCELL,AS44244 Iran Cell Service and Communication Company,IranCell-AS,,True,False,False,5.120.238.31,
486,success,Europe,EU,France,FR,HDF,Hauts-de-France,Roubaix,,59100,50.6924,3.20113,Europe/Paris,OVH SAS,OVH,AS16276 OVH SAS,OVH,hydrogen304-ext2.ahrefs.net,False,False,True,54.36.149.48,
487,success,North America,NA,United States,US,NH,New Hampshire,Nashua,,03064,42.779,-71.4738,America/New_York,Verizon Business,Verizon Business,AS6167 Verizon Business,CELLCO-PART,60.sub-174-233-0.myvzw.com,True,False,False,174.233.0.60,
488,success,Asia,AS,Hong Kong,HK,HCW,Central and Western District,Hong Kong,,00000,22.267,114.188,Asia/Hong_Kong,Microsoft Corporation,Microsoft Azure Cloud (eastasia),AS8075 Microsoft Corporation,MICROSOFT-CORP-MSN-AS-BLOCK,msnbot-40-77-193-97.search.msn.com,False,False,True,40.77.193.97,
489,success,Europe,EU,United Kingdom,GB,ENG,England,London,,W1B,51.5072,-0.127586,Europe/London,24Shells Limited,24Shells Limited,,,,False,True,False,185.239.173.75,
490,success,Asia,AS,Hong Kong,HK,HCW,Central and Western District,Hong Kong,,00000,22.267,114.188,Asia/Hong_Kong,Microsoft Corporation,Microsoft Azure Cloud (eastasia),AS8075 Microsoft Corporation,MICROSOFT-CORP-MSN-AS-BLOCK,msnbot-40-77-194-26.search.msn.com,False,False,True,40.77.194.26,
491,success,Europe,EU,France,FR,HDF,Hauts-de-France,Roubaix,,59100,50.6924,3.20113,Europe/Paris,OVH SAS,OVH,AS16276 OVH SAS,OVH,hydrogen231-ext2.ahrefs.net,False,False,True,54.36.148.231,
492,success,Europe,EU,France,FR,HDF,Hauts-de-France,Roubaix,,59100,50.6924,3.20113,Europe/Paris,OVH SAS,OVH,AS16276 OVH SAS,OVH,hydrogen215-ext2.ahrefs.net,False,False,True,54.36.148.215,
493,success,Asia,AS,Iran,IR,02,Māzandarān,Nowshahr,,,36.6562,51.5068,Asia/Tehran,Mobile Communication Company,New Service 4G,AS197207 Mobile Communication Company of Iran PLC,MCCI-AS,,True,False,False,86.55.71.199,
494,success,Europe,EU,France,FR,HDF,Hauts-de-France,Roubaix,,59100,50.6924,3.20113,Europe/Paris,OVH SAS,OVH,AS16276 OVH SAS,OVH,hydrogen096-ext2.ahrefs.net,False,False,True,54.36.148.96,
495,success,Europe,EU,France,FR,HDF,Hauts-de-France,Roubaix,,59100,50.6924,3.20113,Europe/Paris,OVH SAS,OVH,AS16276 OVH SAS,OVH,hydrogen122-ext2.ahrefs.net,False,False,True,54.36.148.122,
496,success,Europe,EU,France,FR,HDF,Hauts-de-France,Roubaix,,59100,50.6924,3.20113,Europe/Paris,OVH SAS,OVH,AS16276 OVH SAS,OVH,hydrogen052-ext2.ahrefs.net,False,False,True,54.36.148.52,
497,success,Europe,EU,France,FR,IDF,Île-de-France,Paris,,75001,48.8558,2.3494,Europe/Paris,Online S.A.S.,ONLINE,AS12876 SCALEWAY S.A.S.,AS12876,,False,False,True,195.154.123.62,
498,success,Asia,AS,Iran,IR,23,Tehran,Tehran,,,35.7543,51.4205,Asia/Tehran,Information Technology Company,,AS58224 Iran Telecommunication Company PJS,TCI,,False,False,False,2.190.156.108,
499,success,Europe,EU,France,FR,HDF,Hauts-de-France,Roubaix,,59100,50.6924,3.20113,Europe/Paris,OVH SAS,OVH,AS16276 OVH SAS,OVH,hydrogen279-ext2.ahrefs.net,False,False,True,54.36.149.23,
500,success,Asia,AS,Hong Kong,HK,HCW,Central and Western District,Hong Kong,,00000,22.267,114.188,Asia/Hong_Kong,Microsoft Corporation,Microsoft Azure Cloud (eastasia),AS8075 Microsoft Corporation,MICROSOFT-CORP-MSN-AS-BLOCK,msnbot-40-77-192-152.search.msn.com,False,False,True,40.77.192.152,
501,success,Europe,EU,France,FR,HDF,Hauts-de-France,Roubaix,,59100,50.6924,3.20113,Europe/Paris,OVH SAS,OVH,AS16276 OVH SAS,OVH,hydrogen018-ext2.ahrefs.net,False,False,True,54.36.149.107,
502,success,Europe,EU,France,FR,HDF,Hauts-de-France,Roubaix,,59100,50.6924,3.20113,Europe/Paris,OVH SAS,OVH,AS16276 OVH SAS,OVH,hydrogen142-ext2.ahrefs.net,False,False,True,54.36.148.142,
503,success,Europe,EU,France,FR,HDF,Hauts-de-France,Roubaix,,59100,50.6924,3.20113,Europe/Paris,OVH SAS,OVH,AS16276 OVH SAS,OVH,hydrogen238-ext2.ahrefs.net,False,False,True,54.36.148.238,
504,success,Europe,EU,France,FR,HDF,Hauts-de-France,Roubaix,,59100,50.6924,3.20113,Europe/Paris,OVH SAS,OVH,AS16276 OVH SAS,OVH,hydrogen132-ext2.ahrefs.net,False,False,True,54.36.148.132,
505,success,Asia,AS,Hong Kong,HK,HCW,Central and Western District,Hong Kong,,00000,22.267,114.188,Asia/Hong_Kong,Microsoft Corporation,Microsoft Azure Cloud (eastasia),AS8075 Microsoft Corporation,MICROSOFT-CORP-MSN-AS-BLOCK,msnbot-40-77-195-83.search.msn.com,False,False,True,40.77.195.83,
506,success,Asia,AS,Iran,IR,23,Tehran,Tehran,,,35.6824,51.4158,Asia/Tehran,Iran Cell Service and Communication Company,IRANCELL,AS44244 Iran Cell Service and Communication Company,IranCell-AS,,False,False,False,5.116.235.3,
507,success,Asia,AS,Iran,IR,23,Tehran,Ṣāleḥīeh,,,35.5053,51.1914,Asia/Tehran,Information Technology Company,,AS58224 Iran Telecommunication Company PJS,TCI,,False,False,False,2.190.31.193,
508,success,North America,NA,United States,US,WA,Washington,Quincy,,98848,47.233,-119.852,America/Los_Angeles,Microsoft Corporation,Microsoft Azure Cloud (westus2),AS8075 Microsoft Corporation,MICROSOFT-CORP-MSN-AS-BLOCK,msnbot-207-46-13-121.search.msn.com,False,False,True,207.46.13.121,
509,success,Asia,AS,Iran,IR,25,Qom Province,Qom,,,34.6401,50.8764,Asia/Tehran,Mobile Communication Company of Iran,Mobile Communication Company,AS197207 Mobile Communication Company of Iran PLC,MCCI-AS,,True,False,False,91.251.240.25,
510,success,Europe,EU,Russia,RU,MOW,Moscow,Moscow,Tsentralnyy administrativnyy okrug,101194,55.7342,37.5859,Europe/Moscow,Yandex LLC,Yandex LLC,AS13238 YANDEX LLC,YANDEX,87-250-224-78.spider.yandex.com,False,False,False,87.250.224.78,
511,success,Europe,EU,France,FR,HDF,Hauts-de-France,Roubaix,,59100,50.6924,3.20113,Europe/Paris,OVH SAS,OVH,AS16276 OVH SAS,OVH,hydrogen318-ext2.ahrefs.net,False,False,True,54.36.149.62,
512,success,Europe,EU,Russia,RU,MOW,Moscow,Moscow,Tsentralnyy administrativnyy okrug,101194,55.7342,37.5859,Europe/Moscow,Yandex LLC,Yandex LLC,AS13238 YANDEX LLC,YANDEX,95-108-181-97.spider.yandex.com,False,False,False,95.108.181.97,
513,success,Europe,EU,France,FR,HDF,Hauts-de-France,Roubaix,,59100,50.6924,3.20113,Europe/Paris,OVH SAS,OVH,AS16276 OVH SAS,OVH,hydrogen282-ext2.ahrefs.net,False,False,True,54.36.149.26,
514,success,Asia,AS,Hong Kong,HK,HCW,Central and Western District,Hong Kong,,00000,22.267,114.188,Asia/Hong_Kong,Microsoft Corporation,Microsoft Azure Cloud (eastasia),AS8075 Microsoft Corporation,MICROSOFT-CORP-MSN-AS-BLOCK,msnbot-40-77-193-84.search.msn.com,False,False,True,40.77.193.84,
515,success,Asia,AS,Hong Kong,HK,HCW,Central and Western District,Hong Kong,,00000,22.267,114.188,Asia/Hong_Kong,Microsoft Corporation,Microsoft Azure Cloud (eastasia),AS8075 Microsoft Corporation,MICROSOFT-CORP-MSN-AS-BLOCK,msnbot-40-77-252-162.search.msn.com,False,False,True,40.77.252.162,
516,success,Europe,EU,United Kingdom,GB,SCT,Scotland,Edinburgh,,EH6,55.9521,-3.19648,Europe/London,OVH SAS,OVH Ltd,AS16276 OVH SAS,OVH,239.ip-54-37-16.eu,False,False,True,54.37.16.239,
517,success,Europe,EU,Germany,DE,HE,Hesse,Frankfurt am Main,,60313,50.1169,8.6837,Europe/Berlin,"DigitalOcean, LLC",Digital Ocean,"AS14061 DigitalOcean, LLC",DIGITALOCEAN-ASN,,False,True,True,46.101.197.229,
518,success,Europe,EU,France,FR,HDF,Hauts-de-France,Roubaix,,59100,50.6924,3.20113,Europe/Paris,OVH SAS,OVH,AS16276 OVH SAS,OVH,hydrogen264-ext2.ahrefs.net,False,False,True,54.36.149.8,
519,success,Europe,EU,France,FR,HDF,Hauts-de-France,Roubaix,,59100,50.6924,3.20113,Europe/Paris,OVH SAS,OVH,AS16276 OVH SAS,OVH,hydrogen330-ext2.ahrefs.net,False,False,True,54.36.149.74,
520,success,Asia,AS,Iran,IR,09,Razavi Khorasan,Mashhad,,,36.3006,59.5904,Asia/Tehran,Mashhad,,AS44244 Iran Cell Service and Communication Company,IranCell-AS,,True,False,False,5.126.83.232,
521,success,Europe,EU,France,FR,HDF,Hauts-de-France,Roubaix,,59100,50.6924,3.20113,Europe/Paris,OVH SAS,OVH,AS16276 OVH SAS,OVH,hydrogen175-ext2.ahrefs.net,False,False,True,54.36.148.175,
522,success,Asia,AS,Iran,IR,23,Tehran,Tehran,,,35.7607,51.4043,Asia/Tehran,Mobile Communication Company of Iran,Mobile Communication Company,AS197207 Mobile Communication Company of Iran PLC,MCCI-AS,,True,False,False,5.215.210.230,
523,success,Europe,EU,Germany,DE,SN,Saxony,Falkenstein,,08223,50.4777,12.3649,Europe/Berlin,Hetzner Online GmbH,Hetzner,AS24940 Hetzner Online GmbH,HETZNER-AS,static.99.119.76.144.clients.your-server.de,False,False,True,144.76.119.99,
524,success,Asia,AS,Iran,IR,23,Tehran,Tehran,,,35.6824,51.4158,Asia/Tehran,Iran Telecommunication Company PJS,Iran Telecommunication Company PJS,AS58224 Iran Telecommunication Company PJS,TCI,,False,False,False,176.65.181.114,
525,success,Asia,AS,Iran,IR,23,Tehran,Tehran,,,35.7607,51.4043,Asia/Tehran,Mobile Communication Company of Iran,Mobile Communication Company,AS197207 Mobile Communication Company of Iran PLC,MCCI-AS,,True,False,False,89.196.28.78,
526,success,North America,NA,United States,US,WA,Washington,Quincy,,98848,47.233,-119.852,America/Los_Angeles,Microsoft Corporation,Microsoft Azure Cloud (westus2),AS8075 Microsoft Corporation,MICROSOFT-CORP-MSN-AS-BLOCK,,False,False,True,40.77.189.181,
527,success,North America,NA,United States,US,WA,Washington,Quincy,,98848,47.233,-119.852,America/Los_Angeles,Microsoft Corporation,Microsoft Azure Cloud (westus2),AS8075 Microsoft Corporation,MICROSOFT-CORP-MSN-AS-BLOCK,,False,False,True,40.77.188.19,
528,success,North America,NA,United States,US,WA,Washington,Quincy,,98848,47.233,-119.852,America/Los_Angeles,Microsoft Corporation,Microsoft Azure Cloud (westus2),AS8075 Microsoft Corporation,MICROSOFT-CORP-MSN-AS-BLOCK,,False,False,True,40.77.189.73,
529,success,Europe,EU,France,FR,HDF,Hauts-de-France,Roubaix,,59100,50.6924,3.20113,Europe/Paris,OVH SAS,OVH,AS16276 OVH SAS,OVH,hydrogen210-ext2.ahrefs.net,False,False,True,54.36.148.210,
530,success,Europe,EU,France,FR,HDF,Hauts-de-France,Roubaix,,59100,50.6924,3.20113,Europe/Paris,OVH SAS,OVH,AS16276 OVH SAS,OVH,hydrogen225-ext2.ahrefs.net,False,False,True,54.36.148.225,
531,success,Asia,AS,Iran,IR,09,Razavi Khorasan,Mashhad,,,36.3006,59.5904,Asia/Tehran,Mashhad,,AS44244 Iran Cell Service and Communication Company,IranCell-AS,,True,False,False,5.125.206.3,
532,success,Asia,AS,Iran,IR,23,Tehran,Tehran,,,35.6824,51.4158,Asia/Tehran,Iran Cell Service and Communication Company,,AS44244 Iran Cell Service and Communication Company,IranCell-AS,,False,False,False,5.112.203.74,
533,success,Asia,AS,Hong Kong,HK,HCW,Central and Western District,Hong Kong,,00000,22.267,114.188,Asia/Hong_Kong,Microsoft Corporation,Microsoft Azure Cloud (eastasia),AS8075 Microsoft Corporation,MICROSOFT-CORP-MSN-AS-BLOCK,msnbot-40-77-193-218.search.msn.com,False,False,True,40.77.193.218,
534,success,Asia,AS,Iran,IR,08,Kerman,Kerman,,,30.2832,57.0788,Asia/Tehran,Mobile Communication Company of Iran,Mobile Communication Company,AS197207 Mobile Communication Company of Iran PLC,MCCI-AS,,True,False,False,91.251.221.120,
535,success,Europe,EU,France,FR,HDF,Hauts-de-France,Roubaix,,59100,50.6924,3.20113,Europe/Paris,OVH SAS,OVH,AS16276 OVH SAS,OVH,hydrogen067-ext2.ahrefs.net,False,False,True,54.36.148.67,
536,success,Europe,EU,France,FR,HDF,Hauts-de-France,Roubaix,,59100,50.6924,3.20113,Europe/Paris,OVH SAS,OVH,AS16276 OVH SAS,OVH,hydrogen124-ext2.ahrefs.net,False,False,True,54.36.148.124,
537,success,Europe,EU,France,FR,HDF,Hauts-de-France,Roubaix,,59100,50.6924,3.20113,Europe/Paris,OVH SAS,OVH,AS16276 OVH SAS,OVH,hydrogen111-ext2.ahrefs.net,False,False,True,54.36.148.111,
538,success,Europe,EU,France,FR,HDF,Hauts-de-France,Roubaix,,59100,50.6924,3.20113,Europe/Paris,OVH SAS,OVH,AS16276 OVH SAS,OVH,hydrogen350-ext2.ahrefs.net,False,False,True,54.36.149.94,
539,success,Europe,EU,France,FR,HDF,Hauts-de-France,Roubaix,,59100,50.6924,3.20113,Europe/Paris,OVH SAS,OVH,AS16276 OVH SAS,OVH,hydrogen283-ext2.ahrefs.net,False,False,True,54.36.149.27,
540,success,Asia,AS,Hong Kong,HK,HCW,Central and Western District,Hong Kong,,00000,22.267,114.188,Asia/Hong_Kong,Microsoft Corporation,Microsoft Azure Cloud (eastasia),AS8075 Microsoft Corporation,MICROSOFT-CORP-MSN-AS-BLOCK,msnbot-40-77-193-18.search.msn.com,False,False,True,40.77.193.18,
541,success,Asia,AS,China,CN,BJ,Beijing,Beijing,,100000,39.9042,116.407,Asia/Shanghai,China Unicom Beijing Province Network,,AS4808 China Unicom Beijing Province Network,CHINA169-BJ,baiduspider-123-125-71-54.crawl.baidu.com,False,False,False,123.125.71.54,
542,success,Asia,AS,Iran,IR,23,Tehran,Tehran,,,35.7607,51.4043,Asia/Tehran,Mobile Communication Company,LTE expansion,AS197207 Mobile Communication Company of Iran PLC,MCCI-AS,,True,False,False,5.218.57.233,
543,success,Asia,AS,Iran,IR,23,Tehran,Tehran,,,35.7264,51.4163,Asia/Tehran,NGS-ADSL users TEHRAN,,AS39501 NGSAS NedaGostarSaba,NGSAS-NedaGostarSaba,,False,False,False,188.159.55.74,
544,success,Asia,AS,Iran,IR,23,Tehran,Tehran,,,35.7607,51.4043,Asia/Tehran,Mobile Communication Company of Iran,Mobile Communication Company,AS197207 Mobile Communication Company of Iran PLC,MCCI-AS,,True,False,False,5.213.123.70,
545,success,Asia,AS,Iran,IR,23,Tehran,Tehran,,,35.6824,51.4158,Asia/Tehran,Iran Cell Service and Communication Company,,AS44244 Iran Cell Service and Communication Company,IranCell-AS,,True,False,False,5.112.105.38,
546,success,Europe,EU,France,FR,HDF,Hauts-de-France,Roubaix,,59100,50.6924,3.20113,Europe/Paris,OVH SAS,OVH,AS16276 OVH SAS,OVH,hydrogen115-ext2.ahrefs.net,False,False,True,54.36.148.115,
547,success,Asia,AS,Iran,IR,23,Tehran,Tehran,,,35.7219,51.3347,Asia/Tehran,tic,Telecommunication Company of Tehran,AS58224 Iran Telecommunication Company PJS,TCI,,False,False,False,89.33.100.18,
548,success,Asia,AS,Iran,IR,18,Bushehr Province,Bandar-e ‘Asalūyah,,,27.4738,52.6078,Asia/Tehran,Shiraz,,AS44244 Iran Cell Service and Communication Company,IranCell-AS,,True,False,False,5.120.42.87,
549,success,Europe,EU,France,FR,HDF,Hauts-de-France,Roubaix,,59100,50.6924,3.20113,Europe/Paris,OVH SAS,OVH,AS16276 OVH SAS,OVH,hydrogen128-ext2.ahrefs.net,False,False,True,54.36.148.128,
550,success,Asia,AS,Iran,IR,23,Tehran,Tehran,,,35.6824,51.4158,Asia/Tehran,Iran Cell Service and Communication Company,IRANCELL,AS44244 Iran Cell Service and Communication Company,IranCell-AS,,False,False,False,5.116.6.35,
551,success,Europe,EU,United Kingdom,GB,ENG,England,Maidenhead,,SL6 7BU,51.5298,-0.726955,Europe/London,IOMART,iomart Hosting Ltd,AS20860 IOMART CLOUD SERVICES LIMITED,IOMART-AS,,False,False,True,212.38.168.112,
552,success,Europe,EU,France,FR,HDF,Hauts-de-France,Roubaix,,59100,50.6924,3.20113,Europe/Paris,OVH SAS,OVH,AS16276 OVH SAS,OVH,hydrogen234-ext2.ahrefs.net,False,False,True,54.36.148.234,
553,success,Asia,AS,Iran,IR,23,Tehran,Tehran,,,35.6824,51.4158,Asia/Tehran,Mobile Communication Company of Iran,Mobile Communication Company,AS197207 Mobile Communication Company of Iran PLC,MCCI-AS,,True,False,False,5.217.49.106,
554,success,North America,NA,United States,US,CA,California,Mountain View,,94043,37.4225,-122.085,America/Los_Angeles,Google LLC,Google LLC,AS15169 Google LLC,GOOGLE,google-proxy-66-249-93-32.google.com,False,False,True,66.249.93.32,
555,success,Asia,AS,Iran,IR,03,East Azerbaijan Province,Tabriz,,,38.0838,46.2947,Asia/Tehran,Iran Cell Service and Communication Company,IRANCELL,AS44244 Iran Cell Service and Communication Company,IranCell-AS,,True,False,False,5.121.216.12,
556,success,Europe,EU,France,FR,HDF,Hauts-de-France,Roubaix,,59100,50.6924,3.20113,Europe/Paris,OVH SAS,OVH,AS16276 OVH SAS,OVH,hydrogen146-ext2.ahrefs.net,False,False,True,54.36.148.146,
557,success,North America,NA,United States,US,WA,Washington,Quincy,,98848,47.233,-119.852,America/Los_Angeles,Microsoft Corporation,Microsoft Azure Cloud (westus2),AS8075 Microsoft Corporation,MICROSOFT-CORP-MSN-AS-BLOCK,msnbot-157-55-39-28.search.msn.com,False,False,True,157.55.39.28,
558,success,Europe,EU,Finland,FI,18,Uusimaa,Helsinki,,00210,60.152,24.8876,Europe/Helsinki,Magna Capax Finland Oy,Magnacapax,AS203003 Magna Capax Finland Oy,magna-capax,this-is-hosted-by.pulsedmedia.com,False,False,False,185.148.3.141,
559,success,Asia,AS,Iran,IR,23,Tehran,Tehran,,,35.7607,51.4043,Asia/Tehran,Mobile Communication Company,VAS,AS197207 Mobile Communication Company of Iran PLC,MCCI-AS,,True,False,False,5.210.243.22,
560,success,Europe,EU,France,FR,HDF,Hauts-de-France,Roubaix,,59100,50.6924,3.20113,Europe/Paris,OVH SAS,OVH,AS16276 OVH SAS,OVH,hydrogen199-ext2.ahrefs.net,False,False,True,54.36.148.199,
561,success,Europe,EU,France,FR,HDF,Hauts-de-France,Roubaix,,59100,50.6924,3.20113,Europe/Paris,OVH SAS,OVH,AS16276 OVH SAS,OVH,staging.teractys.fr,False,False,True,5.196.79.49,
562,success,Europe,EU,France,FR,HDF,Hauts-de-France,Roubaix,,59100,50.6924,3.20113,Europe/Paris,OVH SAS,OVH,AS16276 OVH SAS,OVH,hydrogen320-ext2.ahrefs.net,False,False,True,54.36.149.64,
563,success,North America,NA,United States,US,CA,California,Mountain View,,94043,37.4225,-122.085,America/Los_Angeles,Google LLC,Google LLC,AS15169 Google LLC,GOOGLE,crawl-66-249-66-12.googlebot.com,False,False,True,66.249.66.12,
564,success,Europe,EU,France,FR,HDF,Hauts-de-France,Roubaix,,59100,50.6924,3.20113,Europe/Paris,OVH SAS,OVH,AS16276 OVH SAS,OVH,hydrogen053-ext2.ahrefs.net,False,False,True,54.36.148.53,
565,success,Asia,AS,Iran,IR,23,Tehran,Tehran,,,35.7331,51.4422,Asia/Tehran,Afranet,Afranet,AS25184 Afranet,AFRANET,,False,False,True,79.175.141.18,
566,success,Europe,EU,France,FR,HDF,Hauts-de-France,Roubaix,,59100,50.6924,3.20113,Europe/Paris,OVH SAS,OVH,AS16276 OVH SAS,OVH,hydrogen292-ext2.ahrefs.net,False,False,True,54.36.149.36,
567,success,Europe,EU,France,FR,HDF,Hauts-de-France,Roubaix,,59100,50.6924,3.20113,Europe/Paris,OVH SAS,OVH,AS16276 OVH SAS,OVH,hydrogen223-ext2.ahrefs.net,False,False,True,54.36.148.223,
568,success,Europe,EU,France,FR,HDF,Hauts-de-France,Roubaix,,59100,50.6924,3.20113,Europe/Paris,OVH SAS,OVH,AS16276 OVH SAS,OVH,hydrogen256-ext2.ahrefs.net,False,False,True,54.36.149.0,
569,success,Europe,EU,France,FR,HDF,Hauts-de-France,Roubaix,,59100,50.6924,3.20113,Europe/Paris,OVH SAS,OVH,AS16276 OVH SAS,OVH,hydrogen092-ext2.ahrefs.net,False,False,True,54.36.148.92,
570,success,Asia,AS,Iran,IR,23,Tehran,Tehran,,,35.6824,51.4158,Asia/Tehran,Iran Cell Service and Communication Company,IRANCELL,AS44244 Iran Cell Service and Communication Company,IranCell-AS,,False,False,False,5.116.32.83,
571,success,Europe,EU,France,FR,HDF,Hauts-de-France,Roubaix,,59100,50.6924,3.20113,Europe/Paris,OVH SAS,OVH,AS16276 OVH SAS,OVH,hydrogen335-ext2.ahrefs.net,False,False,True,54.36.149.79,
572,success,Europe,EU,France,FR,HDF,Hauts-de-France,Roubaix,,59100,50.6924,3.20113,Europe/Paris,OVH SAS,OVH,AS16276 OVH SAS,OVH,hydrogen328-ext2.ahrefs.net,False,False,True,54.36.149.72,
573,success,North America,NA,United States,US,WA,Washington,Quincy,,98848,47.233,-119.852,America/Los_Angeles,Microsoft Corporation,Microsoft Azure Cloud (westus2),AS8075 Microsoft Corporation,MICROSOFT-CORP-MSN-AS-BLOCK,msnbot-207-46-13-157.search.msn.com,False,False,True,207.46.13.157,
574,success,Europe,EU,France,FR,HDF,Hauts-de-France,Roubaix,,59100,50.6924,3.20113,Europe/Paris,OVH SAS,OVH,AS16276 OVH SAS,OVH,hydrogen193-ext2.ahrefs.net,False,False,True,54.36.148.193,
575,success,Europe,EU,France,FR,HDF,Hauts-de-France,Roubaix,,59100,50.6924,3.20113,Europe/Paris,OVH SAS,OVH,AS16276 OVH SAS,OVH,hydrogen190-ext2.ahrefs.net,False,False,True,54.36.148.190,
576,success,Europe,EU,France,FR,HDF,Hauts-de-France,Roubaix,,59100,50.6924,3.20113,Europe/Paris,OVH SAS,OVH,AS16276 OVH SAS,OVH,hydrogen203-ext2.ahrefs.net,False,False,True,54.36.148.203,
577,success,Europe,EU,France,FR,HDF,Hauts-de-France,Roubaix,,59100,50.6924,3.20113,Europe/Paris,OVH SAS,OVH,AS16276 OVH SAS,OVH,hydrogen041-ext2.ahrefs.net,False,False,True,54.36.148.41,
578,success,Europe,EU,Finland,FI,18,Uusimaa,Helsinki,,00201,60.1719,24.9347,Europe/Helsinki,Hetzner Online GmbH,Hetzner Online GmbH,AS24940 Hetzner Online GmbH,HETZNER-AS,static.239.25.27.37.clients.your-server.de,False,False,True,37.27.25.239,
579,success,Asia,AS,Iran,IR,02,Māzandarān,Nowshahr,,,36.6562,51.5068,Asia/Tehran,Mobile Communication Company,New Service 4G,AS197207 Mobile Communication Company of Iran PLC,MCCI-AS,,True,False,False,86.55.71.234,
580,success,Asia,AS,Iran,IR,23,Tehran,Tehran,,,35.7543,51.4205,Asia/Tehran,Information Technology Company,,AS58224 Iran Telecommunication Company PJS,TCI,,False,False,False,2.178.17.203,
581,success,Europe,EU,Russia,RU,SVE,Sverdlovsk Oblast,Yekaterinburg,,620000,56.8431,60.6454,Asia/Yekaterinburg,PJSC Rostelecom,Dynamic distribution IPs for broadband services,AS12389 PJSC Rostelecom,ROSTELECOM-AS,,False,False,False,178.47.232.191,
582,success,Asia,AS,Iran,IR,23,Tehran,Tehran,,,35.6824,51.4158,Asia/Tehran,Iran Cell Service and Communication Company,,AS44244 Iran Cell Service and Communication Company,IranCell-AS,,True,False,False,5.112.69.225,
583,success,Europe,EU,Russia,RU,MOW,Moscow,Moscow,,109507,55.7487,37.6187,Europe/Moscow,Mobile TeleSystems,Mobile subscribers pool,AS8359 MTS PJSC,MTS,122.mtsnet.ru,True,False,False,213.87.144.122,
584,success,Europe,EU,France,FR,HDF,Hauts-de-France,Roubaix,,59100,50.6924,3.20113,Europe/Paris,OVH SAS,OVH,AS16276 OVH SAS,OVH,hydrogen064-ext2.ahrefs.net,False,False,True,54.36.148.64,
585,success,North America,NA,United States,US,MN,Minnesota,Apple Valley,,55124,44.7518,-93.2407,America/Chicago,Madgenius.com,Madgenius.com,AS55154 Madgenius.com,MADGEN-01,,False,False,False,192.119.167.210,
586,success,Europe,EU,France,FR,HDF,Hauts-de-France,Roubaix,,59100,50.6924,3.20113,Europe/Paris,OVH SAS,OVH,AS16276 OVH SAS,OVH,hydrogen346-ext2.ahrefs.net,False,False,True,54.36.149.90,
587,success,Asia,AS,Iran,IR,23,Tehran,Tehran,,,35.7219,51.3347,Asia/Tehran,Iran Telecommunication Company PJS,Telecommunication Company,AS58224 Iran Telecommunication Company PJS,TCI,,False,False,False,2.179.102.240,
588,success,Europe,EU,France,FR,HDF,Hauts-de-France,Roubaix,,59100,50.6924,3.20113,Europe/Paris,OVH SAS,OVH,AS16276 OVH SAS,OVH,hydrogen195-ext2.ahrefs.net,False,False,True,54.36.148.195,
589,success,Europe,EU,France,FR,HDF,Hauts-de-France,Roubaix,,59100,50.6924,3.20113,Europe/Paris,OVH SAS,OVH,AS16276 OVH SAS,OVH,hydrogen075-ext2.ahrefs.net,False,False,True,54.36.148.75,
590,success,Europe,EU,France,FR,HDF,Hauts-de-France,Roubaix,,59100,50.6924,3.20113,Europe/Paris,OVH SAS,OVH,AS16276 OVH SAS,OVH,hydrogen356-ext2.ahrefs.net,False,False,True,54.36.149.100,
591,success,North America,NA,United States,US,MA,Massachusetts,Newton,,02459,42.3291,-71.1815,America/New_York,Verizon Communications,"MCI Communications Services, Inc. d/b/a Verizon Business",AS701 Verizon Business,UUNET,pool-108-26-219-129.bstnma.fios.verizon.net,False,False,False,108.26.219.129,
592,success,Europe,EU,France,FR,HDF,Hauts-de-France,Roubaix,,59100,50.6924,3.20113,Europe/Paris,OVH SAS,OVH,AS16276 OVH SAS,OVH,hydrogen246-ext2.ahrefs.net,False,False,True,54.36.148.246,
593,success,Asia,AS,Iran,IR,23,Tehran,Tehran,,,35.6824,51.4158,Asia/Tehran,Mobile Communication Company of Iran,Mobile Communication Company,AS197207 Mobile Communication Company of Iran PLC,MCCI-AS,,True,False,False,89.199.115.156,
594,success,Europe,EU,France,FR,HDF,Hauts-de-France,Roubaix,,59100,50.6924,3.20113,Europe/Paris,OVH SAS,OVH,AS16276 OVH SAS,OVH,hydrogen301-ext2.ahrefs.net,False,False,True,54.36.149.45,
595,success,Asia,AS,Iran,IR,23,Tehran,Tehran,,,35.7219,51.3347,Asia/Tehran,Esfahan,,AS44244 Iran Cell Service and Communication Company,IranCell-AS,,False,False,False,5.123.238.38,
596,success,Asia,AS,Iran,IR,23,Tehran,Tehran,,,35.7219,51.3347,Asia/Tehran,Esfahan,,AS44244 Iran Cell Service and Communication Company,IranCell-AS,,True,False,False,5.124.121.232,
597,success,North America,NA,United States,US,WA,Washington,Quincy,,98848,47.233,-119.852,America/Los_Angeles,Microsoft Corporation,Microsoft Azure Cloud (westus2),AS8075 Microsoft Corporation,MICROSOFT-CORP-MSN-AS-BLOCK,msnbot-207-46-13-9.search.msn.com,False,False,True,207.46.13.9,
598,success,Asia,AS,Iran,IR,03,East Azerbaijan Province,Tabriz,,,38.0838,46.2947,Asia/Tehran,Iran Cell Service and Communication Company,IRANCELL,AS44244 Iran Cell Service and Communication Company,IranCell-AS,,True,False,False,5.121.95.206,
599,success,Europe,EU,France,FR,HDF,Hauts-de-France,Roubaix,,59100,50.6924,3.20113,Europe/Paris,OVH SAS,OVH,AS16276 OVH SAS,OVH,hydrogen275-ext2.ahrefs.net,False,False,True,54.36.149.19,
600,success,Asia,AS,Iran,IR,23,Tehran,Tehran,,,35.7607,51.4043,Asia/Tehran,Mobile Communication Company,VAS,AS197207 Mobile Communication Company of Iran PLC,MCCI-AS,,True,False,False,5.210.49.94,
601,success,Asia,AS,Iran,IR,07,Fars,Shiraz,,,29.6106,52.5245,Asia/Tehran,Iran Cell Service and Communication Company,IRANCELL,AS44244 Iran Cell Service and Communication Company,IranCell-AS,,True,False,False,5.119.119.13,
602,success,Europe,EU,France,FR,HDF,Hauts-de-France,Roubaix,,59100,50.6924,3.20113,Europe/Paris,OVH SAS,OVH,AS16276 OVH SAS,OVH,hydrogen094-ext2.ahrefs.net,False,False,True,54.36.148.94,
603,success,Asia,AS,Iran,IR,23,Tehran,Tehran,,,35.7607,51.4043,Asia/Tehran,Mobile Communication Company of Iran,Mobile Communication Company,AS197207 Mobile Communication Company of Iran PLC,MCCI-AS,,True,False,False,5.214.191.223,
604,success,North America,NA,United States,US,CA,California,Mountain View,,94043,37.4225,-122.085,America/Los_Angeles,Google LLC,Google LLC,AS15169 Google LLC,GOOGLE,crawl-66-249-66-200.googlebot.com,False,False,True,66.249.66.200,
605,success,Asia,AS,Iran,IR,07,Ostān-e Tehrān,Tehran,,,35.6194,51.4776,Asia/Tehran,Mobile Communication Company of Iran PLC,,AS197207 Mobile Communication Company of Iran PLC,MCCI-AS,,False,False,False,204.18.31.78,
606,success,Asia,AS,China,CN,BJ,Beijing,Beijing,,100000,39.9042,116.407,Asia/Shanghai,"IDC, China Telecommunications Corporation",,"AS23724 IDC, China Telecommunications Corporation",CHINANET-IDC-BJ-AP,baiduspider-220-181-108-180.crawl.baidu.com,False,False,False,220.181.108.180,
607,success,Asia,AS,China,CN,BJ,Beijing,Beijing,,100000,39.9042,116.407,Asia/Shanghai,"IDC, China Telecommunications Corporation",,"AS23724 IDC, China Telecommunications Corporation",CHINANET-IDC-BJ-AP,baiduspider-220-181-108-116.crawl.baidu.com,False,False,False,220.181.108.116,
608,success,Europe,EU,France,FR,HDF,Hauts-de-France,Roubaix,,59100,50.6924,3.20113,Europe/Paris,OVH SAS,OVH,AS16276 OVH SAS,OVH,hydrogen337-ext2.ahrefs.net,False,False,True,54.36.149.81,
609,success,Asia,AS,Iran,IR,22,Hormozgan,Bandar Abbas,,,27.1832,56.2666,Asia/Tehran,TCI(Babdar Abbas),Telecommunication Company of Hormozgan,AS58224 Iran Telecommunication Company PJS,TCI,,False,False,False,5.233.155.15,
610,success,Asia,AS,Hong Kong,HK,HWC,Wan Chai,Wan Chai,,96521,22.2782,114.176,Asia/Hong_Kong,Telstra International Limited,Global Communication Network Limited,AS4637 Telstra Global,ASN-TELSTRA-GLOBAL,,False,False,False,31.58.174.131,
611,success,Asia,AS,Iran,IR,23,Tehran,Tehran,,,35.7607,51.4043,Asia/Tehran,Mobile Communication Company of Iran,Mobile Communication Company,AS197207 Mobile Communication Company of Iran PLC,MCCI-AS,,True,False,False,5.208.22.162,
612,success,Asia,AS,Iran,IR,23,Tehran,Tehran,,,35.6824,51.4158,Asia/Tehran,MCCI,Mcci,,,,False,False,False,188.229.125.187,
613,success,Europe,EU,United Kingdom,GB,ENG,England,Cambridge,,CB1,52.1932,0.1426,Europe/London,Sky UK Limited,Sky Broadband,AS5607 Sky UK Limited,BSKYB-BROADBAND-AS,,False,False,False,2.121.205.40,
614,success,Asia,AS,Iran,IR,09,Razavi Khorasan,Mashhad,,,36.3006,59.5904,Asia/Tehran,IRANCELL,,AS44244 Iran Cell Service and Communication Company,IranCell-AS,,True,False,False,5.126.78.24,
615,success,Asia,AS,Iran,IR,10,Isfahan,Isfahan,,,32.6524,51.6687,Asia/Tehran,TCE,,AS58224 Iran Telecommunication Company PJS,TCI,,False,False,False,5.219.107.88,
616,success,Europe,EU,France,FR,HDF,Hauts-de-France,Roubaix,,59100,50.6924,3.20113,Europe/Paris,OVH SAS,OVH,AS16276 OVH SAS,OVH,hydrogen208-ext2.ahrefs.net,False,False,True,54.36.148.208,
617,success,Asia,AS,Iran,IR,23,Tehran,Tehran,,,35.6944,51.4215,Asia/Tehran,SHATEL Network,Aria Shatel PJSC,AS34369 Aria Shatel PJSC,AS-SHATELMOBILE,37-202-145-184.shatel.ir,True,False,False,37.202.145.184,
618,success,Europe,EU,France,FR,HDF,Hauts-de-France,Roubaix,,59100,50.6924,3.20113,Europe/Paris,OVH SAS,OVH,AS16276 OVH SAS,OVH,hydrogen316-ext2.ahrefs.net,False,False,True,54.36.149.60,
619,success,Europe,EU,France,FR,HDF,Hauts-de-France,Roubaix,,59100,50.6924,3.20113,Europe/Paris,OVH SAS,OVH,AS16276 OVH SAS,OVH,hydrogen030-ext2.ahrefs.net,False,False,True,54.36.148.30,
620,success,Asia,AS,Iran,IR,23,Tehran,Tehran,,,35.7607,51.4043,Asia/Tehran,Mobile Communication Company of Iran,Mobile Communication Company,AS197207 Mobile Communication Company of Iran PLC,MCCI-AS,,True,False,False,5.209.29.121,
621,success,North America,NA,United States,US,VA,Virginia,Ashburn,,20149,39.0438,-77.4874,America/New_York,"Amazon.com, Inc.",AWS EC2 (us-east-1),"AS14618 Amazon.com, Inc.",AMAZON-AES,ec2-54-205-25-209.compute-1.amazonaws.com,False,False,True,54.205.25.209,
622,success,Asia,AS,Iran,IR,23,Tehran,Tehran,,,35.7746,51.4136,Asia/Tehran,Rightel Communication Service Company PJS,Rightel Communication Service Company PJS,"AS57218 ""Rightel Communication Service Company PJS""",RighTel,,True,False,False,89.47.77.188,
623,success,Europe,EU,France,FR,HDF,Hauts-de-France,Roubaix,,59100,50.6924,3.20113,Europe/Paris,OVH SAS,OVH,AS16276 OVH SAS,OVH,hydrogen178-ext2.ahrefs.net,False,False,True,54.36.148.178,
624,success,North America,NA,United States,US,WA,Washington,Quincy,,98848,47.233,-119.852,America/Los_Angeles,Microsoft Corporation,Microsoft Azure Cloud (westus2),AS8075 Microsoft Corporation,MICROSOFT-CORP-MSN-AS-BLOCK,,False,False,True,40.77.188.211,
625,success,North America,NA,United States,US,WA,Washington,Quincy,,98848,47.233,-119.852,America/Los_Angeles,Microsoft Corporation,Microsoft Azure Cloud (westus2),AS8075 Microsoft Corporation,MICROSOFT-CORP-MSN-AS-BLOCK,,False,False,True,40.77.188.253,
626,success,North America,NA,United States,US,VA,Virginia,Arlington,Crystal Spring Knolls,22202,38.8626,-77.0508,America/New_York,DOJ-USMS,DOJ-USMS,,,,False,False,False,198.52.38.67,
627,success,Asia,AS,Iran,IR,23,Tehran,Tehran,,,35.7746,51.4136,Asia/Tehran,Rightel Communication Service Company PJS,Rightel Communication Service Company PJS,"AS57218 ""Rightel Communication Service Company PJS""",RighTel,,True,False,False,77.81.204.54,
628,success,Asia,AS,Iran,IR,09,Razavi Khorasan,Mashhad,,,36.3006,59.5904,Asia/Tehran,Mashhad,,AS44244 Iran Cell Service and Communication Company,IranCell-AS,,True,False,False,5.126.184.248,
629,success,Asia,AS,Iran,IR,23,Tehran,Tehran,,,35.6824,51.4158,Asia/Tehran,RighTel Communication Service Company PJS,,,,,True,False,False,5.73.68.235,
630,success,North America,NA,United States,US,VA,Virginia,Ashburn,,20149,39.0438,-77.4874,America/New_York,"Amazon.com, Inc.",AWS EC2 (us-east-1),"AS14618 Amazon.com, Inc.",AMAZON-AES,ec2-34-234-221-103.compute-1.amazonaws.com,False,False,True,34.234.221.103,
631,success,North America,NA,United States,US,NY,New York,Buffalo,,14205,42.8864,-78.8784,America/New_York,DedFiberCo,DedFiberCo,AS16628 DedFiberCo,DEDICATED-FIBER-COMMUNICATIONS,104-237-226-173-host.colocrossing.com,False,True,True,104.237.226.173,
632,success,North America,NA,United States,US,WA,Washington,Quincy,,98848,47.233,-119.852,America/Los_Angeles,Microsoft Corporation,Microsoft Azure Cloud (westus2),AS8075 Microsoft Corporation,MICROSOFT-CORP-MSN-AS-BLOCK,msnbot-207-46-13-16.search.msn.com,False,False,True,207.46.13.16,
633,success,Asia,AS,Hong Kong,HK,HCW,Central and Western District,Hong Kong,,00000,22.267,114.188,Asia/Hong_Kong,Microsoft Corporation,Microsoft Azure Cloud (eastasia),AS8075 Microsoft Corporation,MICROSOFT-CORP-MSN-AS-BLOCK,msnbot-40-77-194-230.search.msn.com,False,False,True,40.77.194.230,
634,success,Asia,AS,Hong Kong,HK,HCW,Central and Western District,Hong Kong,,00000,22.267,114.188,Asia/Hong_Kong,Microsoft Corporation,Microsoft Azure Cloud (eastasia),AS8075 Microsoft Corporation,MICROSOFT-CORP-MSN-AS-BLOCK,msnbot-40-77-192-247.search.msn.com,False,False,True,40.77.192.247,
635,success,Europe,EU,France,FR,HDF,Hauts-de-France,Roubaix,,59100,50.6924,3.20113,Europe/Paris,OVH SAS,OVH,AS16276 OVH SAS,OVH,hydrogen295-ext2.ahrefs.net,False,False,True,54.36.149.39,
636,success,Asia,AS,Hong Kong,HK,HCW,Central and Western District,Hong Kong,,00000,22.267,114.188,Asia/Hong_Kong,Microsoft Corporation,Microsoft Azure Cloud (eastasia),AS8075 Microsoft Corporation,MICROSOFT-CORP-MSN-AS-BLOCK,msnbot-40-77-195-16.search.msn.com,False,False,True,40.77.195.16,
637,success,Asia,AS,Hong Kong,HK,HCW,Central and Western District,Hong Kong,,00000,22.267,114.188,Asia/Hong_Kong,Microsoft Corporation,Microsoft Azure Cloud (eastasia),AS8075 Microsoft Corporation,MICROSOFT-CORP-MSN-AS-BLOCK,msnbot-40-77-193-103.search.msn.com,False,False,True,40.77.193.103,
638,success,Asia,AS,Hong Kong,HK,HCW,Central and Western District,Hong Kong,,00000,22.267,114.188,Asia/Hong_Kong,Microsoft Corporation,Microsoft Azure Cloud (eastasia),AS8075 Microsoft Corporation,MICROSOFT-CORP-MSN-AS-BLOCK,msnbot-40-77-193-230.search.msn.com,False,False,True,40.77.193.230,
639,success,Asia,AS,Hong Kong,HK,HCW,Central and Western District,Hong Kong,,00000,22.267,114.188,Asia/Hong_Kong,Microsoft Corporation,Microsoft Azure Cloud (eastasia),AS8075 Microsoft Corporation,MICROSOFT-CORP-MSN-AS-BLOCK,msnbot-40-77-195-211.search.msn.com,False,False,True,40.77.195.211,
640,success,Asia,AS,Hong Kong,HK,HCW,Central and Western District,Hong Kong,,00000,22.267,114.188,Asia/Hong_Kong,Microsoft Corporation,Microsoft Azure Cloud (eastasia),AS8075 Microsoft Corporation,MICROSOFT-CORP-MSN-AS-BLOCK,msnbot-40-77-192-107.search.msn.com,False,False,True,40.77.192.107,
641,success,Asia,AS,Hong Kong,HK,HCW,Central and Western District,Hong Kong,,00000,22.267,114.188,Asia/Hong_Kong,Microsoft Corporation,Microsoft Azure Cloud (eastasia),AS8075 Microsoft Corporation,MICROSOFT-CORP-MSN-AS-BLOCK,msnbot-40-77-195-130.search.msn.com,False,False,True,40.77.195.130,
642,success,Asia,AS,Hong Kong,HK,HCW,Central and Western District,Hong Kong,,00000,22.267,114.188,Asia/Hong_Kong,Microsoft Corporation,Microsoft Azure Cloud (eastasia),AS8075 Microsoft Corporation,MICROSOFT-CORP-MSN-AS-BLOCK,msnbot-40-77-252-152.search.msn.com,False,False,True,40.77.252.152,
643,success,North America,NA,United States,US,CA,California,San Jose,,95141,37.3388,-121.8916,America/Los_Angeles,"ZSCALER, INC.","Zscaler, Inc.","AS22616 ZSCALER, INC.",ZSCALER-SJC1,,False,False,False,104.129.192.119,
644,success,Asia,AS,Iran,IR,23,Tehran,Tehran,,,35.7219,51.3347,Asia/Tehran,Pishgaman Toseeh Ertebatat Company (Private Joint Stock),PTE,AS49100 Pishgaman Toseeh Ertebatat Company (Private Joint Stock),IR-THR-PTE,,False,False,False,109.125.174.101,
645,success,Europe,EU,Russia,RU,MOW,Moscow,Moscow,Tsentralnyy administrativnyy okrug,101194,55.7342,37.5859,Europe/Moscow,Yandex LLC,Yandex LLC,AS13238 YANDEX LLC,YANDEX,213-180-203-60.spider.yandex.com,False,False,False,213.180.203.60,
646,success,Asia,AS,Iran,IR,04,West Azerbaijan Province,Piranshahr,,,36.5204,45.2598,Asia/Tehran,Telecommunication Company of Azarbayejan Gharbi,Telecommunication Company of Azarbayejan Gharbi,,,,False,False,False,5.234.128.240,
647,success,Asia,AS,Iran,IR,09,Razavi Khorasan,Mashhad,,,36.3006,59.5904,Asia/Tehran,IRANCELL,,AS44244 Iran Cell Service and Communication Company,IranCell-AS,,False,False,False,5.126.156.206,
648,success,Europe,EU,Spain,ES,MD,Madrid,Madrid,,28070,40.4167,-3.70329,Europe/Madrid,"Level 3 Communications, Inc.",Code ES2,"AS3356 Level 3 Parent, LLC",LEVEL3,,False,False,False,104.249.46.43,
649,success,Europe,EU,Spain,ES,MD,Madrid,Madrid,,28070,40.4167,-3.70329,Europe/Madrid,"Level 3 Communications, Inc.",Code ES2,"AS3356 Level 3 Parent, LLC",LEVEL3,,False,False,False,104.249.46.45,
650,success,Asia,AS,Iran,IR,23,Tehran,Tehran,,,35.7746,51.4136,Asia/Tehran,Rightel Communication Service Company PJS,Rightel Communication Service Company PJS,"AS57218 ""Rightel Communication Service Company PJS""",RighTel,,True,False,False,89.34.138.6,
651,success,Europe,EU,France,FR,HDF,Hauts-de-France,Roubaix,,59100,50.6924,3.20113,Europe/Paris,OVH SAS,OVH,AS16276 OVH SAS,OVH,hydrogen265-ext2.ahrefs.net,False,False,True,54.36.149.9,
652,success,Asia,AS,Iran,IR,23,Tehran,Tehran,,,35.6824,51.4158,Asia/Tehran,Mobile Communication Company of Iran PLC,Mcci,AS197207 Mobile Communication Company of Iran PLC,MCCI-AS,,True,False,False,188.229.51.254,
653,success,Europe,EU,Spain,ES,MD,Madrid,Madrid,,28070,40.4167,-3.70329,Europe/Madrid,"Level 3 Communications, Inc.",Code ES2,"AS3356 Level 3 Parent, LLC",LEVEL3,,False,False,False,104.249.46.34,
654,success,Asia,AS,Iran,IR,23,Tehran,Tehran,,,35.7607,51.4043,Asia/Tehran,Mobile Communication Company of Iran,Mobile Communication Company,AS197207 Mobile Communication Company of Iran PLC,MCCI-AS,,True,False,False,5.211.233.173,
655,success,Asia,AS,Iran,IR,23,Tehran,Keshār-e ‘Olyā,,,35.814,51.2332,Asia/Tehran,Mobile Communication Company of Iran,Mobile Communication Company,AS197207 Mobile Communication Company of Iran PLC,MCCI-AS,,True,False,False,5.208.40.62,
656,success,Asia,AS,Iran,IR,23,Tehran,Tehran,,,35.6824,51.4158,Asia/Tehran,Iran Telecommunication Company PJS,Iran Telecommunication Company PJS,AS58224 Iran Telecommunication Company PJS,TCI,,False,False,False,188.214.98.140,
657,success,North America,NA,United States,US,WA,Washington,Quincy,,98848,47.233,-119.852,America/Los_Angeles,Microsoft Corporation,Microsoft Azure Cloud (westus2),AS8075 Microsoft Corporation,MICROSOFT-CORP-MSN-AS-BLOCK,,False,False,True,40.77.189.223,
658,success,Asia,AS,Iran,IR,23,Tehran,Tehran,,,35.7607,51.4043,Asia/Tehran,Mobile Communication Company of Iran,Mobile Communication Company,AS197207 Mobile Communication Company of Iran PLC,MCCI-AS,,True,False,False,89.198.162.19,
659,success,Africa,AF,Morocco,MA,06,Casablanca-Settat,El Jadida,,,33.2558,-8.5015,Africa/Casablanca,Office National des Postes et Telecommunications ONPT (Maroc Telecom) / IAM,Office National des Postes et Telecommunications ONPT (Maroc Telecom) / IAM,AS36903 Office National des Postes et Telecommunications ONPT (Maroc Telecom) / IAM,MT-MPLS,,True,False,False,196.64.216.172,
660,success,Asia,AS,Iran,IR,07,Fars,Shiraz,,,29.6106,52.5245,Asia/Tehran,Shiraz,,AS44244 Iran Cell Service and Communication Company,IranCell-AS,,False,False,False,5.119.250.28,
661,success,South America,SA,Venezuela,VE,A,Distrito Federal,Caracas,,,10.4873,-66.8738,America/Caracas,"CANTV Servicios, Venezuela","CANTV Servicios, Venezuela","AS8048 CANTV Servicios, Venezuela","CANTV Servicios, Venezuela",186-88-57-87-bto-00-p64.cantv.net,False,False,False,186.88.57.87,
662,success,Europe,EU,Netherlands,NL,NH,North Holland,Amsterdam,,1098,52.352,4.9392,Europe/Amsterdam,"DigitalOcean, LLC","DigitalOcean, LLC","AS14061 DigitalOcean, LLC",DIGITALOCEAN-ASN,32red-casino-uk.com,False,False,True,104.248.82.241,
663,success,Europe,EU,France,FR,HDF,Hauts-de-France,Roubaix,,59100,50.6924,3.20113,Europe/Paris,OVH SAS,OVH,AS16276 OVH SAS,OVH,hydrogen201-ext2.ahrefs.net,False,False,True,54.36.148.201,
664,success,Asia,AS,Iran,IR,23,Tehran,Tehran,,,35.7543,51.4205,Asia/Tehran,Information Technology Company,,AS58224 Iran Telecommunication Company PJS,TCI,,False,False,False,2.178.20.160,
665,success,Europe,EU,France,FR,HDF,Hauts-de-France,Roubaix,,59100,50.6924,3.20113,Europe/Paris,OVH SAS,OVH,AS16276 OVH SAS,OVH,hydrogen054-ext2.ahrefs.net,False,False,True,54.36.148.54,
666,success,Asia,AS,Iran,IR,23,Tehran,Tehran,,,35.7219,51.3347,Asia/Tehran,Esfahan,,AS44244 Iran Cell Service and Communication Company,IranCell-AS,,True,False,False,5.123.12.38,
667,success,Europe,EU,France,FR,HDF,Hauts-de-France,Roubaix,,59100,50.6924,3.20113,Europe/Paris,OVH SAS,OVH,AS16276 OVH SAS,OVH,hydrogen034-ext2.ahrefs.net,False,False,True,54.36.148.34,
668,success,Asia,AS,Uzbekistan,UZ,TK,Tashkent,Tashkent,,,41.2615,69.2177,Asia/Tashkent,"""Uzbektelekom"" Joint Stock Company",Uztelecom,AS8193 Uzbektelekom Joint Stock Company,BRM-AS,42.64.uzpak.uz,False,False,False,213.230.101.42,
669,success,Asia,AS,Iran,IR,23,Tehran,Tehran,,,35.7219,51.3347,Asia/Tehran,IRANCELL,,AS44244 Iran Cell Service and Communication Company,IranCell-AS,,False,False,False,5.127.43.125,
670,success,Europe,EU,France,FR,HDF,Hauts-de-France,Roubaix,,59100,50.6924,3.20113,Europe/Paris,OVH SAS,OVH,AS16276 OVH SAS,OVH,hydrogen165-ext2.ahrefs.net,False,False,True,54.36.148.165,
671,success,Asia,AS,Iran,IR,09,Razavi Khorasan,Mashhad,,,36.3006,59.5904,Asia/Tehran,Mashhad,,AS44244 Iran Cell Service and Communication Company,IranCell-AS,,True,False,False,5.126.2.54,
672,success,North America,NA,United States,US,NJ,New Jersey,North Bergen,,07047,40.7964,-74.0203,America/New_York,"DigitalOcean, LLC",Digital Ocean,"AS14061 DigitalOcean, LLC",DIGITALOCEAN-ASN,,False,False,True,67.205.148.31,
673,success,Europe,EU,France,FR,HDF,Hauts-de-France,Roubaix,,59100,50.6924,3.20113,Europe/Paris,OVH SAS,OVH,AS16276 OVH SAS,OVH,hydrogen120-ext2.ahrefs.net,False,False,True,54.36.148.120,
674,success,Europe,EU,France,FR,HDF,Hauts-de-France,Roubaix,,59100,50.6924,3.20113,Europe/Paris,OVH SAS,OVH,AS16276 OVH SAS,OVH,hydrogen166-ext2.ahrefs.net,False,False,True,54.36.148.166,
675,success,Europe,EU,Finland,FI,18,Uusimaa,Helsinki,,00201,60.1719,24.9347,Europe/Helsinki,Hetzner Online GmbH,Hetzner Online GmbH,AS24940 Hetzner Online GmbH,HETZNER-AS,static.60.175.62.46.clients.your-server.de,False,False,True,46.62.175.60,
676,success,Europe,EU,France,FR,HDF,Hauts-de-France,Roubaix,,59100,50.6924,3.20113,Europe/Paris,OVH SAS,OVH,AS16276 OVH SAS,OVH,hydrogen045-ext2.ahrefs.net,False,False,True,54.36.148.45,
677,success,Asia,AS,Iran,IR,23,Tehran,Tehran,,,35.7607,51.4043,Asia/Tehran,Mobile Communication Company of Iran,Mobile Communication Company,AS197207 Mobile Communication Company of Iran PLC,MCCI-AS,,True,False,False,5.209.163.94,
678,success,North America,NA,United States,US,NY,New York,New York,,10118,40.7126,-74.0066,America/New_York,Datacamp Limited,Datacamp Limited,AS60068 Datacamp Limited,CDN77,unn-169-181-195-48.datapacket.com,False,False,True,195.181.169.48,
679,success,Asia,AS,China,CN,HE,Hebei,Shijiazhuang,,050000,38.036,114.47,Asia/Shanghai,Chinanet,Chinanet HE,AS4134 CHINANET-BACKBONE,CHINANET-BACKBONE,,False,False,False,27.190.110.64,
680,success,Asia,AS,Iran,IR,10,Isfahan,Kāshān,,,34.0023,51.4388,Asia/Tehran,Mobile Communication Company,LTE expansion,AS197207 Mobile Communication Company of Iran PLC,MCCI-AS,,True,False,False,5.218.66.219,
681,success,Europe,EU,France,FR,HDF,Hauts-de-France,Roubaix,,59100,50.6924,3.20113,Europe/Paris,OVH SAS,OVH SAS,AS16276 OVH SAS,OVH,ns3071160.ip-46-105-109.eu,False,False,True,46.105.109.119,
682,success,Europe,EU,France,FR,HDF,Hauts-de-France,Roubaix,,59100,50.6924,3.20113,Europe/Paris,OVH SAS,OVH,AS16276 OVH SAS,OVH,hydrogen157-ext2.ahrefs.net,False,False,True,54.36.148.157,
683,success,Asia,AS,China,CN,BJ,Beijing,Beijing,,100000,39.9042,116.407,Asia/Shanghai,China Unicom Beijing Province Network,,AS4808 China Unicom Beijing Province Network,CHINA169-BJ,baiduspider-123-125-71-112.crawl.baidu.com,False,False,False,123.125.71.112,
684,success,Asia,AS,China,CN,BJ,Beijing,Beijing,,100000,39.9042,116.407,Asia/Shanghai,"IDC, China Telecommunications Corporation",,"AS23724 IDC, China Telecommunications Corporation",CHINANET-IDC-BJ-AP,baiduspider-220-181-108-161.crawl.baidu.com,False,False,False,220.181.108.161,
685,success,Asia,AS,Iran,IR,23,Tehran,Tehran,,,35.7219,51.3347,Asia/Tehran,Iran Cell Service and Communication Company,,AS44244 Iran Cell Service and Communication Company,IranCell-AS,,True,False,False,5.115.181.203,
686,success,Asia,AS,Iran,IR,23,Tehran,Tehran,,,35.7607,51.4043,Asia/Tehran,Mobile Communication Company of Iran,Mobile Communication Company,AS197207 Mobile Communication Company of Iran PLC,MCCI-AS,,True,False,False,83.123.120.223,
687,success,Europe,EU,France,FR,HDF,Hauts-de-France,Roubaix,,59100,50.6924,3.20113,Europe/Paris,OVH SAS,OVH,AS16276 OVH SAS,OVH,hydrogen026-ext2.ahrefs.net,False,False,True,54.36.148.26,
688,success,Asia,AS,Iran,IR,23,Tehran,Tehran,,,35.7607,51.4043,Asia/Tehran,Mobile Communication Company of Iran,Mobile Communication Company,AS197207 Mobile Communication Company of Iran PLC,MCCI-AS,,True,False,False,83.120.67.174,
689,success,North America,NA,United States,US,VA,Virginia,Boydton,,23917,36.677696,-78.37471,America/New_York,Microsoft Corporation,Microsoft Azure Cloud (eastus2),AS8075 Microsoft Corporation,MICROSOFT-CORP-MSN-AS-BLOCK,msnbot-40-77-167-45.search.msn.com,False,False,True,40.77.167.45,
690,success,Asia,AS,Iran,IR,23,Tehran,Tehran,,,35.7746,51.4136,Asia/Tehran,Rightel Communication Service Company PJS,Rightel Communication Service Company PJS,"AS57218 ""Rightel Communication Service Company PJS""",RighTel,,True,False,False,37.153.179.172,
691,success,Asia,AS,Iran,IR,09,Razavi Khorasan,Mashhad,,,36.3006,59.5904,Asia/Tehran,Mashhad,,AS44244 Iran Cell Service and Communication Company,IranCell-AS,,True,False,False,5.126.10.4,
692,success,Asia,AS,Iran,IR,23,Tehran,Tehran,,,35.6824,51.4158,Asia/Tehran,Iran Cell Service and Communication Company,IRANCELL,AS44244 Iran Cell Service and Communication Company,IranCell-AS,,False,False,False,5.116.71.2,
693,success,Europe,EU,France,FR,HDF,Hauts-de-France,Roubaix,,59100,50.6924,3.20113,Europe/Paris,OVH SAS,OVH,AS16276 OVH SAS,OVH,hydrogen355-ext2.ahrefs.net,False,False,True,54.36.149.99,
694,success,Europe,EU,France,FR,HDF,Hauts-de-France,Roubaix,,59100,50.6924,3.20113,Europe/Paris,OVH SAS,OVH,AS16276 OVH SAS,OVH,hydrogen321-ext2.ahrefs.net,False,False,True,54.36.149.65,
695,success,Europe,EU,Germany,DE,SN,Saxony,Falkenstein,,08223,50.4777,12.3649,Europe/Berlin,Hetzner Online GmbH,Hetzner,AS24940 Hetzner Online GmbH,HETZNER-AS,dario.my3cx.it,False,False,True,94.130.131.80,
696,success,Asia,AS,Iran,IR,02,Māzandarān,Nowshahr,,,36.6562,51.5068,Asia/Tehran,Mobile Communication Company,New Service 4G,AS197207 Mobile Communication Company of Iran PLC,MCCI-AS,,True,False,False,86.55.30.186,
697,success,Asia,AS,Iran,IR,03,East Azerbaijan Province,Malekān,,,37.1453,46.1076,Asia/Tehran,MCI,,AS197207 Mobile Communication Company of Iran PLC,MCCI-AS,,True,False,False,192.15.106.132,
698,success,Europe,EU,Netherlands,NL,NH,North Holland,Amsterdam,,1098,52.352,4.9392,Europe/Amsterdam,"DigitalOcean, LLC",Digital Ocean,"AS14061 DigitalOcean, LLC",DIGITALOCEAN-ASN,,False,False,True,146.185.136.246,
699,success,Asia,AS,Iran,IR,23,Tehran,Tehran,,,35.7219,51.3347,Asia/Tehran,Iran Cell Service and Communication Company,IRANCELL,AS44244 Iran Cell Service and Communication Company,IranCell-AS,,False,False,False,5.113.159.251,
700,success,Asia,AS,Iran,IR,06,Khuzestan,Ahvaz,,,31.319,48.6842,Asia/Tehran,Mobile Communication Company of Iran,Mobile Communication Company,AS197207 Mobile Communication Company of Iran PLC,MCCI-AS,,True,False,False,5.214.239.127,
701,success,North America,NA,United States,US,CA,California,Fremont,East Industrial,94539,37.49,-121.931,America/Los_Angeles,Hurricane Electric LLC,Hurricane Electric LLC,AS6939 Hurricane Electric LLC,HURRICANE,,False,False,True,66.160.201.69,
702,success,Asia,AS,Iran,IR,23,Tehran,Tehran,,,35.7607,51.4043,Asia/Tehran,Mobile Communication Company,LTE expansion,AS197207 Mobile Communication Company of Iran PLC,MCCI-AS,,True,False,False,5.218.168.241,
703,success,Asia,AS,Iran,IR,23,Tehran,Tehran,,,35.7219,51.3347,Asia/Tehran,Iran Cell Service and Communication Company,IRANCELL,AS44244 Iran Cell Service and Communication Company,IranCell-AS,,True,False,False,5.122.243.18,
704,success,Asia,AS,Iran,IR,23,Tehran,Tehran,,,35.6824,51.4158,Asia/Tehran,Dadeh Gostar Asr Novin P.J.S. Co,Dadeh Gostar Asr Novin P.J.S. Co.,AS16322 Parsan Lin Co. PJS,PARSONLINE,,False,False,False,46.167.130.211,
705,success,Europe,EU,France,FR,HDF,Hauts-de-France,Roubaix,,59100,50.6924,3.20113,Europe/Paris,OVH SAS,OVH,AS16276 OVH SAS,OVH,hydrogen352-ext2.ahrefs.net,False,False,True,54.36.149.96,
706,success,Asia,AS,Iran,IR,06,Khuzestan,Bandar-e Emam Khomeyni,,,30.437,49.1029,Asia/Tehran,Rightel Communication Service Company PJS,Rightel Communication Service Company,"AS57218 ""Rightel Communication Service Company PJS""",RighTel,,True,False,False,5.134.179.97,
707,success,Europe,EU,France,FR,HDF,Hauts-de-France,Roubaix,,59100,50.6924,3.20113,Europe/Paris,OVH SAS,OVH,AS16276 OVH SAS,OVH,hydrogen130-ext2.ahrefs.net,False,False,True,54.36.148.130,
708,success,North America,NA,United States,US,WA,Washington,Quincy,,98848,47.233,-119.852,America/Los_Angeles,Microsoft Corporation,Microsoft Azure Cloud (westus2),AS8075 Microsoft Corporation,MICROSOFT-CORP-MSN-AS-BLOCK,,False,False,True,40.77.189.149,
709,success,Asia,AS,Iran,IR,00,Markazi,Mahājerān,,,34.0202,49.4969,Asia/Tehran,Iran Telecommunication Company PJS,Telecommunication Company of Markazi,AS58224 Iran Telecommunication Company PJS,TCI,,False,False,False,5.236.231.13,
710,success,North America,NA,United States,US,VA,Virginia,Manassas,,20110,38.7493,-77.4719,America/New_York,"Leaseweb USA, Inc.","Leaseweb USA, Inc.","AS30633 Leaseweb USA, Inc.",LEASEWEB-USA-WDC,,False,False,True,199.58.86.211,
711,success,Asia,AS,Iran,IR,09,Razavi Khorasan,Golbahār,,,36.5698,59.1904,Asia/Tehran,Mobile Communication Company of Iran,Mobile Communication Company,AS197207 Mobile Communication Company of Iran PLC,MCCI-AS,,True,False,False,83.123.57.163,
712,success,Asia,AS,Iran,IR,24,Ardabil Province,Namīn,,,38.4269,48.4839,Asia/Tehran,Mobile Communication Company of Iran,Mobile Communication Company,AS197207 Mobile Communication Company of Iran PLC,MCCI-AS,,True,False,False,83.121.32.66,
713,success,Asia,AS,Iran,IR,23,Tehran,Tehran,,,35.6824,51.4158,Asia/Tehran,Mobile Communication Company of Iran,Mobile Communication Company,AS197207 Mobile Communication Company of Iran PLC,MCCI-AS,,True,False,False,89.199.23.228,
714,success,Asia,AS,Iran,IR,23,Tehran,Tehran,,,35.6824,51.4158,Asia/Tehran,Iran Cell Service and Communication Company,IRANCELL,AS44244 Iran Cell Service and Communication Company,IranCell-AS,,False,False,False,5.117.123.164,
715,success,Europe,EU,France,FR,HDF,Hauts-de-France,Roubaix,,59100,50.6924,3.20113,Europe/Paris,OVH SAS,OVH,AS16276 OVH SAS,OVH,hydrogen020-ext2.ahrefs.net,False,False,True,54.36.148.20,
716,success,Europe,EU,Germany,DE,SN,Saxony,Falkenstein,,08223,50.4777,12.3649,Europe/Berlin,Hetzner Online GmbH,Hetzner,AS24940 Hetzner Online GmbH,HETZNER-AS,static.237.136.99.88.clients.your-server.de,False,False,True,88.99.136.237,
717,success,Asia,AS,Hong Kong,HK,HCW,Central and Western District,Hong Kong,,00000,22.267,114.188,Asia/Hong_Kong,Microsoft Corporation,Microsoft Azure Cloud (eastasia),AS8075 Microsoft Corporation,MICROSOFT-CORP-MSN-AS-BLOCK,msnbot-40-77-252-109.search.msn.com,False,False,True,40.77.252.109,
718,success,Europe,EU,Germany,DE,BY,Bavaria,Nuremberg,,90403,49.4527,11.0783,Europe/Berlin,Hetzner Online GmbH,Hetzner,AS24940 Hetzner Online GmbH,HETZNER-AS,w17.testing.kube.orgacard.de,False,False,True,91.99.205.69,
719,success,Asia,AS,Hong Kong,HK,HCW,Central and Western District,Hong Kong,,00000,22.267,114.188,Asia/Hong_Kong,Microsoft Corporation,Microsoft Azure Cloud (eastasia),AS8075 Microsoft Corporation,MICROSOFT-CORP-MSN-AS-BLOCK,msnbot-40-77-194-31.search.msn.com,False,False,True,40.77.194.31,
720,success,Asia,AS,Iran,IR,09,Razavi Khorasan,Mashhad,,,36.3006,59.5904,Asia/Tehran,Mashhad,,AS44244 Iran Cell Service and Communication Company,IranCell-AS,,False,False,False,5.125.141.187,
721,success,Asia,AS,Hong Kong,HK,HCW,Central and Western District,Hong Kong,,00000,22.267,114.188,Asia/Hong_Kong,Microsoft Corporation,Microsoft Azure Cloud (eastasia),AS8075 Microsoft Corporation,MICROSOFT-CORP-MSN-AS-BLOCK,msnbot-40-77-193-20.search.msn.com,False,False,True,40.77.193.20,
722,success,Asia,AS,Hong Kong,HK,HCW,Central and Western District,Hong Kong,,00000,22.267,114.188,Asia/Hong_Kong,Microsoft Corporation,Microsoft Azure Cloud (eastasia),AS8075 Microsoft Corporation,MICROSOFT-CORP-MSN-AS-BLOCK,msnbot-40-77-194-225.search.msn.com,False,False,True,40.77.194.225,
723,success,Asia,AS,Iran,IR,10,Isfahan,Isfahan,,,32.6575,51.6775,Asia/Tehran,tce.ir,,AS58224 Iran Telecommunication Company PJS,TCI,,False,False,False,5.75.43.15,
724,success,Europe,EU,France,FR,HDF,Hauts-de-France,Roubaix,,59100,50.6924,3.20113,Europe/Paris,OVH SAS,OVH,AS16276 OVH SAS,OVH,hydrogen250-ext2.ahrefs.net,False,False,True,54.36.148.250,
725,success,Asia,AS,Iran,IR,10,Isfahan,Isfahan,,,32.6575,51.6775,Asia/Tehran,tce.ir,,AS58224 Iran Telecommunication Company PJS,TCI,,False,False,False,5.75.108.195,
726,success,Asia,AS,Hong Kong,HK,HCW,Central and Western District,Hong Kong,,00000,22.267,114.188,Asia/Hong_Kong,Microsoft Corporation,Microsoft Azure Cloud (eastasia),AS8075 Microsoft Corporation,MICROSOFT-CORP-MSN-AS-BLOCK,msnbot-40-77-193-168.search.msn.com,False,False,True,40.77.193.168,
727,success,Europe,EU,The Netherlands,NL,LI,Limburg,Eygelshoven,,6471,50.8933,6.05805,Europe/Amsterdam,PIO-Hosting GmbH,Private Customer,AS198584 PIO-Hosting GmbH,PIO-Hosting,,False,False,False,31.58.231.162,
728,success,North America,NA,United States,US,VA,Virginia,Boydton,,23917,36.677696,-78.37471,America/New_York,Microsoft Corporation,Microsoft Azure Cloud (eastus2),AS8075 Microsoft Corporation,MICROSOFT-CORP-MSN-AS-BLOCK,msnbot-40-77-167-13.search.msn.com,False,False,True,40.77.167.13,
729,success,Asia,AS,Iran,IR,23,Tehran,Tehran,,,35.7607,51.4043,Asia/Tehran,Mobile Communication Company of Iran,Mobile Communication Company,AS197207 Mobile Communication Company of Iran PLC,MCCI-AS,,True,False,False,89.196.174.69,
730,success,Asia,AS,Iran,IR,10,Isfahan,Isfahan,,,32.6575,51.6775,Asia/Tehran,Iran Telecommunication Company PJS,Telecomadsl,AS58224 Iran Telecommunication Company PJS,TCI,,False,False,False,37.255.249.243,
731,success,Asia,AS,Iran,IR,23,Tehran,Tehran,,,35.7746,51.4136,Asia/Tehran,Rightel Communication Service Company PJS,Rightel Communication Service Company PJS,"AS57218 ""Rightel Communication Service Company PJS""",RighTel,,True,False,False,37.137.93.144,
732,success,Europe,EU,France,FR,HDF,Hauts-de-France,Roubaix,,59100,50.6924,3.20113,Europe/Paris,OVH SAS,OVH,AS16276 OVH SAS,OVH,hydrogen212-ext2.ahrefs.net,False,False,True,54.36.148.212,
733,success,Asia,AS,Iran,IR,23,Tehran,Tehran,,,35.6824,51.4158,Asia/Tehran,Iran Telecommunication Company PJS,tct ADSL,AS58224 Iran Telecommunication Company PJS,TCI,,False,False,False,2.176.48.186,
734,success,Asia,AS,Iran,IR,23,Tehran,Tehran,,,35.7219,51.3347,Asia/Tehran,IRANCELL,,AS44244 Iran Cell Service and Communication Company,IranCell-AS,,True,False,False,5.127.58.58,
735,success,Asia,AS,China,CN,BJ,Beijing,Beijing,,100000,39.9042,116.407,Asia/Shanghai,"IDC, China Telecommunications Corporation",,"AS23724 IDC, China Telecommunications Corporation",CHINANET-IDC-BJ-AP,baiduspider-220-181-108-123.crawl.baidu.com,False,False,False,220.181.108.123,
736,success,Europe,EU,France,FR,HDF,Hauts-de-France,Roubaix,,59100,50.6924,3.20113,Europe/Paris,OVH SAS,OVH,AS16276 OVH SAS,OVH,hydrogen240-ext2.ahrefs.net,False,False,True,54.36.148.240,
737,success,Asia,AS,Iran,IR,10,Isfahan,Isfahan,,,32.6554,51.6737,Asia/Tehran,Iran Telecommunication Company PJS,Telecommunication Company of Esfahan,AS58224 Iran Telecommunication Company PJS,TCI,,False,False,False,5.233.15.222,
738,success,Europe,EU,Germany,DE,SN,Saxony,Falkenstein,,08223,50.4777,12.3649,Europe/Berlin,Hetzner Online GmbH,,AS24940 Hetzner Online GmbH,HETZNER-AS,static.91.245.243.136.clients.your-server.de,False,False,True,136.243.245.91,
739,success,Asia,AS,Iran,IR,23,Tehran,Tehran,,,35.6824,51.4158,Asia/Tehran,Iran Cell Service and Communication Company,IRANCELL,AS44244 Iran Cell Service and Communication Company,IranCell-AS,,False,False,False,5.117.227.100,
740,success,Europe,EU,France,FR,HDF,Hauts-de-France,Roubaix,,59100,50.6924,3.20113,Europe/Paris,OVH SAS,OVH,AS16276 OVH SAS,OVH,hydrogen139-ext2.a.ahrefs.com,False,False,True,54.36.148.139,
741,success,Asia,AS,Iran,IR,23,Tehran,Tehran,,,35.7607,51.4043,Asia/Tehran,Mobile Communication Company of Iran,Mobile Communication Company,AS197207 Mobile Communication Company of Iran PLC,MCCI-AS,,True,False,False,5.208.9.6,
742,success,Asia,AS,Hong Kong,HK,HCW,Central and Western District,Hong Kong,,00000,22.267,114.188,Asia/Hong_Kong,Microsoft Corporation,Microsoft Azure Cloud (eastasia),AS8075 Microsoft Corporation,MICROSOFT-CORP-MSN-AS-BLOCK,msnbot-40-77-253-249.search.msn.com,False,False,True,40.77.253.249,
743,success,Asia,AS,Iran,IR,23,Tehran,Tehran,,,35.7219,51.3347,Asia/Tehran,IRANCELL,,AS44244 Iran Cell Service and Communication Company,IranCell-AS,,False,False,False,5.127.101.194,
744,success,Europe,EU,Ireland,IE,L,Leinster,Dublin,,D12,53.3498,-6.2603,Europe/Dublin,Netprotect,NP-DUB-DP,"AS62651 Strong Technology, LLC.",NETPROTECT-DP,205-185-193-183.dub.as62651.net,False,True,True,205.185.193.183,
745,success,Asia,AS,Hong Kong,HK,HCW,Central and Western District,Hong Kong,,00000,22.267,114.188,Asia/Hong_Kong,Microsoft Corporation,Microsoft Azure Cloud (eastasia),AS8075 Microsoft Corporation,MICROSOFT-CORP-MSN-AS-BLOCK,msnbot-40-77-192-63.search.msn.com,False,False,True,40.77.192.63,
746,success,Asia,AS,Iran,IR,23,Tehran,Tehran,,,35.7746,51.4136,Asia/Tehran,Rightel Communication Service Company PJS,Rightel Communication Service Company PJS,"AS57218 ""Rightel Communication Service Company PJS""",RighTel,,False,False,False,95.162.206.43,
747,success,Asia,AS,Hong Kong,HK,HCW,Central and Western District,Hong Kong,,00000,22.267,114.188,Asia/Hong_Kong,Microsoft Corporation,Microsoft Azure Cloud (eastasia),AS8075 Microsoft Corporation,MICROSOFT-CORP-MSN-AS-BLOCK,msnbot-40-77-253-122.search.msn.com,False,False,True,40.77.253.122,
748,success,Asia,AS,Hong Kong,HK,HCW,Central and Western District,Hong Kong,,00000,22.267,114.188,Asia/Hong_Kong,Microsoft Corporation,Microsoft Azure Cloud (eastasia),AS8075 Microsoft Corporation,MICROSOFT-CORP-MSN-AS-BLOCK,msnbot-40-77-192-20.search.msn.com,False,False,True,40.77.192.20,
749,success,Asia,AS,Iran,IR,06,Khuzestan,Ahvaz,,,31.319,48.6842,Asia/Tehran,IRANCELL,,AS44244 Iran Cell Service and Communication Company,IranCell-AS,,False,False,False,5.127.231.1,
750,success,Europe,EU,France,FR,HDF,Hauts-de-France,Roubaix,,59100,50.6924,3.20113,Europe/Paris,OVH SAS,OVH,AS16276 OVH SAS,OVH,hydrogen252-ext2.ahrefs.net,False,False,True,54.36.148.252,
751,success,Europe,EU,Germany,DE,HE,Hesse,Frankfurt am Main,,60313,50.1169,8.6837,Europe/Berlin,"DigitalOcean, LLC","DigitalOcean, LLC","AS14061 DigitalOcean, LLC",DIGITALOCEAN-ASN,,False,False,True,104.248.21.70,
752,success,Asia,AS,Iran,IR,23,Tehran,Tehran,,,35.7282,51.4259,Asia/Tehran,Asiatech Data Transmission company,Asiatech Data Transmission Co.,AS43754 Asiatech Data Transmission company,ASIATECH,,False,False,False,79.127.7.174,
753,success,Asia,AS,Iran,IR,23,Tehran,Tehran,,,35.7219,51.3347,Asia/Tehran,Esfahan,,AS44244 Iran Cell Service and Communication Company,IranCell-AS,,False,False,False,5.123.52.9,
754,success,Asia,AS,Iran,IR,09,Razavi Khorasan,Mashhad,,,36.3006,59.5904,Asia/Tehran,IRANCELL,,AS44244 Iran Cell Service and Communication Company,IranCell-AS,,True,False,False,5.126.96.220,
755,success,Asia,AS,Iran,IR,23,Tehran,Tehran,,,35.7543,51.4205,Asia/Tehran,Information Technology Company,,AS58224 Iran Telecommunication Company PJS,TCI,,False,False,False,2.178.5.1,
756,success,Asia,AS,Iran,IR,23,Tehran,Tehran,,,35.6824,51.4158,Asia/Tehran,Iran Cell Service and Communication Company,IRANCELL,AS44244 Iran Cell Service and Communication Company,IranCell-AS,,True,False,False,5.116.191.180,
757,success,Asia,AS,Iran,IR,23,Tehran,Tehran,,,35.7607,51.4043,Asia/Tehran,Mobile Communication Company of Iran,Mobile Communication Company,AS197207 Mobile Communication Company of Iran PLC,MCCI-AS,,True,False,False,5.213.136.63,
758,success,North America,NA,United States,US,MI,Michigan,Grand Rapids,Medical Mile,49501,42.9712,-85.6733,America/Detroit,Gordon Food Service,Gordon Food Service,AS19936 Gordon Food Service,GORDONFOODS,,False,False,False,104.194.25.155,
759,success,Asia,AS,Iran,IR,13,Hamadan Province,Hamadan,,,34.7989,48.515,Asia/Tehran,Telecommunication Company of Iran,Telecommunication Company of Hamedan,AS58224 Iran Telecommunication Company PJS,TCI,,False,False,False,5.236.137.15,
760,success,Europe,EU,France,FR,HDF,Hauts-de-France,Roubaix,,59100,50.6924,3.20113,Europe/Paris,OVH SAS,OVH,AS16276 OVH SAS,OVH,hydrogen158-ext2.ahrefs.net,False,False,True,54.36.148.158,
761,success,Asia,AS,Iran,IR,06,Khuzestan,Bandar-e Māhshahr,,,30.5565,49.1885,Asia/Tehran,Rightel Communication Service Company PJS,Rightel Communication Service Company PJS,"AS57218 ""Rightel Communication Service Company PJS""",RighTel,,True,False,False,37.156.158.47,
762,success,Asia,AS,Iran,IR,23,Tehran,Tehran,,,35.7607,51.4043,Asia/Tehran,Mobile Communication Company of Iran,Mobile Communication Company,AS197207 Mobile Communication Company of Iran PLC,MCCI-AS,,True,False,False,5.211.219.77,
763,success,Asia,AS,Iran,IR,23,Tehran,Tehran,,,35.7607,51.4043,Asia/Tehran,Mobile Communication Company of Iran,Mobile Communication Company,AS197207 Mobile Communication Company of Iran PLC,MCCI-AS,,True,False,False,5.216.243.157,
764,success,Asia,AS,Iran,IR,09,Razavi Khorasan,Mashhad,,,36.3006,59.5904,Asia/Tehran,IRANCELL,,AS44244 Iran Cell Service and Communication Company,IranCell-AS,,True,False,False,5.125.234.62,
765,success,Europe,EU,France,FR,IDF,Île-de-France,Paris,,75001,48.8558,2.3494,Europe/Paris,Online S.A.S.,ONLINE,AS12876 SCALEWAY S.A.S.,AS12876,,False,False,True,195.154.122.9,
766,success,Asia,AS,Iran,IR,23,Tehran,Tehran,District 6,,35.7454,51.4087,Asia/Tehran,Respina Networks & Beyond PJSC,Respina,AS42337 Respina Networks & Beyond PJSC,RESPINA-AS,mail.hilavis.com,False,False,False,2.188.163.34,
767,success,Asia,AS,Iran,IR,09,Razavi Khorasan,Mashhad,,,36.3006,59.5904,Asia/Tehran,Mashhad,,AS44244 Iran Cell Service and Communication Company,IranCell-AS,,False,False,False,5.126.85.235,
768,success,Europe,EU,France,FR,HDF,Hauts-de-France,Roubaix,,59100,50.6924,3.20113,Europe/Paris,OVH SAS,OVH,AS16276 OVH SAS,OVH,hydrogen236-ext2.ahrefs.net,False,False,True,54.36.148.236,
769,success,Asia,AS,Iran,IR,07,Fars,Shiraz,,,29.6106,52.5245,Asia/Tehran,Shiraz,,AS44244 Iran Cell Service and Communication Company,IranCell-AS,,False,False,False,5.119.37.38,
770,success,Asia,AS,Iran,IR,02,Māzandarān,Babol,,,36.5387,52.6765,Asia/Tehran,Iran Telecommunication Company PJS,Telecommunication Company of Mazandaran,AS58224 Iran Telecommunication Company PJS,TCI,,False,False,False,5.236.33.140,
771,success,Asia,AS,Iran,IR,23,Tehran,Tehran,,,35.7219,51.3347,Asia/Tehran,Iran Cell Service and Communication Company,IRANCELL,AS44244 Iran Cell Service and Communication Company,IranCell-AS,,True,False,False,5.122.142.118,
772,success,Asia,AS,Iran,IR,09,Razavi Khorasan,Mashhad,,,36.3006,59.5904,Asia/Tehran,Mashhad,,AS44244 Iran Cell Service and Communication Company,IranCell-AS,,True,False,False,5.125.173.223,
773,success,North America,NA,United States,US,CA,California,Fremont,East Industrial,94539,37.49,-121.931,America/Los_Angeles,Hurricane Electric LLC,Dynamic Internet Technology Inc,AS6939 Hurricane Electric LLC,HURRICANE,,False,True,True,65.49.68.199,
774,success,Europe,EU,France,FR,HDF,Hauts-de-France,Roubaix,,59100,50.6924,3.20113,Europe/Paris,OVH SAS,OVH,AS16276 OVH SAS,OVH,hydrogen049-ext2.ahrefs.net,False,False,True,54.36.148.49,
775,success,Europe,EU,France,FR,HDF,Hauts-de-France,Roubaix,,59100,50.6924,3.20113,Europe/Paris,OVH SAS,OVH,AS16276 OVH SAS,OVH,hydrogen302-ext2.ahrefs.net,False,False,True,54.36.149.46,
776,success,Europe,EU,France,FR,HDF,Hauts-de-France,Roubaix,,59100,50.6924,3.20113,Europe/Paris,OVH SAS,OVH,AS16276 OVH SAS,OVH,hydrogen013-ext2.ahrefs.net,False,False,True,54.36.148.13,
777,success,Asia,AS,Iran,IR,07,Fars,Varāvī,,,27.466,53.0542,Asia/Tehran,Mobile Communication Company of Iran,Mobile Communication Company,AS197207 Mobile Communication Company of Iran PLC,MCCI-AS,,True,False,False,5.214.241.88,
778,success,Asia,AS,Iran,IR,23,Tehran,Tehran,,,35.6824,51.4158,Asia/Tehran,DCI,Telecommunication Company of Tehran,AS58224 Iran Telecommunication Company PJS,TCI,,False,False,False,86.107.147.16,
779,success,Europe,EU,France,FR,HDF,Hauts-de-France,Roubaix,,59100,50.6924,3.20113,Europe/Paris,OVH SAS,OVH,AS16276 OVH SAS,OVH,hydrogen098-ext2.ahrefs.net,False,False,True,54.36.148.98,
780,success,Europe,EU,Slovenia,SI,061,Ljubljana,Ljubljana,,1000,46.0503,14.5046,Europe/Ljubljana,T-2 d.o.o.,,"AS34779 T-2, d.o.o.",T-2-AS,89-212-162-177.static.t-2.net,True,False,False,89.212.162.177,
781,success,Asia,AS,Iran,IR,23,Tehran,Tajrīsh,,,35.8044,51.4256,Asia/Tehran,Iran Cell Service and Communication Company,,AS44244 Iran Cell Service and Communication Company,IranCell-AS,,True,False,False,5.113.176.27,
782,success,Asia,AS,Iran,IR,23,Tehran,Tehran,,,35.6824,51.4158,Asia/Tehran,Rightel Communication Service Company PJS,Rightel Communication Service Company PJS,"AS57218 ""Rightel Communication Service Company PJS""",RighTel,,True,False,False,5.62.216.90,
783,success,Asia,AS,Iran,IR,23,Tehran,Tehran,,,35.7219,51.3347,Asia/Tehran,IRANCELL,,AS44244 Iran Cell Service and Communication Company,IranCell-AS,,True,False,False,5.124.247.7,
784,success,Asia,AS,Iran,IR,23,Tehran,Tehran,,,35.6824,51.4158,Asia/Tehran,Iran Cell Service and Communication Company,,AS44244 Iran Cell Service and Communication Company,IranCell-AS,,True,False,False,5.116.96.208,
785,success,Europe,EU,France,FR,HDF,Hauts-de-France,Roubaix,,59100,50.6924,3.20113,Europe/Paris,OVH SAS,OVH,AS16276 OVH SAS,OVH,hydrogen359-ext2.ahrefs.net,False,False,True,54.36.149.103,
786,success,Asia,AS,Iran,IR,23,Tehran,Tehran,,,35.7219,51.3347,Asia/Tehran,Esfahan,,AS44244 Iran Cell Service and Communication Company,IranCell-AS,,False,False,False,5.123.157.184,
787,success,Asia,AS,Iran,IR,23,Tehran,Tehran,,,35.6824,51.4158,Asia/Tehran,Mobile Communication Company of Iran,Mobile Communication Company,AS197207 Mobile Communication Company of Iran PLC,MCCI-AS,,True,False,False,89.199.32.187,
788,success,Asia,AS,Iran,IR,23,Tehran,Tehran,,,35.7607,51.4043,Asia/Tehran,Mobile Communication Company of Iran,Mobile Communication Company,AS197207 Mobile Communication Company of Iran PLC,MCCI-AS,,True,False,False,5.208.222.17,
789,success,Asia,AS,Iran,IR,23,Tehran,Tehran,,,35.7219,51.3347,Asia/Tehran,Esfahan,,AS44244 Iran Cell Service and Communication Company,IranCell-AS,,False,False,False,5.124.29.0,
790,success,Asia,AS,Iran,IR,10,Isfahan,Isfahan,,,32.6575,51.6775,Asia/Tehran,Iran Telecommunication Company PJS,Telecommunication Company of Esfahan,AS58224 Iran Telecommunication Company PJS,TCI,,False,False,False,37.254.23.226,
791,success,North America,NA,United States,US,CA,California,La Palma,,90623,33.8608,-118.033,America/Los_Angeles,Krypt Technologies,Krypt Technologies,AS35908 Krypt Technologies,VPLSNET,67.229.172.90.static.krypt.com,False,False,True,67.229.172.90,
792,success,Asia,AS,China,CN,BJ,Beijing,Beijing,,100000,39.9042,116.407,Asia/Shanghai,China Unicom Beijing Province Network,,AS4808 China Unicom Beijing Province Network,CHINA169-BJ,baiduspider-123-125-71-14.crawl.baidu.com,False,False,False,123.125.71.14,
793,success,Asia,AS,Iran,IR,23,Tehran,Tehran,,,35.6824,51.4158,Asia/Tehran,Parsan Lin Co. PJS,Dadeh Gostar Asr Novin P.J.S. Co.,AS16322 Parsan Lin Co. PJS,PARSONLINE,,False,False,False,77.77.110.49,
794,success,Asia,AS,Iran,IR,10,Isfahan,Isfahan,,,32.6554,51.6737,Asia/Tehran,Iran Telecommunication Company PJS,Telecommunication Company of Esfahan,AS58224 Iran Telecommunication Company PJS,TCI,,False,False,False,5.233.22.140,
795,success,North America,NA,United States,US,CA,California,Fremont,East Industrial,94539,37.49,-121.931,America/Los_Angeles,Hurricane Electric LLC,Dynamic Internet Technology Inc,AS6939 Hurricane Electric LLC,HURRICANE,,False,True,True,65.49.68.182,
796,success,Asia,AS,Iran,IR,23,Tehran,Tehran,,,35.7219,51.3347,Asia/Tehran,Telecommunication Company of Iran,Telecommunication Company of Tehran,AS58224 Iran Telecommunication Company PJS,TCI,,False,False,False,5.239.50.9,
797,success,North America,NA,United States,US,MN,Minnesota,Apple Valley,,55124,44.7518,-93.2407,America/Chicago,Madgenius.com,Madgenius.com,AS55154 Madgenius.com,MADGEN-01,,False,False,False,192.119.167.189,
798,success,North America,NA,United States,US,WA,Washington,Quincy,,98848,47.233,-119.852,America/Los_Angeles,Microsoft Corporation,Microsoft Azure Cloud (westus2),AS8075 Microsoft Corporation,MICROSOFT-CORP-MSN-AS-BLOCK,msnbot-157-55-39-220.search.msn.com,False,False,True,157.55.39.220,
799,success,Asia,AS,Iran,IR,18,Bushehr Province,Jam,,,27.8298,52.3252,Asia/Tehran,Shiraz,,AS44244 Iran Cell Service and Communication Company,IranCell-AS,,True,False,False,5.120.157.233,
800,success,Asia,AS,Iran,IR,23,Tehran,Tehran,,,35.7607,51.4043,Asia/Tehran,Mobile Communication Company of Iran,Mobile Communication Company,AS197207 Mobile Communication Company of Iran PLC,MCCI-AS,,True,False,False,83.121.196.28,
801,success,Asia,AS,Iran,IR,23,Tehran,Tehran,,,35.7746,51.4136,Asia/Tehran,Rightel Communication Service Company PJS,Rightel Communication Service Company,"AS57218 ""Rightel Communication Service Company PJS""",RighTel,,False,False,False,37.137.246.31,
802,success,Asia,AS,Iran,IR,23,Tehran,Tehran,,,35.7219,51.3347,Asia/Tehran,Aria Shatel PJSC,,AS31549 Aria Shatel PJSC,RASANA,,False,False,False,151.239.183.138,
803,success,Asia,AS,Iran,IR,28,North Khorasan,Shīrvān,,,37.3939,57.9216,Asia/Tehran,Iran Telecommunication Company PJS,Telecommunication Company of Khorasan Shomali,AS58224 Iran Telecommunication Company PJS,TCI,,False,False,False,89.38.91.28,
804,success,Asia,AS,Iran,IR,23,Tehran,Tehran,,,35.7607,51.4043,Asia/Tehran,Mobile Communication Company of Iran,Mobile Communication Company,AS197207 Mobile Communication Company of Iran PLC,MCCI-AS,,True,False,False,37.129.199.230,
805,success,Asia,AS,Iran,IR,07,Fars,Varāvī,,,27.466,53.0542,Asia/Tehran,Mobile Communication Company of Iran,Mobile Communication Company,AS197207 Mobile Communication Company of Iran PLC,MCCI-AS,,True,False,False,5.214.198.165,
806,success,Asia,AS,Iran,IR,23,Tehran,Tehran,,,35.6824,51.4158,Asia/Tehran,Mobile Communication Company of Iran,,AS197207 Mobile Communication Company of Iran PLC,MCCI-AS,,True,False,False,46.51.21.57,
807,success,Asia,AS,Iran,IR,23,Tehran,Tehran,,,35.6824,51.4158,Asia/Tehran,Iran Cell Service and Communication Company,,AS44244 Iran Cell Service and Communication Company,IranCell-AS,,True,False,False,5.114.192.255,
808,success,Asia,AS,Singapore,SG,05,South West,Singapore,Pioneer,627753,1.32123,103.695,Asia/Singapore,"DigitalOcean, LLC","DigitalOcean, LLC","AS14061 DigitalOcean, LLC",DIGITALOCEAN-ASN,,False,False,True,128.199.151.52,
809,success,Asia,AS,Iran,IR,23,Tehran,Tehran,,,35.7219,51.3347,Asia/Tehran,Iran Cell Service and Communication Company,IRANCELL,AS44244 Iran Cell Service and Communication Company,IranCell-AS,,False,False,False,5.122.151.101,
810,success,Asia,AS,Iran,IR,23,Tehran,Robāţ Karīm,,,35.4846,51.0829,Asia/Tehran,Information Technology Company,,AS58224 Iran Telecommunication Company PJS,TCI,,False,False,False,2.177.86.202,
811,success,Asia,AS,Iran,IR,07,Fars,Shiraz,,,29.6103,52.5311,Asia/Tehran,Iran Cell Service and Communication Company,IRANCELL,AS44244 Iran Cell Service and Communication Company,IranCell-AS,,False,False,False,5.120.84.248,
812,success,Asia,AS,Iran,IR,09,Razavi Khorasan,Mashhad,,,36.3006,59.5904,Asia/Tehran,Mashhad,,AS44244 Iran Cell Service and Communication Company,IranCell-AS,,False,False,False,5.126.122.102,
813,success,Asia,AS,Iran,IR,23,Tehran,Tehran,,,35.6824,51.4158,Asia/Tehran,DCI,Telecommunication Company of Tehran,AS58224 Iran Telecommunication Company PJS,TCI,,False,False,False,89.219.115.217,
814,success,Asia,AS,Iran,IR,01,Gilan Province,Bandar-e Anzali,,,37.4732,49.4579,Asia/Tehran,Mobile Communication Company of Iran,Mobile Communication Company,AS197207 Mobile Communication Company of Iran PLC,MCCI-AS,,True,False,False,83.120.121.135,
815,success,Asia,AS,Iran,IR,09,Razavi Khorasan,Golbahār,,,36.5698,59.1904,Asia/Tehran,Mobile Communication Company of Iran,Mobile Communication Company,AS197207 Mobile Communication Company of Iran PLC,MCCI-AS,,True,False,False,83.122.141.176,
816,success,Europe,EU,France,FR,IDF,Île-de-France,Paris,,75001,48.8558,2.3494,Europe/Paris,SCALEWAY,ONLINE,AS12876 SCALEWAY S.A.S.,AS12876,189-253-15-51.instances.scw.cloud,False,False,True,51.15.253.189,
817,success,Asia,AS,Iran,IR,30,Alborz Province,Karaj,,,35.8262,50.9776,Asia/Tehran,Telecommunication Company of Iran,,AS58224 Iran Telecommunication Company PJS,TCI,,False,False,False,2.179.35.7,
818,success,Asia,AS,Iran,IR,09,Razavi Khorasan,Mashhad,,,36.3006,59.5904,Asia/Tehran,Mashhad,,AS44244 Iran Cell Service and Communication Company,IranCell-AS,,False,False,False,5.125.40.111,
819,success,Asia,AS,Iran,IR,23,Tehran,Tehran,,,35.7607,51.4043,Asia/Tehran,Mobile Communication Company,VAS,AS197207 Mobile Communication Company of Iran PLC,MCCI-AS,,True,False,False,5.210.106.61,
820,success,Asia,AS,Iran,IR,23,Tehran,Tehran,,,35.7219,51.3347,Asia/Tehran,Esfahan,,AS44244 Iran Cell Service and Communication Company,IranCell-AS,,False,False,False,5.124.63.90,
821,success,Asia,AS,Iran,IR,07,Ostān-e Tehrān,Tehran,,,35.6194,51.4776,Asia/Tehran,Mobile Communication Company of Iran PLC,,AS197207 Mobile Communication Company of Iran PLC,MCCI-AS,,False,False,False,204.18.201.252,
822,success,North America,NA,United States,US,OR,Oregon,Portland,,97207,45.5248,-122.6789,America/Los_Angeles,Hetzner Online GmbH,HETZNER-DC,AS212317 Hetzner Online GmbH,HETZNER-CLOUD3-AS,static.26.228.78.5.clients.your-server.de,False,False,False,5.78.228.26,
823,success,Asia,AS,Iran,IR,23,Tehran,Tehran,District 3,,35.7603,51.4316,Asia/Tehran,Tose'h Fanavari Ertebabat Pasargad Arian Co. PJS,FanapTelecom,AS206065 Tose'h Fanavari Ertebabat Pasargad Arian Co. PJS,FDI,,False,False,False,188.136.208.128,
824,success,Asia,AS,Iran,IR,23,Tehran,Tehran,,,35.7543,51.4205,Asia/Tehran,Information Technology Company,,AS58224 Iran Telecommunication Company PJS,TCI,,False,False,False,2.178.21.220,
825,success,Europe,EU,France,FR,HDF,Hauts-de-France,Roubaix,,59100,50.6924,3.20113,Europe/Paris,OVH SAS,OVH,AS16276 OVH SAS,OVH,hydrogen031-ext2.ahrefs.net,False,False,True,54.36.148.31,
826,success,North America,NA,United States,US,TX,Texas,Dallas,,75270,32.7797,-96.8022,America/Chicago,"Karolio IT paslaugos, UAB",IPXO,"AS212669 Karolio IT paslaugos, UAB",Internet-7,,False,True,False,216.185.45.131,
827,success,Europe,EU,France,FR,HDF,Hauts-de-France,Roubaix,,59100,50.6924,3.20113,Europe/Paris,OVH SAS,OVH,AS16276 OVH SAS,OVH,hydrogen285-ext2.ahrefs.net,False,False,True,54.36.149.29,
828,success,Asia,AS,Iran,IR,23,Tehran,Tehran,,,35.6824,51.4158,Asia/Tehran,Mobile Communication Company of Iran,Mobile Communication Company,AS197207 Mobile Communication Company of Iran PLC,MCCI-AS,,True,False,False,5.217.215.166,
829,success,North America,NA,United States,US,CA,California,Fremont,East Industrial,94539,37.49,-121.931,America/Los_Angeles,Hurricane Electric LLC,Dynamic Internet Technology Inc,AS6939 Hurricane Electric LLC,HURRICANE,,False,True,True,65.49.68.176,
830,success,Asia,AS,Iran,IR,23,Tehran,Tehran,,,35.7746,51.4136,Asia/Tehran,Rightel Communication Service Company PJS,Rightel Communication Service Company PJS,"AS57218 ""Rightel Communication Service Company PJS""",RighTel,,True,False,False,37.137.60.192,
831,success,Asia,AS,Iran,IR,23,Tehran,Tehran,,,35.6824,51.4158,Asia/Tehran,Iran Cell Service and Communication Company,,AS44244 Iran Cell Service and Communication Company,IranCell-AS,,True,False,False,5.114.193.100,
832,success,Asia,AS,Iran,IR,23,Tehran,Tehran,,,35.7607,51.4043,Asia/Tehran,Mobile Communication Company of Iran,Mobile Communication Company,AS197207 Mobile Communication Company of Iran PLC,MCCI-AS,,True,False,False,83.122.2.71,
833,success,Europe,EU,Finland,FI,18,Uusimaa,Helsinki,,00201,60.1719,24.9347,Europe/Helsinki,Hetzner Online GmbH,Hetzner Online GmbH,AS24940 Hetzner Online GmbH,HETZNER-AS,static.34.11.216.95.clients.your-server.de,False,False,True,95.216.11.34,
834,success,North America,NA,United States,US,NY,New York,Newark,,14513,43.0475,-77.094,America/New_York,HostRoyale Technologies Pvt Ltd,HostRoyale Technologies,AS207990 HostRoyale Technologies Pvt Ltd,HR-CUSTOMER,,False,True,False,94.176.58.207,
835,success,Asia,AS,Iran,IR,23,Tehran,Tehran,,,35.6824,51.4158,Asia/Tehran,Rightel Communication Service Company PJS,Rightel Communication Service Company PJS,"AS57218 ""Rightel Communication Service Company PJS""",RighTel,,True,False,False,5.62.197.241,
836,success,Asia,AS,Iran,IR,23,Tehran,Tehran,,,35.7219,51.3347,Asia/Tehran,Iran Cell Service and Communication Company,IRANCELL,AS44244 Iran Cell Service and Communication Company,IranCell-AS,,False,False,False,5.113.232.221,
837,success,Europe,EU,Germany,DE,SL,Saarland,Saarbrücken,Mitte,66111,49.2405,6.98474,Europe/Berlin,OVH SAS,OVH GmbH,AS16276 OVH SAS,OVH,,False,False,True,54.36.118.109,
838,success,Europe,EU,France,FR,HDF,Hauts-de-France,Roubaix,,59100,50.6924,3.20113,Europe/Paris,OVH SAS,OVH,AS16276 OVH SAS,OVH,ns3422841.ip-51-255-77.eu,False,False,True,51.255.77.75,
839,success,Asia,AS,Iran,IR,23,Tehran,Tehran,,,35.7607,51.4043,Asia/Tehran,Mobile Communication Company of Iran,Mobile Communication Company,AS197207 Mobile Communication Company of Iran PLC,MCCI-AS,,True,False,False,37.129.134.244,
840,success,Asia,AS,Iran,IR,07,Fars,Shiraz,,,29.6106,52.5245,Asia/Tehran,Iran Cell Service and Communication Company,IRANCELL,AS44244 Iran Cell Service and Communication Company,IranCell-AS,,True,False,False,5.119.230.226,
841,success,Asia,AS,Iran,IR,03,East Azerbaijan Province,Tabriz,Amir Khiz,,38.1065,46.283,Asia/Tehran,lct,East Azarbayjan Telecommunication company,AS58224 Iran Telecommunication Company PJS,TCI,,False,False,False,2.186.101.93,
842,success,Europe,EU,Germany,DE,BY,Bavaria,Nuremberg,,90403,49.4527,11.0783,Europe/Berlin,Hetzner Online GmbH,Hetzner,AS24940 Hetzner Online GmbH,HETZNER-AS,static.232.203.98.91.clients.your-server.de,False,False,True,91.98.203.232,
843,success,North America,NA,United States,US,DE,Delaware,Wilmington,Mid-town Brandywine,19899,39.7481,-75.548,America/New_York,Level 3,BSO NETWORK INC,"AS60653 FEEDLY, INC.",FEEDLY-DEVHD,,False,False,False,8.29.198.27,
844,success,Asia,AS,Iran,IR,23,Tehran,Tehran,,,35.7264,51.4163,Asia/Tehran,teh1,,AS39501 NGSAS NedaGostarSaba,NGSAS-NedaGostarSaba,,False,False,False,89.165.19.187,
845,success,Asia,AS,Iran,IR,09,Razavi Khorasan,Mashhad,,,36.3006,59.5904,Asia/Tehran,Mashhad,,AS44244 Iran Cell Service and Communication Company,IranCell-AS,,False,False,False,5.125.23.9,
